{
"type": "FeatureCollection",
"name": "provincies",
"crs": { "type": "name", "properties": { "name": "urn:ogc:def:crs:EPSG::28992" } },
"features": [
{ "type": "Feature", "properties": { "fid": 3, "identificatie": "PV23", "naam": "Overijssel", "code": "23", "ligt_in_land_code": "6030", "ligt_in_land_naam": "Nederland" }, "geometry": { "type": "MultiPolygon", "coordinates": [ [ [ [ 191578.085, 498616.424999999988358 ], [ 192244.534000000014203, 498992.456 ], [ 192345.170000000012806, 498893.856000000028871 ], [ 193013.68, 499559.393999999971129 ], [ 193222.725, 499713.941 ], [ 193432.454, 499786.694000000017695 ], [ 193820.967, 499721.928000000014435 ], [ 194280.182, 498904.174999999988358 ], [ 195433.791, 500262.294999999983702 ], [ 196043.753999999986263, 500847.406000000017229 ], [ 197091.096, 501995.261999999987893 ], [ 197445.446, 502211.195 ], [ 197629.096, 502215.753000000026077 ], [ 197919.753999999986263, 502091.548 ], [ 198157.836000000010245, 502149.759000000020023 ], [ 198326.021, 502289.38 ], [ 198493.513, 502628.338999999978114 ], [ 199485.439000000013039, 502190.944000000017695 ], [ 200323.812, 501525.520000000018626 ], [ 200580.856, 501133.593 ], [ 200957.230000000010477, 500200.60999999998603 ], [ 201255.21, 499794.272999999986496 ], [ 201731.684, 499434.212 ], [ 202473.738000000012107, 499147.772 ], [ 202697.913, 499018.120999999984633 ], [ 203111.028, 498643.777 ], [ 203418.684, 498230.864 ], [ 203554.128, 497862.129000000015367 ], [ 203677.13, 496759.99900000001071 ], [ 203688.211000000010245, 496246.413999999989755 ], [ 203591.19, 495751.571999999985565 ], [ 203634.603, 495516.962 ], [ 203806.115, 495220.677000000025146 ], [ 204363.359, 494795.109 ], [ 204799.356999999989057, 494154.757999999972526 ], [ 204680.075000000011642, 494039.689000000013039 ], [ 204592.464, 493850.174 ], [ 204715.779, 493655.288 ], [ 204722.945, 493455.847 ], [ 204661.684, 493210.479 ], [ 204609.397, 493187.838999999978114 ], [ 204516.987, 492998.583999999973457 ], [ 204433.103, 492697.318000000028405 ], [ 204416.022999999986496, 492369.158999999985099 ], [ 204498.486, 492075.106000000028871 ], [ 204235.855000000010477, 491348.268999999971129 ], [ 204414.236, 491325.351000000024214 ], [ 204520.195, 491260.898999999975786 ], [ 204612.931000000011409, 491028.887999999977183 ], [ 204805.702, 490785.907 ], [ 205120.817000000010012, 490708.348999999987427 ], [ 205237.736, 490516.055 ], [ 205388.568999999988591, 490455.278999999980442 ], [ 205590.532, 490497.50099999998929 ], [ 205526.791, 490274.688000000023749 ], [ 205242.846, 489712.205000000016298 ], [ 205298.598999999987427, 488774.559 ], [ 205203.828, 488513.994 ], [ 205045.453, 488291.805999999982305 ], [ 204751.543, 488073.298 ], [ 204506.166, 487972.26 ], [ 203208.446, 487565.303000000014435 ], [ 202433.076, 487398.657 ], [ 202242.149, 487288.441999999980908 ], [ 202080.788999999989755, 487073.93 ], [ 202011.942000000010012, 486656.104999999981374 ], [ 202127.869, 486334.427000000025146 ], [ 202281.399, 486229.045999999972992 ], [ 202699.296, 486167.13900000002468 ], [ 202894.579999999987194, 486089.484 ], [ 203087.49900000001071, 485913.830000000016298 ], [ 203207.997, 485687.795999999972992 ], [ 202692.424, 485340.294999999983702 ], [ 202065.122, 485171.419999999983702 ], [ 202072.082, 485094.86099999997532 ], [ 201934.931000000011409, 484963.646 ], [ 201944.279, 484418.400000000023283 ], [ 201890.85999999998603, 484293.960000000020955 ], [ 201994.84, 483637.919999999983702 ], [ 201920.314000000013039, 483204.704000000027008 ], [ 201814.03, 483172.0 ], [ 201923.369, 483041.87599999998929 ], [ 201818.21, 482914.700000000011642 ], [ 201599.554, 481768.295999999972992 ], [ 201458.671, 481768.457999999984168 ], [ 201355.238000000012107, 481697.596000000019558 ], [ 201286.366, 481584.112000000022817 ], [ 201294.812, 481437.918 ], [ 201318.787000000011176, 481312.476000000024214 ], [ 201677.945, 481246.858 ], [ 201809.769, 481309.881999999983236 ], [ 202225.606999999989057, 481297.172000000020489 ], [ 202311.339, 480664.648999999975786 ], [ 202569.981, 480649.148999999975786 ], [ 202448.578, 480133.835000000020955 ], [ 202536.268000000010943, 479516.827999999979511 ], [ 202679.669, 479554.973 ], [ 202797.219000000011874, 479388.395000000018626 ], [ 203001.068, 479345.51 ], [ 203565.57, 479366.705000000016298 ], [ 203533.575000000011642, 479481.173 ], [ 203709.397999999986496, 479490.12 ], [ 203760.840999999985797, 479312.840000000025611 ], [ 203958.965999999985797, 478990.504000000015367 ], [ 203951.852000000013504, 478773.403999999980442 ], [ 204029.068, 478512.232000000018161 ], [ 204406.028, 478048.967 ], [ 204410.634, 477215.577 ], [ 204506.563, 476905.753000000026077 ], [ 205130.979, 476190.196999999985565 ], [ 205222.996000000013737, 475948.027 ], [ 205266.585, 475498.096000000019558 ], [ 205353.518000000010943, 475298.965000000025611 ], [ 205493.983, 475142.299 ], [ 205716.506, 475000.137999999977183 ], [ 205593.96, 474768.51500000001397 ], [ 205547.383, 474776.104 ], [ 205384.715, 474566.576 ], [ 205285.351, 474216.460000000020955 ], [ 205303.4, 473971.09499999997206 ], [ 205482.182999999989988, 473880.794 ], [ 205789.381, 473862.099999999976717 ], [ 206094.009, 473771.512999999977183 ], [ 206325.396, 473571.566 ], [ 206651.812, 473420.072999999974854 ], [ 206718.144, 473500.669999999983702 ], [ 207051.721, 473587.169 ], [ 207093.06, 473637.416000000026543 ], [ 207349.389, 473470.352000000013504 ], [ 207381.604, 473350.424999999988358 ], [ 207342.832, 473161.797000000020489 ], [ 207082.24, 472900.663 ], [ 206572.951, 472534.841000000014901 ], [ 206533.924, 472323.865 ], [ 206558.628, 471976.553000000014435 ], [ 206680.432999999989988, 471704.420999999972992 ], [ 206957.48499999998603, 471341.027 ], [ 207896.437, 471024.906000000017229 ], [ 208074.593, 470711.25 ], [ 207988.030999999988126, 470311.125 ], [ 208089.218, 470212.5 ], [ 208178.453, 470220.936999999976251 ], [ 208267.39000000001397, 470367.875 ], [ 208332.078, 470374.75 ], [ 208322.218, 470511.406000000017229 ], [ 208399.835, 470578.411000000021886 ], [ 208179.25, 470785.792000000015832 ], [ 208157.753, 470845.137999999977183 ], [ 208197.89000000001397, 470891.156000000017229 ], [ 208111.057, 470990.840000000025611 ], [ 208046.568999999988591, 471258.445 ], [ 207969.524, 471376.912000000011176 ], [ 208329.435, 471192.177000000025146 ], [ 208375.84, 471310.294 ], [ 208004.905, 471444.63 ], [ 208223.336000000010245, 471724.221000000019558 ], [ 209067.587, 472016.768999999971129 ], [ 209354.858, 472038.821999999985565 ], [ 209490.809, 471827.704000000027008 ], [ 209597.481999999989057, 471768.338999999978114 ], [ 209787.753999999986263, 471535.733 ], [ 209948.861, 471586.865999999979977 ], [ 210075.74299999998766, 471537.961000000010245 ], [ 210662.37, 471574.06 ], [ 211274.99299999998766, 471443.257999999972526 ], [ 211710.227000000013504, 471249.702 ], [ 211518.894, 471795.387999999977183 ], [ 211559.486, 471820.805999999982305 ], [ 211683.128, 471798.212999999988824 ], [ 212067.176, 471527.642999999981839 ], [ 212436.980000000010477, 471632.663999999989755 ], [ 212611.952, 471555.582999999984168 ], [ 212849.226, 471555.517 ], [ 212935.371000000013737, 471459.885 ], [ 213088.255, 471448.710000000020955 ], [ 213129.386, 471393.181999999971595 ], [ 213583.59, 471479.57 ], [ 213652.329999999987194, 471368.03000000002794 ], [ 213735.595, 471351.851000000024214 ], [ 213854.0, 471412.26 ], [ 213940.670000000012806, 471398.74 ], [ 213978.18, 471332.35999999998603 ], [ 214291.39000000001397, 471409.840000000025611 ], [ 214346.75, 471367.270000000018626 ], [ 214446.74, 471379.12 ], [ 214543.253999999986263, 471432.78000000002794 ], [ 214633.04, 471588.99 ], [ 214877.321, 471431.324000000022352 ], [ 214943.13, 471434.340000000025611 ], [ 214953.965999999985797, 471382.071999999985565 ], [ 215404.13, 471294.71999999997206 ], [ 215382.71, 471460.960000000020955 ], [ 215731.93, 471449.400000000023283 ], [ 215808.16, 471469.080000000016298 ], [ 215829.37, 471524.700000000011642 ], [ 216426.39000000001397, 471746.64000000001397 ], [ 216490.0, 471676.799999999988358 ], [ 216862.81, 471808.53000000002794 ], [ 216881.24, 471656.49 ], [ 217153.636999999987893, 471604.69 ], [ 217226.22, 471218.93 ], [ 218762.38, 471253.960000000020955 ], [ 219102.41, 471406.07 ], [ 220009.079999999987194, 471435.270000000018626 ], [ 219971.14000000001397, 471566.270000000018626 ], [ 220001.549999999988358, 471904.710000000020955 ], [ 219949.14000000001397, 472443.669999999983702 ], [ 220171.6, 472420.26 ], [ 220220.57, 472476.849999999976717 ], [ 220163.57, 472601.14000000001397 ], [ 220278.43, 472618.289999999979045 ], [ 220567.079999999987194, 472778.669999999983702 ], [ 220727.579999999987194, 472740.46999999997206 ], [ 220735.91, 473012.539999999979045 ], [ 220819.97, 473062.49 ], [ 221910.18, 473060.64000000001397 ], [ 222927.658, 473584.211000000010245 ], [ 223037.353, 473352.371999999973923 ], [ 223213.019999999989523, 473253.913 ], [ 223480.256, 473196.391 ], [ 224103.941, 473281.401000000012573 ], [ 224926.441, 473270.827 ], [ 225309.633, 473175.028 ], [ 225293.573, 472734.728 ], [ 225328.996000000013737, 472617.756999999983236 ], [ 225769.28, 472055.0 ], [ 226146.769999999989523, 471153.409999999974389 ], [ 226389.03, 470831.210000000020955 ], [ 226917.12, 470440.349999999976717 ], [ 226980.47, 470303.549999999988358 ], [ 227395.19, 469929.26 ], [ 227632.97, 469597.93 ], [ 227724.72, 469371.53000000002794 ], [ 227865.84, 469218.909999999974389 ], [ 227882.81, 469002.51 ], [ 227986.10999999998603, 468789.46999999997206 ], [ 228153.275, 468634.695 ], [ 228390.741, 468575.745999999984633 ], [ 228548.06, 468616.770000000018626 ], [ 228764.49, 468558.62 ], [ 228850.60999999998603, 468583.32 ], [ 229045.011999999987893, 468470.884000000020023 ], [ 228990.16, 468348.599999999976717 ], [ 228986.46, 467926.599999999976717 ], [ 229035.99, 467727.07 ], [ 229246.63, 467243.85999999998603 ], [ 229565.38, 466900.169999999983702 ], [ 229679.324, 466579.387999999977183 ], [ 230071.778, 466480.543 ], [ 230177.274, 466380.44 ], [ 230319.371000000013737, 466397.718 ], [ 230469.43, 466321.266 ], [ 230593.89000000001397, 466123.406000000017229 ], [ 230593.62400000001071, 466045.952 ], [ 230842.234, 466027.865999999979977 ], [ 232075.231, 466507.13 ], [ 232315.866, 466506.021 ], [ 234899.138, 466100.488000000012107 ], [ 236215.098999999987427, 466402.528999999980442 ], [ 237287.801, 466719.081 ], [ 237509.246000000013737, 466491.609 ], [ 237682.481, 466433.168 ], [ 238393.480000000010477, 465693.60999999998603 ], [ 238386.647, 465614.118000000016764 ], [ 238182.97, 465427.384000000020023 ], [ 238202.285, 465259.688000000023749 ], [ 238163.142, 465248.945 ], [ 238314.953, 464923.183000000019092 ], [ 238437.54, 464796.913999999989755 ], [ 238479.606999999989057, 464754.564000000013039 ], [ 238609.696999999985565, 464813.771 ], [ 238810.223999999987427, 464597.152 ], [ 239152.734, 464828.718 ], [ 239453.295000000012806, 465192.36099999997532 ], [ 239675.87, 465222.061999999976251 ], [ 239741.037000000011176, 465322.245999999984633 ], [ 239780.778, 465536.232000000018161 ], [ 239683.11799999998766, 465606.365 ], [ 239729.261999999987893, 465651.34499999997206 ], [ 239953.230000000010477, 465603.25199999997858 ], [ 240049.119, 465700.943000000028405 ], [ 240049.018000000010943, 465779.254000000015367 ], [ 240347.01, 465624.700000000011642 ], [ 240726.79, 465101.596000000019558 ], [ 240828.342, 465433.840000000025611 ], [ 241039.354, 465862.51500000001397 ], [ 242389.019999999989523, 465188.663999999989755 ], [ 242455.238000000012107, 465121.090000000025611 ], [ 242418.75700000001234, 465085.431999999971595 ], [ 242854.854, 464947.194000000017695 ], [ 243000.494, 464677.854 ], [ 242962.066, 464469.197999999974854 ], [ 243049.919, 464459.702999999979511 ], [ 242989.62, 464328.588999999978114 ], [ 243070.170000000012806, 464155.85999999998603 ], [ 242960.577, 464121.717 ], [ 242873.367, 463900.740999999979977 ], [ 242805.521, 463915.946 ], [ 242826.225, 463848.075000000011642 ], [ 242945.038, 463829.423 ], [ 243021.703, 463758.212999999988824 ], [ 242954.346, 463541.056999999971595 ], [ 243051.342, 463439.49800000002142 ], [ 242981.439000000013039, 463262.794999999983702 ], [ 242882.807999999989988, 463253.393999999971129 ], [ 243054.003999999986263, 463014.775000000023283 ], [ 243109.135, 462402.346000000019558 ], [ 243076.973999999987427, 462226.984 ], [ 242994.008, 462014.76500000001397 ], [ 242736.956, 461764.566999999980908 ], [ 242312.72, 460985.337999999988824 ], [ 243367.99299999998766, 460535.667000000015832 ], [ 244750.43, 460292.781000000017229 ], [ 245865.646, 459835.411000000021886 ], [ 246025.401000000012573, 459728.033 ], [ 247015.419, 459762.642999999981839 ], [ 247503.074, 459732.962 ], [ 247615.957, 459738.990999999979977 ], [ 247615.896, 459789.25099999998929 ], [ 249058.1, 459841.215000000025611 ], [ 253314.201, 459881.793 ], [ 254715.488000000012107, 459997.946999999985565 ], [ 255553.253999999986263, 460155.613000000012107 ], [ 256331.31, 461018.24900000001071 ], [ 256760.149, 461269.395000000018626 ], [ 256745.49900000001071, 461572.322999999974854 ], [ 257285.568999999988591, 464143.397 ], [ 257182.712, 464144.957 ], [ 258878.81, 465727.76 ], [ 258877.920000000012806, 466159.35999999998603 ], [ 258936.99, 466302.44 ], [ 259028.93, 466348.38 ], [ 259024.82, 466403.5 ], [ 259281.329999999987194, 466540.81 ], [ 259538.54, 466598.43 ], [ 260775.26, 466717.5 ], [ 260948.14000000001397, 466754.56 ], [ 261056.1, 466836.89000000001397 ], [ 261848.39000000001397, 466969.35999999998603 ], [ 261905.99, 467040.10999999998603 ], [ 261966.04, 467033.46999999997206 ], [ 262679.18, 468143.229999999981374 ], [ 262696.270000000018626, 468522.900000000023283 ], [ 263029.710000000020955, 468930.270000000018626 ], [ 263257.049999999988358, 469501.28000000002794 ], [ 263468.62, 469775.590000000025611 ], [ 263608.648999999975786, 470309.702 ], [ 263751.183000000019092, 470532.585000000020955 ], [ 263818.708999999973457, 470764.10999999998603 ], [ 263821.536000000021886, 471209.188000000023749 ], [ 263921.818000000028405, 471541.657 ], [ 264194.416000000026543, 471803.227000000013504 ], [ 264187.211000000010245, 472011.061999999976251 ], [ 264310.343999999982771, 472024.311999999976251 ], [ 264500.348999999987427, 472202.450000000011642 ], [ 264981.217, 472219.233 ], [ 265419.879000000015367, 472399.321 ], [ 265951.409999999974389, 472300.099999999976717 ], [ 265991.85999999998603, 472222.169999999983702 ], [ 266051.169999999983702, 472214.93 ], [ 266079.150000000023283, 472275.799999999988358 ], [ 266500.856000000028871, 472029.786000000021886 ], [ 266585.99, 472130.43 ], [ 266992.88, 472114.63 ], [ 267855.506, 472341.202 ], [ 269352.94, 473169.88 ], [ 269643.89000000001397, 473902.729999999981374 ], [ 268008.400000000023283, 475524.5 ], [ 267263.882999999972526, 477234.929 ], [ 267021.555, 477447.927000000025146 ], [ 266937.943000000028405, 477931.191999999980908 ], [ 267075.332, 478178.446999999985565 ], [ 267067.378000000026077, 478328.120999999984633 ], [ 266827.069000000017695, 478968.027 ], [ 266830.005, 479484.903 ], [ 267307.004000000015367, 480668.462 ], [ 267679.729999999981374, 481247.06 ], [ 267794.900000000023283, 481641.03000000002794 ], [ 267612.46999999997206, 481774.580000000016298 ], [ 267942.89000000001397, 481903.580000000016298 ], [ 267922.580000000016298, 481948.82 ], [ 268200.99, 482102.599999999976717 ], [ 268125.07, 482258.38 ], [ 268086.44, 482237.650000000023283 ], [ 268235.89000000001397, 482631.21999999997206 ], [ 268172.909999999974389, 482779.31 ], [ 268162.799999999988358, 483052.020000000018626 ], [ 268707.857000000018161, 484002.180999999982305 ], [ 268666.106000000028871, 484113.473999999987427 ], [ 268745.343999999982771, 484313.25199999997858 ], [ 268743.327, 484646.898999999975786 ], [ 269799.229999999981374, 486221.277 ], [ 269795.185999999986961, 487882.456 ], [ 269736.044999999983702, 488638.670999999972992 ], [ 269139.308000000019092, 490485.488000000012107 ], [ 268749.666000000026543, 491129.071 ], [ 268786.520000000018626, 491232.533999999985099 ], [ 268755.728, 491487.477000000013504 ], [ 268519.62699999997858, 491662.718 ], [ 268273.161000000021886, 491533.636 ], [ 268211.642999999981839, 491620.011999999987893 ], [ 267933.882999999972526, 491627.478 ], [ 267577.794, 491808.729 ], [ 267205.941999999980908, 491813.945 ], [ 267116.830000000016298, 491928.427000000025146 ], [ 267018.272, 492232.087 ], [ 266196.579000000027008, 494052.906000000017229 ], [ 265419.009000000020023, 494720.191 ], [ 264989.766, 496516.104 ], [ 264624.136999999987893, 497548.913 ], [ 264235.309, 498365.696 ], [ 264181.706, 498738.303000000014435 ], [ 264033.802000000025146, 498945.477000000013504 ], [ 263744.210000000020955, 499205.14000000001397 ], [ 263068.723, 498735.466000000014901 ], [ 262872.356000000028871, 498065.892 ], [ 262386.955000000016298, 496966.367000000027474 ], [ 262061.045000000012806, 496369.803000000014435 ], [ 262052.056000000011409, 496258.338999999978114 ], [ 262001.973, 496297.753000000026077 ], [ 261084.15, 495457.950000000011642 ], [ 260703.34, 495316.68 ], [ 258268.37, 496023.75 ], [ 257101.54, 496478.21999999997206 ], [ 255238.53, 496975.580000000016298 ], [ 254611.4, 496802.10999999998603 ], [ 254708.68, 497893.950000000011642 ], [ 254059.89000000001397, 497823.210000000020955 ], [ 253178.43, 497891.549999999988358 ], [ 249291.950000000011642, 497775.400000000023283 ], [ 247797.450000000011642, 498248.93 ], [ 245802.85, 499648.10999999998603 ], [ 245577.519999999989523, 499661.96999999997206 ], [ 245388.583000000013271, 499764.463999999978114 ], [ 244001.07, 500650.82 ], [ 244461.113000000012107, 504519.25099999998929 ], [ 242737.37, 508083.979999999981374 ], [ 245146.75, 507594.270000000018626 ], [ 245141.14000000001397, 507794.770000000018626 ], [ 245393.41, 507948.82 ], [ 245403.701, 508049.711000000010245 ], [ 245456.128, 508092.143999999971129 ], [ 245774.920000000012806, 509245.24 ], [ 246335.817000000010012, 509091.018999999971129 ], [ 246735.413, 509129.379000000015367 ], [ 247566.821999999985565, 508809.487000000022817 ], [ 248359.718, 509107.809 ], [ 248539.04, 509117.080000000016298 ], [ 248532.84, 509327.960000000020955 ], [ 245234.655, 512060.025000000023283 ], [ 245304.961000000010245, 512576.161000000021886 ], [ 245411.73499999998603, 512757.571 ], [ 245350.82, 512913.106000000028871 ], [ 245363.918, 513143.701 ], [ 245542.513, 513678.673 ], [ 245572.375, 514258.058000000019092 ], [ 245757.579999999987194, 514995.840000000025611 ], [ 245586.801, 515404.298 ], [ 245449.834, 515596.072999999974854 ], [ 245395.907, 515591.087 ], [ 245279.74900000001071, 515723.297000000020489 ], [ 245158.66, 515765.920999999972992 ], [ 245128.202, 515925.101000000024214 ], [ 244847.469000000011874, 516301.212 ], [ 244698.276000000012573, 516301.18 ], [ 244571.411, 516352.619 ], [ 244564.14000000001397, 516408.729999999981374 ], [ 244424.854, 516427.777 ], [ 244371.171, 516287.246999999973923 ], [ 244212.647999999986496, 516346.262999999977183 ], [ 244020.36799999998766, 516337.24 ], [ 243935.946999999985565, 516462.869 ], [ 243942.011999999987893, 516573.291000000026543 ], [ 244065.248, 516706.472 ], [ 244161.928000000014435, 516922.541000000026543 ], [ 244185.986, 517045.276000000012573 ], [ 244088.810999999986961, 517130.528999999980442 ], [ 244092.755, 517292.696 ], [ 244206.008, 517451.224999999976717 ], [ 244301.522999999986496, 517708.521 ], [ 244230.509, 517865.993000000016764 ], [ 244103.23499999998603, 517902.577999999979511 ], [ 244003.635, 517874.657 ], [ 243933.446, 517945.977000000013504 ], [ 243999.022999999986496, 518032.12599999998929 ], [ 244236.13, 518145.398999999975786 ], [ 244223.636, 518405.938000000023749 ], [ 244419.657, 518731.617000000027474 ], [ 242646.864, 519307.559 ], [ 238009.613000000012107, 521438.145000000018626 ], [ 233851.60999999998603, 520428.424 ], [ 233424.814000000013039, 520192.346000000019558 ], [ 231249.669, 518239.141 ], [ 231626.698, 514660.868000000016764 ], [ 231182.01500000001397, 514605.167000000015832 ], [ 230667.230000000010477, 514976.51 ], [ 230342.329999999987194, 515076.74 ], [ 230014.68, 515074.85999999998603 ], [ 229806.24, 515195.44 ], [ 229554.68, 515156.49 ], [ 229267.68, 515179.710000000020955 ], [ 229044.799999999988358, 515073.75 ], [ 228957.252, 515167.079000000027008 ], [ 228870.302, 515124.147 ], [ 228723.988000000012107, 515416.365 ], [ 228617.443, 515354.213999999978114 ], [ 228533.259, 515407.128000000026077 ], [ 228490.279, 515519.628000000026077 ], [ 228532.691, 515521.742000000027474 ], [ 228545.346, 515597.912000000011176 ], [ 228477.942000000010012, 515780.175999999977648 ], [ 228321.799999999988358, 515825.468999999982771 ], [ 227864.66, 515652.419999999983702 ], [ 227861.854, 515500.778 ], [ 227915.18, 515452.0 ], [ 227810.920000000012806, 515366.960000000020955 ], [ 227789.299999999988358, 515166.229999999981374 ], [ 227697.65, 514982.13 ], [ 227710.51500000001397, 514847.552000000025146 ], [ 227640.700000000011642, 514786.19 ], [ 227501.030999999988126, 514815.742000000027474 ], [ 227326.31, 514745.99 ], [ 227317.81, 514682.85999999998603 ], [ 227247.35999999998603, 514699.93 ], [ 227208.75, 514577.919999999983702 ], [ 227016.519999999989523, 514716.5 ], [ 226850.34, 514666.85999999998603 ], [ 226505.29, 514817.96999999997206 ], [ 226428.1, 514754.71999999997206 ], [ 226407.422, 514810.354999999981374 ], [ 226353.200000000011642, 514802.63 ], [ 226058.049999999988358, 515020.03000000002794 ], [ 226028.31, 515130.450000000011642 ], [ 225951.87, 515153.799999999988358 ], [ 225918.019999999989523, 515279.25 ], [ 225995.269999999989523, 515330.85999999998603 ], [ 225984.519999999989523, 515455.419999999983702 ], [ 225776.019999999989523, 515858.419999999983702 ], [ 225863.79, 515945.289999999979045 ], [ 225806.71, 516095.349999999976717 ], [ 225687.29, 516161.830000000016298 ], [ 225641.049999999988358, 516100.38 ], [ 225479.99, 516137.76 ], [ 225471.730000000010477, 516022.599999999976717 ], [ 225374.730000000010477, 515985.210000000020955 ], [ 225338.670000000012806, 515868.229999999981374 ], [ 225392.269999999989523, 515729.01 ], [ 225227.769999999989523, 515700.669999999983702 ], [ 225219.950000000011642, 515649.18 ], [ 224951.76, 515476.840000000025611 ], [ 224936.01, 515360.43 ], [ 224870.730000000010477, 515321.28000000002794 ], [ 224860.299999999988358, 515108.909999999974389 ], [ 224760.019999999989523, 515126.419999999983702 ], [ 224690.37, 515064.419999999983702 ], [ 224456.533, 515164.511 ], [ 224320.462999999988824, 515356.175999999977648 ], [ 224225.845, 515401.49 ], [ 224224.943999999988591, 515360.547000000020489 ], [ 224007.318, 515282.799 ], [ 223986.247, 515061.533 ], [ 224053.019, 514959.221000000019558 ], [ 223986.506, 514881.592 ], [ 223862.586000000010245, 514841.202999999979511 ], [ 223846.022999999986496, 514788.287000000011176 ], [ 223667.037000000011176, 514784.48499999998603 ], [ 223534.445, 514883.960000000020955 ], [ 223425.094000000011874, 514866.166000000026543 ], [ 223418.329999999987194, 514928.836000000010245 ], [ 223320.079, 514949.716000000014901 ], [ 223172.658, 514885.955000000016298 ], [ 223159.823, 514761.642 ], [ 223028.62, 514651.226000000024214 ], [ 223019.514, 514581.792000000015832 ], [ 222851.802, 514559.571999999985565 ], [ 222507.011, 514316.087 ], [ 222454.112, 514400.885 ], [ 222477.44, 514586.685 ], [ 222426.796, 514700.652 ], [ 222260.12400000001071, 514621.995 ], [ 222171.585, 514688.810999999986961 ], [ 222186.674, 514733.313000000023749 ], [ 221999.19, 514835.313000000023749 ], [ 221967.191, 514933.450000000011642 ], [ 222024.511, 514992.411000000021886 ], [ 221979.245, 515110.618000000016764 ], [ 222039.166999999986729, 515218.321 ], [ 221974.649, 515281.646 ], [ 221978.666, 515342.587999999988824 ], [ 221915.488000000012107, 515346.060999999986961 ], [ 221794.405, 515507.327 ], [ 221768.077, 515601.523999999975786 ], [ 221858.022999999986496, 515661.271 ], [ 221902.794, 515765.462 ], [ 221893.37599999998929, 515850.38900000002468 ], [ 221820.872, 515891.543 ], [ 221894.911, 516000.615999999979977 ], [ 221831.783, 516024.283 ], [ 221872.682, 516060.108 ], [ 221820.125, 516177.835000000020955 ], [ 221745.446, 516195.672000000020489 ], [ 221737.935999999986961, 516245.231000000028871 ], [ 221693.388, 516230.544999999983702 ], [ 221636.358, 516484.987000000022817 ], [ 221583.198, 516460.018999999971129 ], [ 221479.908, 516513.474999999976717 ], [ 221505.647999999986496, 516585.342 ], [ 221438.597, 516675.207 ], [ 221449.219000000011874, 516779.653999999980442 ], [ 221516.016, 516836.984 ], [ 221497.9, 516893.923 ], [ 221404.136, 516903.604 ], [ 221275.573, 517122.62 ], [ 221136.619, 517130.849999999976717 ], [ 221052.315, 517285.678000000014435 ], [ 221134.222, 517348.526000000012573 ], [ 221136.456, 517437.25 ], [ 221058.633, 517494.842 ], [ 221156.307, 517565.045999999972992 ], [ 221106.615, 517642.99900000001071 ], [ 221142.372, 517744.952 ], [ 221058.37, 517767.346000000019558 ], [ 221013.805, 517862.022999999986496 ], [ 220821.348, 518006.306999999971595 ], [ 220743.918, 517970.496999999973923 ], [ 220729.983, 518023.598 ], [ 220386.741, 518045.142 ], [ 220381.35, 518250.98499999998603 ], [ 220293.141, 518341.694000000017695 ], [ 220274.21, 518304.183000000019092 ], [ 220160.367, 518315.425999999977648 ], [ 220064.663, 518395.316 ], [ 219950.951, 518394.181999999971595 ], [ 219977.769, 518479.411000000021886 ], [ 219719.844000000011874, 518614.340000000025611 ], [ 219566.549999999988358, 518942.092 ], [ 219439.646, 519007.909999999974389 ], [ 219353.358, 518941.303000000014435 ], [ 219293.525, 518988.088999999978114 ], [ 219237.158, 518964.74800000002142 ], [ 219178.182999999989988, 519055.348999999987427 ], [ 219065.51500000001397, 518999.792000000015832 ], [ 218955.22, 519106.808000000019092 ], [ 218970.171, 519226.885 ], [ 218798.719000000011874, 519254.115999999979977 ], [ 218700.34, 519411.577999999979511 ], [ 218537.437, 519470.004000000015367 ], [ 218508.212, 519562.745 ], [ 218598.56, 519633.354 ], [ 218497.896, 519725.12400000001071 ], [ 218503.824, 519901.200000000011642 ], [ 218620.6, 519997.636 ], [ 218678.839, 520183.174999999988358 ], [ 218731.121000000013737, 520186.120999999984633 ], [ 218639.840999999985797, 520259.191999999980908 ], [ 218692.805, 520331.016 ], [ 218560.649, 520541.044 ], [ 218573.259, 520602.553000000014435 ], [ 218435.809, 520689.0 ], [ 218274.608, 520749.045999999972992 ], [ 218052.347, 520733.685999999986961 ], [ 218026.165, 520658.042000000015832 ], [ 217879.048, 520677.022999999986496 ], [ 217878.505, 520627.782 ], [ 217755.791999999986729, 520621.549999999988358 ], [ 217751.483, 520548.825000000011642 ], [ 217685.615, 520541.631999999983236 ], [ 217699.986, 520468.775000000023283 ], [ 217563.166999999986729, 520466.721000000019558 ], [ 217525.774, 520382.808000000019092 ], [ 217407.99, 520319.62699999997858 ], [ 217134.159000000014203, 520258.275000000023283 ], [ 216928.606, 520380.087 ], [ 216873.674, 520337.483 ], [ 216900.26, 520274.517 ], [ 216730.49299999998766, 520284.300999999977648 ], [ 216723.344000000011874, 520206.158 ], [ 216583.532, 520266.658 ], [ 216425.54, 519950.060999999986961 ], [ 216440.682999999989988, 519810.446 ], [ 216209.104, 519824.37699999997858 ], [ 216006.787000000011176, 519912.244 ], [ 215964.26, 519981.672000000020489 ], [ 215905.977000000013504, 519933.577 ], [ 215887.329, 520014.364 ], [ 215738.606, 520147.580000000016298 ], [ 215764.244, 520329.049999999988358 ], [ 215642.467, 520368.054 ], [ 215575.904, 520459.930999999982305 ], [ 215335.155999999988126, 520549.734 ], [ 215250.812, 520491.532 ], [ 215219.298, 520535.723999999987427 ], [ 215176.84, 520513.62699999997858 ], [ 215138.954999999987194, 520349.034999999974389 ], [ 215045.981999999989057, 520338.315 ], [ 214937.597, 520075.647 ], [ 214725.708000000013271, 520068.308000000019092 ], [ 214433.856999999989057, 520295.205000000016298 ], [ 214404.12400000001071, 520552.411000000021886 ], [ 214194.541999999986729, 520605.62599999998929 ], [ 214073.25, 520692.881999999983236 ], [ 213999.086000000010245, 520623.685 ], [ 213914.581, 520617.581 ], [ 213862.615, 520682.523999999975786 ], [ 213761.693999999988591, 520591.62300000002142 ], [ 213700.14000000001397, 520645.672000000020489 ], [ 213674.446, 520592.386999999987893 ], [ 213643.282, 520659.13 ], [ 213496.833000000013271, 520619.577 ], [ 213380.112, 520745.837999999988824 ], [ 213417.312, 520824.315 ], [ 213307.949, 520783.12 ], [ 213238.783, 520847.371999999973923 ], [ 213237.983, 520913.732000000018161 ], [ 213174.003999999986263, 520941.76 ], [ 213285.627, 521059.98599999997532 ], [ 213243.268000000010943, 521254.803000000014435 ], [ 213144.560999999986961, 521374.870999999984633 ], [ 213093.938, 521371.400000000023283 ], [ 213074.677, 521445.482000000018161 ], [ 213034.60999999998603, 521427.603 ], [ 212927.776000000012573, 521596.196 ], [ 212838.019, 521534.21999999997206 ], [ 212777.294, 521552.590000000025611 ], [ 212708.826, 521483.479 ], [ 212477.146, 521460.604999999981374 ], [ 212456.438, 521515.746999999973923 ], [ 212188.949, 521631.016 ], [ 212193.509, 521715.772 ], [ 212270.098999999987427, 521755.775000000023283 ], [ 212213.894999999989523, 521782.688000000023749 ], [ 212178.981, 521891.881 ], [ 212042.545000000012806, 521859.315 ], [ 211907.128999999986263, 521911.832 ], [ 211877.481999999989057, 521868.544 ], [ 211839.212, 521918.321 ], [ 211800.767, 521863.766 ], [ 211698.946999999985565, 521970.87 ], [ 211658.144999999989523, 521944.803000000014435 ], [ 211647.87, 521994.37300000002142 ], [ 211427.068999999988591, 522061.87699999997858 ], [ 211389.480000000010477, 522030.081 ], [ 211393.529, 522114.367000000027474 ], [ 211226.35999999998603, 522200.504000000015367 ], [ 211298.9, 522354.603 ], [ 211201.238000000012107, 522380.656000000017229 ], [ 211140.03, 522329.958999999973457 ], [ 211084.526000000012573, 522430.189000000013039 ], [ 211027.574, 522394.413999999989755 ], [ 210974.301, 522437.392999999981839 ], [ 210911.959, 522418.168 ], [ 210887.108, 522342.297000000020489 ], [ 210777.415, 522302.147 ], [ 210808.622, 522229.815 ], [ 210645.212999999988824, 522293.784999999974389 ], [ 210542.49299999998766, 522242.169999999983702 ], [ 210390.272, 522248.601000000024214 ], [ 210298.642, 522171.428000000014435 ], [ 210217.62599999998929, 522230.072999999974854 ], [ 210074.699, 522220.004000000015367 ], [ 209631.628999999986263, 521653.351000000024214 ], [ 209580.756, 521325.245 ], [ 209433.912000000011176, 521301.005 ], [ 209389.055, 521622.48499999998603 ], [ 209146.437, 521652.496999999973923 ], [ 209008.208000000013271, 521972.544999999983702 ], [ 208649.413999999989755, 521866.700000000011642 ], [ 208902.278, 521382.065 ], [ 208748.826, 521342.581 ], [ 208833.135, 521142.653999999980442 ], [ 207527.579999999987194, 521620.981000000028871 ], [ 207464.317000000010012, 521684.01500000001397 ], [ 207907.049, 522363.033999999985099 ], [ 207806.223, 522586.186999999976251 ], [ 207683.238000000012107, 522673.973 ], [ 207584.171, 522667.658 ], [ 207396.073, 522931.520000000018626 ], [ 207165.98499999998603, 523062.753000000026077 ], [ 207018.141, 523002.992000000027474 ], [ 206721.98499999998603, 523818.169999999983702 ], [ 206654.818999999988591, 524214.925999999977648 ], [ 206451.538, 524741.214000000036322 ], [ 205875.139, 526105.908999999985099 ], [ 205109.102000000013504, 528109.87 ], [ 204500.034000000014203, 529452.474000000045635 ], [ 204512.625, 529710.658000000054017 ], [ 204585.388, 529913.523999999975786 ], [ 204916.62400000001071, 530211.89000000001397 ], [ 205309.646, 530408.765999999945052 ], [ 205726.810999999986961, 530460.48699999996461 ], [ 206940.807999999989988, 530874.398000000044703 ], [ 207424.82, 531296.979999999981374 ], [ 207733.522999999986496, 531371.991999999969266 ], [ 208034.668, 532067.785000000032596 ], [ 208512.708000000013271, 532504.326 ], [ 209415.869, 533539.302999999956228 ], [ 209941.203, 534356.831 ], [ 208264.082, 536581.150000000023283 ], [ 207937.567000000010012, 536776.571 ], [ 207888.586000000010245, 536711.616000000038184 ], [ 206930.343, 537811.402 ], [ 206357.184, 538180.00199999997858 ], [ 206542.911, 538229.513999999966472 ], [ 205511.193999999988591, 539328.015999999945052 ], [ 205066.448, 539894.577999999979511 ], [ 204953.067000000010012, 540324.863000000012107 ], [ 204347.983, 541031.753000000026077 ], [ 202509.324, 539908.037000000011176 ], [ 202181.666, 539774.876000000047497 ], [ 201840.060999999986961, 539321.49 ], [ 201386.840999999985797, 539275.689999999944121 ], [ 200881.432999999989988, 539350.371000000042841 ], [ 200435.238000000012107, 539333.446 ], [ 199838.029, 539110.076 ], [ 200011.304, 538423.36199999996461 ], [ 200344.506, 537866.106999999959953 ], [ 199873.723999999987427, 537639.714999999967404 ], [ 199474.412000000011176, 537235.768000000040047 ], [ 199128.75099999998929, 537071.175000000046566 ], [ 198415.571, 536610.185999999986961 ], [ 198102.693999999988591, 537284.768999999971129 ], [ 197962.557, 537446.787999999942258 ], [ 197475.371000000013737, 537362.991999999969266 ], [ 196813.939000000013039, 537158.780999999959022 ], [ 196250.31, 536804.941 ], [ 196077.344000000011874, 536764.697000000043772 ], [ 195920.009, 537047.667000000015832 ], [ 195672.670000000012806, 537321.608 ], [ 195559.63, 537372.677000000025146 ], [ 195396.5, 537330.077999999979511 ], [ 195072.566, 538172.020000000018626 ], [ 194690.076, 538777.03000000002794 ], [ 194462.024, 539439.015999999945052 ], [ 194431.788, 539572.657 ], [ 194477.759, 539634.571 ], [ 194265.506, 539622.349000000045635 ], [ 193651.56, 539406.929 ], [ 193467.79, 539284.302999999956228 ], [ 193312.329999999987194, 539058.160999999963678 ], [ 193388.297, 538732.591999999945983 ], [ 193317.271, 538597.589000000036322 ], [ 193245.565, 538608.535000000032596 ], [ 193133.459, 538745.969000000040978 ], [ 192649.788, 539061.721000000019558 ], [ 192292.468, 538864.704000000027008 ], [ 191684.885, 538817.927000000025146 ], [ 191382.348999999987427, 538648.643000000040047 ], [ 191378.409000000014203, 538550.876000000047497 ], [ 191577.734, 538516.866999999969266 ], [ 191627.204999999987194, 538440.339000000036322 ], [ 191575.269999999989523, 538369.65300000004936 ], [ 191279.471, 538393.277 ], [ 191099.259, 538308.797999999951571 ], [ 191115.76500000001397, 538168.75199999997858 ], [ 191341.649, 538038.821 ], [ 191322.228, 537994.807999999960884 ], [ 191171.230000000010477, 537998.97199999995064 ], [ 191106.31, 537937.199000000022352 ], [ 191188.726, 537496.706 ], [ 190873.628, 537322.474999999976717 ], [ 190579.885, 537043.511000000056811 ], [ 190339.421, 536597.843 ], [ 190204.863000000012107, 536440.231999999959953 ], [ 189619.204, 536187.392 ], [ 189435.221, 535738.569000000017695 ], [ 189092.723999999987427, 535541.150000000023283 ], [ 188406.269, 535299.223 ], [ 188151.304, 534955.761999999987893 ], [ 187984.696, 534955.307999999960884 ], [ 187740.25099999998929, 535088.907 ], [ 187469.908, 535160.091999999945983 ], [ 187263.242, 535372.84499999997206 ], [ 186858.973, 535357.474000000045635 ], [ 186680.803000000014435, 535655.944000000017695 ], [ 186522.949, 535463.294 ], [ 186219.335, 535535.633000000030734 ], [ 185814.828, 535452.689000000013039 ], [ 185776.538, 535405.74 ], [ 185680.902, 535689.089999999967404 ], [ 185449.297, 535514.96999999997206 ], [ 185295.916999999986729, 535487.35999999998603 ], [ 185258.649, 535551.854000000050291 ], [ 185354.296, 535762.439999999944121 ], [ 185193.291999999986729, 535932.469000000040978 ], [ 185100.047, 536138.537999999942258 ], [ 184767.869, 536333.589000000036322 ], [ 184463.06, 536315.049 ], [ 184327.803000000014435, 536531.535000000032596 ], [ 184183.691, 536628.238999999943189 ], [ 184160.1, 536758.496999999973923 ], [ 183983.089, 536693.427000000025146 ], [ 183506.448, 536376.851000000024214 ], [ 182510.65, 535551.92000000004191 ], [ 182789.29, 534970.92000000004191 ], [ 183243.01, 534258.32999999995809 ], [ 184106.480000000010477, 533459.57999999995809 ], [ 184117.56, 533132.589999999967404 ], [ 184748.10999999998603, 533230.839999999967404 ], [ 185295.04, 533244.449999999953434 ], [ 185366.72, 533176.63 ], [ 185657.269999999989523, 533191.189999999944121 ], [ 185783.46, 533115.62 ], [ 186202.69, 533150.180000000051223 ], [ 186917.18, 532829.63 ], [ 187957.35, 532038.339999999967404 ], [ 188234.29, 531885.21999999997206 ], [ 188605.37, 531448.25 ], [ 189232.65, 530988.900000000023283 ], [ 189349.38, 530732.479999999981374 ], [ 189618.549999999988358, 530553.35999999998603 ], [ 190020.44, 530570.729999999981374 ], [ 191147.340999999985797, 529395.618000000016764 ], [ 191668.13, 528163.839999999967404 ], [ 192041.35, 527127.810000000055879 ], [ 192526.94, 525434.560000000055879 ], [ 193111.170000000012806, 525096.040000000037253 ], [ 193395.97, 524580.0 ], [ 193366.82, 524190.950000000011642 ], [ 193648.76500000001397, 524203.832999999984168 ], [ 194046.81, 523566.150000000023283 ], [ 194073.18, 523061.75 ], [ 193869.79, 522701.919999999983702 ], [ 193687.28, 522655.919999999983702 ], [ 193241.1, 522128.26 ], [ 193158.079999999987194, 522095.549999999988358 ], [ 193022.88, 522179.24 ], [ 192700.10999999998603, 521842.81 ], [ 192745.730000000010477, 521797.409999999974389 ], [ 191973.329999999987194, 521035.830000000016298 ], [ 191899.549999999988358, 520776.94 ], [ 191923.72, 520562.87 ], [ 192065.03, 520338.080000000016298 ], [ 192375.04, 520296.090000000025611 ], [ 192399.07, 520473.349999999976717 ], [ 192499.94, 520484.150000000023283 ], [ 193342.78, 520174.37 ], [ 193623.74, 520191.650000000023283 ], [ 194084.920000000012806, 520011.14000000001397 ], [ 194211.94, 520059.539999999979045 ], [ 194481.230000000010477, 519906.88 ], [ 194736.1, 519639.88 ], [ 195076.25, 519389.46999999997206 ], [ 195383.85, 519024.349999999976717 ], [ 196433.769999999989523, 518748.74 ], [ 196936.72, 518380.289999999979045 ], [ 197483.700000000011642, 517754.090000000025611 ], [ 197540.59, 517587.49 ], [ 197647.35, 517490.169999999983702 ], [ 197191.57, 516890.857000000018161 ], [ 195719.420000000012806, 515926.169999999983702 ], [ 193466.0, 515409.200000000011642 ], [ 193490.35999999998603, 515195.159999999974389 ], [ 192460.4, 514652.62 ], [ 191944.39000000001397, 514293.68 ], [ 190792.37, 514130.580000000016298 ], [ 190446.200000000011642, 514587.270000000018626 ], [ 190097.43, 514757.74 ], [ 185705.44, 513748.78000000002794 ], [ 185483.329999999987194, 513404.450000000011642 ], [ 181469.93, 513403.729999999981374 ], [ 181483.419, 510434.770000000018626 ], [ 183269.659000000014203, 510432.091000000014901 ], [ 183548.9, 510376.708999999973457 ], [ 183794.165, 510260.538 ], [ 184022.74, 510070.069000000017695 ], [ 186733.97, 507124.69 ], [ 186824.56, 506571.13900000002468 ], [ 186908.941, 506550.121999999973923 ], [ 186927.932999999989988, 506433.875 ], [ 186858.886, 506361.806999999971595 ], [ 187159.62, 504929.76 ], [ 187125.579999999987194, 504618.840000000025611 ], [ 187266.1, 504070.520000000018626 ], [ 187228.68, 503874.200000000011642 ], [ 187374.980000000010477, 503674.68 ], [ 187384.233, 503495.827999999979511 ], [ 188188.734, 503929.772 ], [ 188295.087999999988824, 503832.960000000020955 ], [ 188380.21, 503890.636 ], [ 188625.367, 503591.827999999979511 ], [ 188676.685, 503622.261999999987893 ], [ 188944.075000000011642, 503365.354 ], [ 189835.291999999986729, 502251.01400000002468 ], [ 190516.983, 501195.381 ], [ 190990.639, 500202.576 ], [ 191559.089, 498657.080000000016298 ], [ 191578.085, 498616.424999999988358 ] ] ] ] } },
{ "type": "Feature", "properties": { "fid": 10, "identificatie": "PV22", "naam": "Drenthe", "code": "22", "ligt_in_land_code": "6030", "ligt_in_land_naam": "Nederland" }, "geometry": { "type": "MultiPolygon", "coordinates": [ [ [ [ 264580.409999999974389, 544105.57999999995809 ], [ 266542.183000000019092, 548928.182999999960884 ], [ 265225.386, 549260.067999999970198 ], [ 264545.299, 549830.768999999971129 ], [ 259030.638, 557315.95499999995809 ], [ 246376.271, 570150.572000000043772 ], [ 246343.5, 570269.729000000050291 ], [ 246188.681000000011409, 570283.093 ], [ 246100.691, 570493.701 ], [ 245826.803000000014435, 570739.040000000037253 ], [ 245790.261, 570830.702000000048429 ], [ 245733.288, 570807.633999999961816 ], [ 245395.75, 571145.366999999969266 ], [ 243547.692000000010012, 571199.317999999970198 ], [ 242575.079999999987194, 571284.160000000032596 ], [ 240926.577, 570735.849000000045635 ], [ 240946.358, 570705.871999999973923 ], [ 238551.668, 569546.093 ], [ 238626.782, 569639.991000000038184 ], [ 238604.701, 569730.218 ], [ 238698.603, 569782.246999999973923 ], [ 238679.37400000001071, 570000.51300000003539 ], [ 238560.228, 570131.586000000010245 ], [ 238657.09, 570287.084999999962747 ], [ 238455.949, 570451.074999999953434 ], [ 238200.487, 570484.049 ], [ 238079.847, 570589.23499999998603 ], [ 238101.332, 570687.493000000016764 ], [ 238049.714, 570745.503000000026077 ], [ 238258.764, 570989.032 ], [ 238161.011, 571057.145000000018626 ], [ 238112.142, 571017.883999999961816 ], [ 238028.49900000001071, 571204.388999999966472 ], [ 238038.615, 571374.746000000042841 ], [ 237647.847, 571755.863999999943189 ], [ 237601.557, 572001.505 ], [ 237421.427, 572217.800000000046566 ], [ 237444.611, 572348.738999999943189 ], [ 237318.503999999986263, 572409.202000000048429 ], [ 237275.337, 572504.925000000046566 ], [ 237082.509, 572469.65300000004936 ], [ 237127.89000000001397, 572789.062999999965541 ], [ 236881.22, 573046.300000000046566 ], [ 236593.534000000014203, 573198.163999999989755 ], [ 236146.022, 573792.748999999952503 ], [ 235967.711000000010245, 573710.809 ], [ 235872.941, 573744.941 ], [ 235856.719000000011874, 573872.128000000026077 ], [ 235513.913999999989755, 573807.011999999987893 ], [ 235340.487, 573858.571 ], [ 235321.318999999988591, 574121.682999999960884 ], [ 235197.604, 574608.006999999983236 ], [ 235095.217, 574753.104999999981374 ], [ 235093.426, 574832.841999999945983 ], [ 235261.959, 575058.256000000052154 ], [ 235107.435, 575212.778999999980442 ], [ 235023.695, 575237.006000000052154 ], [ 234999.258, 575416.810000000055879 ], [ 234892.064000000013039, 575611.606000000028871 ], [ 234912.077, 575704.650000000023283 ], [ 234825.663, 575716.395999999949709 ], [ 234875.514, 575870.890999999945052 ], [ 233694.105000000010477, 575189.61199999996461 ], [ 233393.048, 576461.104999999981374 ], [ 232615.37, 577783.294 ], [ 232281.102000000013504, 577523.184 ], [ 232189.003999999986263, 577499.584000000031665 ], [ 232044.782, 577787.927000000025146 ], [ 231680.441, 578100.846000000019558 ], [ 231340.723999999987427, 579331.072000000043772 ], [ 231406.842, 579373.648999999975786 ], [ 231168.46, 579397.60999999998603 ], [ 230414.56, 579663.96999999997206 ], [ 230261.301, 579508.95499999995809 ], [ 229819.604, 579859.030999999959022 ], [ 229138.718, 579627.86199999996461 ], [ 228978.818, 579631.604999999981374 ], [ 228906.827, 579692.915000000037253 ], [ 228864.178000000014435, 579982.523999999975786 ], [ 228802.973999999987427, 579959.20499999995809 ], [ 228616.096, 580173.003999999957159 ], [ 228420.29, 580191.10999999998603 ], [ 228400.62, 580246.479999999981374 ], [ 228169.596, 580225.758999999961816 ], [ 227037.159000000014203, 579851.474999999976717 ], [ 225873.429, 579387.09499999997206 ], [ 225745.297, 578781.371999999973923 ], [ 225563.824, 578414.180000000051223 ], [ 225243.116, 578176.988999999943189 ], [ 225157.200000000011642, 578148.503999999957159 ], [ 225092.469000000011874, 578204.103 ], [ 225003.60999999998603, 578184.32999999995809 ], [ 224693.965999999985797, 577891.542999999946915 ], [ 224316.059, 577702.800999999977648 ], [ 224082.786, 577654.427999999956228 ], [ 223929.146, 577535.12 ], [ 223744.818999999988591, 577507.812000000034459 ], [ 223181.366, 577257.25 ], [ 223091.443, 577128.074999999953434 ], [ 223016.731999999989057, 576860.726999999955297 ], [ 223008.277, 576256.067000000039116 ], [ 222926.095, 576090.653999999980442 ], [ 222413.073, 575679.547000000020489 ], [ 222264.394999999989523, 575480.582000000053085 ], [ 222149.521, 575213.087000000057742 ], [ 222072.806000000011409, 575239.680000000051223 ], [ 222064.772, 575107.383999999961816 ], [ 221975.932, 575063.441 ], [ 221508.897999999986496, 574546.050000000046566 ], [ 221523.74, 574110.75199999997858 ], [ 221595.085, 574109.268000000040047 ], [ 220515.355000000010477, 571051.192999999970198 ], [ 220383.745, 569415.981999999959953 ], [ 219919.845, 569357.738000000012107 ], [ 219133.215999999985797, 567126.865 ], [ 217161.923, 567871.028999999980442 ], [ 216518.087, 566431.143999999971129 ], [ 220729.325000000011642, 564947.410000000032596 ], [ 220558.271, 563224.515999999945052 ], [ 220425.074, 561226.959999999962747 ], [ 224891.16, 554371.89000000001397 ], [ 222655.72, 550002.790000000037253 ], [ 218728.935999999986961, 547025.581 ], [ 218649.878999999986263, 547000.746000000042841 ], [ 216585.467, 549045.952999999979511 ], [ 213462.157, 549304.339999999967404 ], [ 212859.511999999987893, 548857.571 ], [ 212699.498, 548542.481000000028871 ], [ 212681.797, 548398.645000000018626 ], [ 211846.522999999986496, 547704.491000000038184 ], [ 210167.271, 545159.501000000047497 ], [ 207433.087999999988824, 543380.093 ], [ 204347.983, 541031.753000000026077 ], [ 204953.067000000010012, 540324.863000000012107 ], [ 205066.448, 539894.577999999979511 ], [ 205511.193999999988591, 539328.015999999945052 ], [ 206542.911, 538229.513999999966472 ], [ 206357.184, 538180.00199999997858 ], [ 206930.343, 537811.402 ], [ 207888.586000000010245, 536711.616000000038184 ], [ 207937.567000000010012, 536776.571 ], [ 208264.082, 536581.150000000023283 ], [ 209941.203, 534356.831 ], [ 209415.869, 533539.302999999956228 ], [ 208512.708000000013271, 532504.326 ], [ 208034.668, 532067.785000000032596 ], [ 207733.522999999986496, 531371.991999999969266 ], [ 207424.82, 531296.979999999981374 ], [ 206940.807999999989988, 530874.398000000044703 ], [ 205726.810999999986961, 530460.48699999996461 ], [ 205309.646, 530408.765999999945052 ], [ 204916.62400000001071, 530211.89000000001397 ], [ 204585.388, 529913.523999999975786 ], [ 204512.625, 529710.658000000054017 ], [ 204500.034000000014203, 529452.474000000045635 ], [ 205109.102000000013504, 528109.87 ], [ 205875.139, 526105.908999999985099 ], [ 206451.538, 524741.214000000036322 ], [ 206654.818999999988591, 524214.925999999977648 ], [ 206721.98499999998603, 523818.169999999983702 ], [ 207018.141, 523002.992000000027474 ], [ 207165.98499999998603, 523062.753000000026077 ], [ 207396.073, 522931.520000000018626 ], [ 207584.171, 522667.658 ], [ 207683.238000000012107, 522673.973 ], [ 207806.223, 522586.186999999976251 ], [ 207907.049, 522363.033999999985099 ], [ 207464.317000000010012, 521684.01500000001397 ], [ 207525.090999999985797, 521622.789999999979045 ], [ 208833.135, 521142.653999999980442 ], [ 208748.826, 521342.581 ], [ 208902.278, 521382.065 ], [ 208649.413999999989755, 521866.700000000011642 ], [ 209008.208000000013271, 521972.544999999983702 ], [ 209146.437, 521652.496999999973923 ], [ 209389.055, 521622.48499999998603 ], [ 209433.912000000011176, 521301.005 ], [ 209580.756, 521325.245 ], [ 209631.628999999986263, 521653.351000000024214 ], [ 210074.699, 522220.004000000015367 ], [ 210217.62599999998929, 522230.072999999974854 ], [ 210298.642, 522171.428000000014435 ], [ 210390.272, 522248.601000000024214 ], [ 210542.49299999998766, 522242.169999999983702 ], [ 210645.212999999988824, 522293.784999999974389 ], [ 210808.622, 522229.815 ], [ 210777.415, 522302.147 ], [ 210887.108, 522342.297000000020489 ], [ 210911.959, 522418.168 ], [ 210974.301, 522437.392999999981839 ], [ 211027.574, 522394.413999999989755 ], [ 211084.526000000012573, 522430.189000000013039 ], [ 211140.03, 522329.958999999973457 ], [ 211201.238000000012107, 522380.656000000017229 ], [ 211298.9, 522354.603 ], [ 211226.35999999998603, 522200.504000000015367 ], [ 211393.529, 522114.367000000027474 ], [ 211389.480000000010477, 522030.081 ], [ 211427.068999999988591, 522061.87699999997858 ], [ 211647.87, 521994.37300000002142 ], [ 211658.144999999989523, 521944.803000000014435 ], [ 211698.946999999985565, 521970.87 ], [ 211800.767, 521863.766 ], [ 211839.212, 521918.321 ], [ 211877.481999999989057, 521868.544 ], [ 211907.128999999986263, 521911.832 ], [ 212042.545000000012806, 521859.315 ], [ 212178.981, 521891.881 ], [ 212213.894999999989523, 521782.688000000023749 ], [ 212270.098999999987427, 521755.775000000023283 ], [ 212193.509, 521715.772 ], [ 212188.949, 521631.016 ], [ 212456.438, 521515.746999999973923 ], [ 212477.146, 521460.604999999981374 ], [ 212708.826, 521483.479 ], [ 212777.294, 521552.590000000025611 ], [ 212838.019, 521534.21999999997206 ], [ 212927.776000000012573, 521596.196 ], [ 213034.60999999998603, 521427.603 ], [ 213074.677, 521445.482000000018161 ], [ 213093.938, 521371.400000000023283 ], [ 213144.560999999986961, 521374.870999999984633 ], [ 213243.268000000010943, 521254.803000000014435 ], [ 213285.627, 521059.98599999997532 ], [ 213174.003999999986263, 520941.76 ], [ 213237.983, 520913.732000000018161 ], [ 213238.783, 520847.371999999973923 ], [ 213307.949, 520783.12 ], [ 213417.312, 520824.315 ], [ 213380.112, 520745.837999999988824 ], [ 213496.833000000013271, 520619.577 ], [ 213643.282, 520659.13 ], [ 213674.446, 520592.386999999987893 ], [ 213700.14000000001397, 520645.672000000020489 ], [ 213761.693999999988591, 520591.62300000002142 ], [ 213862.615, 520682.523999999975786 ], [ 213914.581, 520617.581 ], [ 213999.086000000010245, 520623.685 ], [ 214073.25, 520692.881999999983236 ], [ 214194.541999999986729, 520605.62599999998929 ], [ 214404.12400000001071, 520552.411000000021886 ], [ 214433.856999999989057, 520295.205000000016298 ], [ 214725.708000000013271, 520068.308000000019092 ], [ 214937.597, 520075.647 ], [ 215045.981999999989057, 520338.315 ], [ 215138.954999999987194, 520349.034999999974389 ], [ 215176.84, 520513.62699999997858 ], [ 215219.298, 520535.723999999987427 ], [ 215250.812, 520491.532 ], [ 215335.155999999988126, 520549.734 ], [ 215575.904, 520459.930999999982305 ], [ 215642.467, 520368.054 ], [ 215764.244, 520329.049999999988358 ], [ 215738.606, 520147.580000000016298 ], [ 215887.329, 520014.364 ], [ 215905.977000000013504, 519933.577 ], [ 215964.26, 519981.672000000020489 ], [ 216006.787000000011176, 519912.244 ], [ 216209.104, 519824.37699999997858 ], [ 216440.682999999989988, 519810.446 ], [ 216425.54, 519950.060999999986961 ], [ 216583.532, 520266.658 ], [ 216723.344000000011874, 520206.158 ], [ 216730.49299999998766, 520284.300999999977648 ], [ 216900.26, 520274.517 ], [ 216873.674, 520337.483 ], [ 216928.606, 520380.087 ], [ 217134.159000000014203, 520258.275000000023283 ], [ 217407.99, 520319.62699999997858 ], [ 217525.774, 520382.808000000019092 ], [ 217563.166999999986729, 520466.721000000019558 ], [ 217699.986, 520468.775000000023283 ], [ 217685.615, 520541.631999999983236 ], [ 217751.483, 520548.825000000011642 ], [ 217755.791999999986729, 520621.549999999988358 ], [ 217878.505, 520627.782 ], [ 217879.048, 520677.022999999986496 ], [ 218026.165, 520658.042000000015832 ], [ 218052.347, 520733.685999999986961 ], [ 218274.608, 520749.045999999972992 ], [ 218435.809, 520689.0 ], [ 218573.259, 520602.553000000014435 ], [ 218560.649, 520541.044 ], [ 218692.805, 520331.016 ], [ 218639.840999999985797, 520259.191999999980908 ], [ 218731.121000000013737, 520186.120999999984633 ], [ 218678.839, 520183.174999999988358 ], [ 218620.6, 519997.636 ], [ 218503.824, 519901.200000000011642 ], [ 218497.896, 519725.12400000001071 ], [ 218598.56, 519633.354 ], [ 218508.212, 519562.745 ], [ 218537.437, 519470.004000000015367 ], [ 218700.34, 519411.577999999979511 ], [ 218798.719000000011874, 519254.115999999979977 ], [ 218970.171, 519226.885 ], [ 218955.22, 519106.808000000019092 ], [ 219065.51500000001397, 518999.792000000015832 ], [ 219178.182999999989988, 519055.348999999987427 ], [ 219237.158, 518964.74800000002142 ], [ 219293.525, 518988.088999999978114 ], [ 219353.358, 518941.303000000014435 ], [ 219439.646, 519007.909999999974389 ], [ 219566.549999999988358, 518942.092 ], [ 219719.844000000011874, 518614.340000000025611 ], [ 219977.769, 518479.411000000021886 ], [ 219950.951, 518394.181999999971595 ], [ 220064.663, 518395.316 ], [ 220160.367, 518315.425999999977648 ], [ 220274.21, 518304.183000000019092 ], [ 220293.141, 518341.694000000017695 ], [ 220381.35, 518250.98499999998603 ], [ 220386.741, 518045.142 ], [ 220729.983, 518023.598 ], [ 220743.918, 517970.496999999973923 ], [ 220821.348, 518006.306999999971595 ], [ 221013.805, 517862.022999999986496 ], [ 221058.37, 517767.346000000019558 ], [ 221142.372, 517744.952 ], [ 221106.615, 517642.99900000001071 ], [ 221156.307, 517565.045999999972992 ], [ 221058.633, 517494.842 ], [ 221136.456, 517437.25 ], [ 221134.222, 517348.526000000012573 ], [ 221052.315, 517285.678000000014435 ], [ 221136.619, 517130.849999999976717 ], [ 221275.573, 517122.62 ], [ 221404.136, 516903.604 ], [ 221497.9, 516893.923 ], [ 221516.016, 516836.984 ], [ 221449.219000000011874, 516779.653999999980442 ], [ 221438.597, 516675.207 ], [ 221505.647999999986496, 516585.342 ], [ 221479.908, 516513.474999999976717 ], [ 221583.198, 516460.018999999971129 ], [ 221636.358, 516484.987000000022817 ], [ 221693.388, 516230.544999999983702 ], [ 221737.935999999986961, 516245.231000000028871 ], [ 221745.446, 516195.672000000020489 ], [ 221820.125, 516177.835000000020955 ], [ 221872.682, 516060.108 ], [ 221831.783, 516024.283 ], [ 221894.911, 516000.615999999979977 ], [ 221820.872, 515891.543 ], [ 221893.37599999998929, 515850.38900000002468 ], [ 221902.794, 515765.462 ], [ 221858.022999999986496, 515661.271 ], [ 221768.077, 515601.523999999975786 ], [ 221794.405, 515507.327 ], [ 221915.488000000012107, 515346.060999999986961 ], [ 221978.666, 515342.587999999988824 ], [ 221974.649, 515281.646 ], [ 222039.166999999986729, 515218.321 ], [ 221979.245, 515110.618000000016764 ], [ 222024.511, 514992.411000000021886 ], [ 221967.191, 514933.450000000011642 ], [ 221999.19, 514835.313000000023749 ], [ 222186.674, 514733.313000000023749 ], [ 222171.585, 514688.810999999986961 ], [ 222260.12400000001071, 514621.995 ], [ 222426.796, 514700.652 ], [ 222477.44, 514586.685 ], [ 222452.810999999986961, 514407.305 ], [ 222502.587999999988824, 514316.273999999975786 ], [ 222851.802, 514559.571999999985565 ], [ 223019.514, 514581.792000000015832 ], [ 223028.62, 514651.226000000024214 ], [ 223159.823, 514761.642 ], [ 223172.658, 514885.955000000016298 ], [ 223320.079, 514949.716000000014901 ], [ 223418.329999999987194, 514928.836000000010245 ], [ 223425.094000000011874, 514866.166000000026543 ], [ 223534.445, 514883.960000000020955 ], [ 223667.037000000011176, 514784.48499999998603 ], [ 223846.022999999986496, 514788.287000000011176 ], [ 223862.586000000010245, 514841.202999999979511 ], [ 223986.506, 514881.592 ], [ 224053.019, 514959.221000000019558 ], [ 223986.247, 515061.533 ], [ 224007.318, 515282.799 ], [ 224224.943999999988591, 515360.547000000020489 ], [ 224225.845, 515401.49 ], [ 224320.462999999988824, 515356.175999999977648 ], [ 224456.533, 515164.511 ], [ 224690.37, 515064.419999999983702 ], [ 224760.019999999989523, 515126.419999999983702 ], [ 224860.299999999988358, 515108.909999999974389 ], [ 224870.730000000010477, 515321.28000000002794 ], [ 224936.01, 515360.43 ], [ 224951.76, 515476.840000000025611 ], [ 225219.950000000011642, 515649.18 ], [ 225227.769999999989523, 515700.669999999983702 ], [ 225392.269999999989523, 515729.01 ], [ 225338.670000000012806, 515868.229999999981374 ], [ 225374.730000000010477, 515985.210000000020955 ], [ 225471.730000000010477, 516022.599999999976717 ], [ 225479.99, 516137.76 ], [ 225641.049999999988358, 516100.38 ], [ 225687.29, 516161.830000000016298 ], [ 225806.71, 516095.349999999976717 ], [ 225863.79, 515945.289999999979045 ], [ 225776.019999999989523, 515858.419999999983702 ], [ 225984.519999999989523, 515455.419999999983702 ], [ 225995.269999999989523, 515330.85999999998603 ], [ 225918.019999999989523, 515279.25 ], [ 225951.87, 515153.799999999988358 ], [ 226028.31, 515130.450000000011642 ], [ 226058.049999999988358, 515020.03000000002794 ], [ 226353.200000000011642, 514802.63 ], [ 226407.422, 514810.354999999981374 ], [ 226428.1, 514754.71999999997206 ], [ 226505.29, 514817.96999999997206 ], [ 226850.34, 514666.85999999998603 ], [ 227016.519999999989523, 514716.5 ], [ 227208.75, 514577.919999999983702 ], [ 227247.35999999998603, 514699.93 ], [ 227317.81, 514682.85999999998603 ], [ 227326.31, 514745.99 ], [ 227501.030999999988126, 514815.742000000027474 ], [ 227640.700000000011642, 514786.19 ], [ 227710.51500000001397, 514847.552000000025146 ], [ 227697.65, 514982.13 ], [ 227789.299999999988358, 515166.229999999981374 ], [ 227810.920000000012806, 515366.960000000020955 ], [ 227915.18, 515452.0 ], [ 227861.854, 515500.778 ], [ 227864.66, 515652.419999999983702 ], [ 228321.799999999988358, 515825.468999999982771 ], [ 228477.942000000010012, 515780.175999999977648 ], [ 228545.346, 515597.912000000011176 ], [ 228532.691, 515521.742000000027474 ], [ 228490.279, 515519.628000000026077 ], [ 228533.259, 515407.128000000026077 ], [ 228617.443, 515354.213999999978114 ], [ 228723.988000000012107, 515416.365 ], [ 228870.302, 515124.147 ], [ 228957.252, 515167.079000000027008 ], [ 229044.799999999988358, 515073.75 ], [ 229267.68, 515179.710000000020955 ], [ 229554.68, 515156.49 ], [ 229806.24, 515195.44 ], [ 230014.68, 515074.85999999998603 ], [ 230342.329999999987194, 515076.74 ], [ 230667.230000000010477, 514976.51 ], [ 231182.01500000001397, 514605.167000000015832 ], [ 231626.698, 514660.868000000016764 ], [ 231249.669, 518239.141 ], [ 233424.814000000013039, 520192.346000000019558 ], [ 233851.60999999998603, 520428.424 ], [ 238009.613000000012107, 521438.145000000018626 ], [ 242646.864, 519307.559 ], [ 244419.657, 518731.617000000027474 ], [ 244223.636, 518405.938000000023749 ], [ 244236.13, 518145.398999999975786 ], [ 243999.022999999986496, 518032.12599999998929 ], [ 243933.446, 517945.977000000013504 ], [ 244003.635, 517874.657 ], [ 244103.23499999998603, 517902.577999999979511 ], [ 244230.509, 517865.993000000016764 ], [ 244301.522999999986496, 517708.521 ], [ 244206.008, 517451.224999999976717 ], [ 244092.755, 517292.696 ], [ 244088.810999999986961, 517130.528999999980442 ], [ 244185.986, 517045.276000000012573 ], [ 244161.928000000014435, 516922.541000000026543 ], [ 244065.248, 516706.472 ], [ 243942.011999999987893, 516573.291000000026543 ], [ 243935.946999999985565, 516462.869 ], [ 244020.36799999998766, 516337.24 ], [ 244212.647999999986496, 516346.262999999977183 ], [ 244371.171, 516287.246999999973923 ], [ 244424.854, 516427.777 ], [ 244564.14000000001397, 516408.729999999981374 ], [ 244895.10999999998603, 516686.94 ], [ 245113.829999999987194, 516810.659999999974389 ], [ 245283.37, 516823.93 ], [ 245659.57, 517029.900000000023283 ], [ 245941.35999999998603, 517514.210000000020955 ], [ 246357.85, 517931.32 ], [ 246689.356, 518397.169 ], [ 247261.730000000010477, 518580.85999999998603 ], [ 247413.729, 518724.025000000023283 ], [ 247472.452, 518679.479 ], [ 247357.37400000001071, 518598.670999999972992 ], [ 247464.4, 518464.44 ], [ 247823.239, 518807.261999999987893 ], [ 248438.528, 518599.231000000028871 ], [ 248716.6, 518960.710000000020955 ], [ 248857.44, 518979.897999999986496 ], [ 249074.602000000013504, 519146.738000000012107 ], [ 249493.446, 519250.117000000027474 ], [ 249750.682, 519239.793 ], [ 249905.397999999986496, 519289.228 ], [ 250217.503, 519057.120999999984633 ], [ 250826.384, 519202.023999999975786 ], [ 250996.454, 519130.316 ], [ 251142.842, 518904.467 ], [ 251697.114, 518860.125 ], [ 251886.62599999998929, 518758.511 ], [ 252117.451, 518770.818000000028405 ], [ 252468.314000000013039, 518921.341000000014901 ], [ 252752.589, 519202.881 ], [ 253135.69, 519257.963999999978114 ], [ 254058.59, 518904.88 ], [ 254246.13, 519016.210000000020955 ], [ 254976.615, 519058.566 ], [ 255524.519999999989523, 519454.191999999980908 ], [ 256013.829999999987194, 519161.28000000002794 ], [ 256783.518000000010943, 519284.950000000011642 ], [ 257152.774, 519281.631 ], [ 257281.077, 519232.863000000012107 ], [ 257573.81, 518976.200000000011642 ], [ 258358.670000000012806, 518757.62 ], [ 258452.76, 518240.19 ], [ 258679.230000000010477, 518033.14000000001397 ], [ 259324.9, 518077.270000000018626 ], [ 259743.74, 517879.039999999979045 ], [ 260029.700000000011642, 517834.88 ], [ 260471.04, 518008.06 ], [ 261037.18, 517985.150000000023283 ], [ 261404.89000000001397, 518295.710000000020955 ], [ 261992.96, 518307.89000000001397 ], [ 262142.82, 518411.13 ], [ 262443.210000000020955, 518797.919999999983702 ], [ 262522.25, 518822.090000000025611 ], [ 262927.24, 518692.770000000018626 ], [ 263089.39000000001397, 518543.200000000011642 ], [ 263649.200000000011642, 518299.099999999976717 ], [ 264105.580000000016298, 518400.57 ], [ 264285.13, 518378.549999999988358 ], [ 264464.580000000016298, 518266.580000000016298 ], [ 264613.03000000002794, 518007.770000000018626 ], [ 265016.31, 517822.549999999988358 ], [ 266122.94, 517609.82 ], [ 266576.210000000020955, 517643.919999999983702 ], [ 266793.700000000011642, 517428.090000000025611 ], [ 267005.770000000018626, 517415.039999999979045 ], [ 267925.62, 518628.270000000018626 ], [ 267917.25, 518732.69 ], [ 267857.179, 518738.330000000016298 ], [ 268323.13, 528204.42000000004191 ], [ 268563.24, 537232.449999999953434 ], [ 269102.830000000016298, 538476.76 ], [ 269070.76, 538490.57999999995809 ], [ 269107.770000000018626, 538571.290000000037253 ], [ 269138.080000000016298, 538558.300000000046566 ], [ 269918.650000000023283, 540356.07999999995809 ], [ 268530.815, 540346.753999999957159 ], [ 268490.805999999982305, 540445.680000000051223 ], [ 268516.179, 541104.01500000001397 ], [ 268781.934, 541497.081 ], [ 268777.60999999998603, 541646.64000000001397 ], [ 268332.07, 541382.099999999976717 ], [ 268076.81, 541809.660000000032596 ], [ 267967.419999999983702, 541740.46999999997206 ], [ 267929.330000000016298, 541825.13 ], [ 267863.81, 541783.069999999948777 ], [ 267134.450000000011642, 542884.709999999962747 ], [ 267078.71999999997206, 542848.520000000018626 ], [ 266728.179, 543360.689999999944121 ], [ 266531.400000000023283, 543285.26 ], [ 266293.38, 544135.229999999981374 ], [ 264580.409999999974389, 544105.57999999995809 ] ] ] ] } },
{ "type": "Feature", "properties": { "fid": 11, "identificatie": "PV20", "naam": "Groningen", "code": "20", "ligt_in_land_code": "6030", "ligt_in_land_naam": "Nederland" }, "geometry": { "type": "MultiPolygon", "coordinates": [ [ [ [ 256544.49, 608983.400000000023283 ], [ 255981.29, 609435.290000000037253 ], [ 254866.200000000011642, 609813.819999999948777 ], [ 253760.88, 609728.979999999981374 ], [ 252644.78, 610169.849999999976717 ], [ 250099.68, 612901.35999999998603 ], [ 248136.63, 614284.99 ], [ 245332.32, 616364.569999999948777 ], [ 239736.549999999988358, 620219.57999999995809 ], [ 238429.4, 621278.699999999953434 ], [ 237796.75, 621876.300000000046566 ], [ 236195.37, 620500.0 ], [ 224000.0, 620500.0 ], [ 219000.0, 617500.0 ], [ 219000.0, 615500.0 ], [ 220000.0, 615750.0 ], [ 221000.0, 615500.0 ], [ 221727.908, 615534.711000000010245 ], [ 222471.824, 615452.054 ], [ 222920.536, 615080.096000000019558 ], [ 223251.165, 614584.152 ], [ 223440.096, 613769.386999999987893 ], [ 223386.959, 613173.072999999974854 ], [ 223209.836000000010245, 612860.155999999959022 ], [ 222814.261999999987893, 612559.047000000020489 ], [ 222365.551, 612458.677999999956228 ], [ 221149.693999999988591, 612599.795999999972992 ], [ 221000.0, 612500.0 ], [ 220000.0, 612750.0 ], [ 219000.0, 612750.0 ], [ 219000.0, 607098.310000000055879 ], [ 208649.29, 603300.0 ], [ 206942.65, 600773.479999999981374 ], [ 206935.329999999987194, 600106.74 ], [ 207133.6, 598997.25 ], [ 207434.450000000011642, 598285.430000000051223 ], [ 207682.51, 597895.290000000037253 ], [ 207787.41, 597811.76 ], [ 208404.24, 597560.069999999948777 ], [ 210117.07, 597206.96999999997206 ], [ 210375.0, 597099.660000000032596 ], [ 210783.85, 596759.410000000032596 ], [ 210886.74, 596534.849999999976717 ], [ 210984.450000000011642, 596106.189999999944121 ], [ 211163.06, 595699.60999999998603 ], [ 211372.68, 595518.85999999998603 ], [ 211571.22, 595480.89000000001397 ], [ 211752.62, 595516.599999999976717 ], [ 212298.07, 596016.53000000002794 ], [ 212553.920000000012806, 596126.449999999953434 ], [ 212727.4, 596146.459999999962747 ], [ 213425.24, 595895.099999999976717 ], [ 214039.420000000012806, 595792.699999999953434 ], [ 214464.980000000010477, 595505.99 ], [ 214930.60999999998603, 595370.810000000055879 ], [ 214538.979, 592160.312000000034459 ], [ 214774.967, 592075.392 ], [ 214952.26, 592103.316 ], [ 215201.369, 592007.064999999944121 ], [ 215343.196, 591911.790000000037253 ], [ 215468.758, 591681.219000000040978 ], [ 215159.1, 591332.32999999995809 ], [ 214615.246000000013737, 591195.770000000018626 ], [ 214414.086000000010245, 591073.343 ], [ 214160.34, 590671.07999999995809 ], [ 214154.929, 590366.057999999960884 ], [ 213932.658, 590106.332999999984168 ], [ 213913.329999999987194, 589813.089999999967404 ], [ 213784.502, 589612.375 ], [ 213698.995, 589731.702999999979511 ], [ 213576.646, 589770.53000000002794 ], [ 213195.052, 589750.148999999975786 ], [ 213019.681000000011409, 589665.995 ], [ 212754.095, 589394.466000000014901 ], [ 212766.383, 589186.177000000025146 ], [ 212679.776000000012573, 588740.040000000037253 ], [ 212716.337999999988824, 588449.393999999971129 ], [ 212647.057999999989988, 588205.25 ], [ 212755.931000000011409, 587785.044 ], [ 212941.783, 587510.986000000033528 ], [ 212933.03, 587287.959999999962747 ], [ 212829.19, 587165.60999999998603 ], [ 212698.622, 587109.552000000025146 ], [ 212531.730000000010477, 587092.32999999995809 ], [ 212405.66, 587217.24 ], [ 212246.71, 587128.99 ], [ 212137.75, 586990.839999999967404 ], [ 212106.89000000001397, 586834.82999999995809 ], [ 211827.94, 586587.35999999998603 ], [ 211746.76, 586370.89000000001397 ], [ 211836.96, 586207.589999999967404 ], [ 211760.51, 586014.37 ], [ 211620.69, 585918.26 ], [ 211386.264, 585901.966000000014901 ], [ 211364.24900000001071, 585776.292000000015832 ], [ 211403.39000000001397, 585696.46999999997206 ], [ 211563.76, 585600.050000000046566 ], [ 211590.579999999987194, 585532.560000000055879 ], [ 211500.756, 585247.125 ], [ 211362.769999999989523, 585175.5 ], [ 211257.480000000010477, 585200.67000000004191 ], [ 211220.1, 585135.400000000023283 ], [ 211262.53, 584941.910000000032596 ], [ 211388.19, 584844.92000000004191 ], [ 211330.60999999998603, 584607.069999999948777 ], [ 211233.84, 584571.540000000037253 ], [ 211110.09, 584623.699999999953434 ], [ 210894.96, 584524.189999999944121 ], [ 210810.329999999987194, 584404.5 ], [ 210575.29, 584363.39000000001397 ], [ 210462.487, 584248.052999999956228 ], [ 210789.087999999988824, 583980.876000000047497 ], [ 210908.494, 584004.886999999987893 ], [ 210933.704999999987194, 583881.848 ], [ 210619.317000000010012, 583739.62300000002142 ], [ 210306.215999999985797, 583695.65300000004936 ], [ 210264.41, 583498.0 ], [ 210390.450000000011642, 583402.400000000023283 ], [ 210227.12599999998929, 583369.944999999948777 ], [ 210280.06, 583315.63 ], [ 210412.75, 583301.38 ], [ 210485.35, 583102.13 ], [ 210648.47, 583147.63 ], [ 210928.03, 582923.63 ], [ 210952.0, 582696.63 ], [ 211033.44, 582573.63 ], [ 210975.25, 582420.13 ], [ 211302.0, 582088.38 ], [ 211298.19, 581836.75 ], [ 211226.88, 581721.13 ], [ 211295.170000000012806, 581570.51 ], [ 210949.97, 581209.25 ], [ 210989.6, 581068.75 ], [ 210956.9, 580916.5 ], [ 210791.18, 580755.92000000004191 ], [ 210779.38, 580563.060000000055879 ], [ 210646.24, 580436.180000000051223 ], [ 210580.74, 580249.459999999962747 ], [ 210404.12, 580082.53000000002794 ], [ 210256.57, 580011.569999999948777 ], [ 209944.99, 579562.229999999981374 ], [ 209590.21, 579544.17000000004191 ], [ 209291.723999999987427, 579384.625 ], [ 209285.47, 578816.74 ], [ 209174.88, 578684.199999999953434 ], [ 209013.888, 578622.783999999985099 ], [ 208851.071999999985565, 578346.047999999951571 ], [ 208285.353, 576926.685000000055879 ], [ 208106.53, 576277.49 ], [ 207869.4, 575982.410000000032596 ], [ 207831.03, 575812.040000000037253 ], [ 207744.119, 572369.819000000017695 ], [ 207823.35, 572274.660000000032596 ], [ 207979.54, 572223.25 ], [ 208325.44, 571862.46999999997206 ], [ 208734.579999999987194, 571297.689999999944121 ], [ 208710.115, 571274.454000000027008 ], [ 209759.060999999986961, 570166.606000000028871 ], [ 210935.399, 570116.658999999985099 ], [ 211263.097, 570027.434 ], [ 211851.831, 569957.354999999981374 ], [ 213330.786, 570084.601000000024214 ], [ 213617.585, 570060.454000000027008 ], [ 214374.949, 569750.229000000050291 ], [ 214993.478, 569269.351000000024214 ], [ 215381.878999999986263, 568741.079000000027008 ], [ 215506.56, 568492.881999999983236 ], [ 219133.215999999985797, 567126.865 ], [ 219919.845, 569357.738000000012107 ], [ 220383.745, 569415.981999999959953 ], [ 220515.355000000010477, 571051.192999999970198 ], [ 221595.085, 574109.268000000040047 ], [ 221523.74, 574110.75199999997858 ], [ 221508.897999999986496, 574546.050000000046566 ], [ 221975.932, 575063.441 ], [ 222064.772, 575107.383999999961816 ], [ 222072.806000000011409, 575239.680000000051223 ], [ 222149.521, 575213.087000000057742 ], [ 222264.394999999989523, 575480.582000000053085 ], [ 222413.073, 575679.547000000020489 ], [ 222926.095, 576090.653999999980442 ], [ 223008.277, 576256.067000000039116 ], [ 223016.731999999989057, 576860.726999999955297 ], [ 223091.443, 577128.074999999953434 ], [ 223181.366, 577257.25 ], [ 223744.818999999988591, 577507.812000000034459 ], [ 223929.146, 577535.12 ], [ 224082.786, 577654.427999999956228 ], [ 224316.059, 577702.800999999977648 ], [ 224693.965999999985797, 577891.542999999946915 ], [ 225003.60999999998603, 578184.32999999995809 ], [ 225092.469000000011874, 578204.103 ], [ 225157.200000000011642, 578148.503999999957159 ], [ 225243.116, 578176.988999999943189 ], [ 225563.824, 578414.180000000051223 ], [ 225745.297, 578781.371999999973923 ], [ 225873.429, 579387.09499999997206 ], [ 227037.159000000014203, 579851.474999999976717 ], [ 228169.596, 580225.758999999961816 ], [ 228400.62, 580246.479999999981374 ], [ 228420.29, 580191.10999999998603 ], [ 228616.096, 580173.003999999957159 ], [ 228802.973999999987427, 579959.20499999995809 ], [ 228864.178000000014435, 579982.523999999975786 ], [ 228906.827, 579692.915000000037253 ], [ 228978.818, 579631.604999999981374 ], [ 229138.718, 579627.86199999996461 ], [ 229819.604, 579859.030999999959022 ], [ 230261.301, 579508.95499999995809 ], [ 230414.56, 579663.96999999997206 ], [ 231168.46, 579397.60999999998603 ], [ 231406.842, 579373.648999999975786 ], [ 231340.723999999987427, 579331.072000000043772 ], [ 231680.441, 578100.846000000019558 ], [ 232044.782, 577787.927000000025146 ], [ 232189.003999999986263, 577499.584000000031665 ], [ 232281.102000000013504, 577523.184 ], [ 232615.37, 577783.294 ], [ 233393.048, 576461.104999999981374 ], [ 233694.105000000010477, 575189.61199999996461 ], [ 234875.514, 575870.890999999945052 ], [ 234825.663, 575716.395999999949709 ], [ 234912.077, 575704.650000000023283 ], [ 234892.064000000013039, 575611.606000000028871 ], [ 234999.258, 575416.810000000055879 ], [ 235023.695, 575237.006000000052154 ], [ 235107.435, 575212.778999999980442 ], [ 235261.959, 575058.256000000052154 ], [ 235093.426, 574832.841999999945983 ], [ 235095.217, 574753.104999999981374 ], [ 235197.604, 574608.006999999983236 ], [ 235321.318999999988591, 574121.682999999960884 ], [ 235340.487, 573858.571 ], [ 235513.913999999989755, 573807.011999999987893 ], [ 235856.719000000011874, 573872.128000000026077 ], [ 235872.941, 573744.941 ], [ 235967.711000000010245, 573710.809 ], [ 236146.022, 573792.748999999952503 ], [ 236593.534000000014203, 573198.163999999989755 ], [ 236881.22, 573046.300000000046566 ], [ 237127.89000000001397, 572789.062999999965541 ], [ 237082.509, 572469.65300000004936 ], [ 237275.337, 572504.925000000046566 ], [ 237318.503999999986263, 572409.202000000048429 ], [ 237444.611, 572348.738999999943189 ], [ 237421.427, 572217.800000000046566 ], [ 237601.557, 572001.505 ], [ 237647.847, 571755.863999999943189 ], [ 238038.615, 571374.746000000042841 ], [ 238028.49900000001071, 571204.388999999966472 ], [ 238112.142, 571017.883999999961816 ], [ 238161.011, 571057.145000000018626 ], [ 238258.764, 570989.032 ], [ 238049.714, 570745.503000000026077 ], [ 238101.332, 570687.493000000016764 ], [ 238079.847, 570589.23499999998603 ], [ 238200.487, 570484.049 ], [ 238455.949, 570451.074999999953434 ], [ 238657.09, 570287.084999999962747 ], [ 238560.228, 570131.586000000010245 ], [ 238679.37400000001071, 570000.51300000003539 ], [ 238698.603, 569782.246999999973923 ], [ 238604.701, 569730.218 ], [ 238626.782, 569639.991000000038184 ], [ 238551.668, 569546.093 ], [ 240946.358, 570705.871999999973923 ], [ 240926.577, 570735.849000000045635 ], [ 242575.079999999987194, 571284.160000000032596 ], [ 243547.692000000010012, 571199.317999999970198 ], [ 245395.75, 571145.366999999969266 ], [ 245733.288, 570807.633999999961816 ], [ 245790.261, 570830.702000000048429 ], [ 245826.803000000014435, 570739.040000000037253 ], [ 246100.691, 570493.701 ], [ 246188.681000000011409, 570283.093 ], [ 246343.5, 570269.729000000050291 ], [ 246376.271, 570150.572000000043772 ], [ 259030.638, 557315.95499999995809 ], [ 264545.299, 549830.768999999971129 ], [ 265225.386, 549260.067999999970198 ], [ 266542.183000000019092, 548928.182999999960884 ], [ 264580.409999999974389, 544105.57999999995809 ], [ 266293.38, 544135.229999999981374 ], [ 266531.400000000023283, 543285.26 ], [ 266728.179, 543360.689999999944121 ], [ 267078.71999999997206, 542848.520000000018626 ], [ 267134.450000000011642, 542884.709999999962747 ], [ 267863.81, 541783.069999999948777 ], [ 267929.330000000016298, 541825.13 ], [ 267967.419999999983702, 541740.46999999997206 ], [ 268076.81, 541809.660000000032596 ], [ 268332.07, 541382.099999999976717 ], [ 268777.60999999998603, 541646.64000000001397 ], [ 268781.934, 541497.081 ], [ 268516.179, 541104.01500000001397 ], [ 268490.805999999982305, 540445.680000000051223 ], [ 268530.815, 540346.753999999957159 ], [ 269918.650000000023283, 540356.07999999995809 ], [ 269518.710000000020955, 541648.060000000055879 ], [ 270263.669999999983702, 542762.21999999997206 ], [ 270635.099999999976717, 543239.189999999944121 ], [ 275613.539999999979045, 552003.439999999944121 ], [ 277332.950000000011642, 558606.180000000051223 ], [ 277693.57, 559128.550000000046566 ], [ 277783.26, 559190.17000000004191 ], [ 277756.650000000023283, 559219.790000000037253 ], [ 277843.60999999998603, 559346.14000000001397 ], [ 277532.330000000016298, 559765.790000000037253 ], [ 276412.580000000016298, 567587.25 ], [ 276562.270000000018626, 571156.32999999995809 ], [ 275207.25, 572052.479999999981374 ], [ 275399.479999999981374, 572331.24 ], [ 275248.340000000025611, 572398.959999999962747 ], [ 275059.10999999998603, 572724.405999999959022 ], [ 274894.049999999988358, 573883.964000000036322 ], [ 274899.329000000027008, 573915.126000000047497 ], [ 274985.841000000014901, 573858.055000000051223 ], [ 275174.229, 574102.871999999973923 ], [ 275221.456, 574340.800000000046566 ], [ 275342.193000000028405, 574605.691 ], [ 275582.956, 574978.378999999957159 ], [ 275538.32, 576019.479999999981374 ], [ 275656.169999999983702, 576272.810000000055879 ], [ 275631.200000000011642, 576524.680000000051223 ], [ 276442.78000000002794, 578184.400000000023283 ], [ 277037.039999999979045, 578244.050000000046566 ], [ 278026.090000000025611, 578638.12 ], [ 276702.590000000025611, 579517.209999999962747 ], [ 276919.150000000023283, 579971.599999999976717 ], [ 277251.25, 580318.42000000004191 ], [ 277316.400000000023283, 580572.729999999981374 ], [ 277228.57, 582457.560000000055879 ], [ 276753.799999999988358, 583963.089999999967404 ], [ 276888.78000000002794, 583943.300000000046566 ], [ 274936.650000000023283, 595472.520000000018626 ], [ 273876.0, 595560.160000000032596 ], [ 271269.159999999974389, 595434.37 ], [ 269846.950000000011642, 595307.319999999948777 ], [ 266574.13, 594364.199999999953434 ], [ 263742.419999999983702, 594330.060000000055879 ], [ 262848.710000000020955, 594557.25 ], [ 262132.49, 595128.699999999953434 ], [ 261991.950000000011642, 595620.300000000046566 ], [ 262048.68, 596394.599999999976717 ], [ 261979.4, 597011.49 ], [ 260283.38, 600096.979999999981374 ], [ 259614.25, 601102.71999999997206 ], [ 259095.87, 601988.14000000001397 ], [ 257659.54, 606904.550000000046566 ], [ 257117.049999999988358, 608098.88 ], [ 256544.49, 608983.400000000023283 ] ] ] ] } }
]
}
