{
"type": "FeatureCollection",
"name": "hsms_vvl",
"crs": { "type": "name", "properties": { "name": "urn:ogc:def:crs:OGC:1.3:CRS84" } },
"features": [
{ "type": "Feature", "properties": { "label": "VVL10 Vierverlaten", "gid": "VVL10 Vierverlaten" }, "geometry": { "type": "MultiPolygon", "coordinates": [ [ [ [ 6.435375022998541, 53.091717848317899 ], [ 6.437931136299611, 53.086146571669836 ], [ 6.441013930308597, 53.084383871475509 ], [ 6.440597617424938, 53.083718557287874 ], [ 6.442924119408795, 53.082871676465807 ], [ 6.446030831367923, 53.084309132958822 ], [ 6.442948537302252, 53.082849798917465 ], [ 6.42763288713132, 53.08846536422692 ], [ 6.426871560091576, 53.090576820879022 ], [ 6.435375022998541, 53.091717848317899 ] ] ], [ [ [ 6.313213049861873, 53.093386380948481 ], [ 6.313849472309351, 53.092504873120774 ], [ 6.310710951300765, 53.088926970393743 ], [ 6.303039573827048, 53.091572373368862 ], [ 6.303080743440971, 53.094000540193534 ], [ 6.299217418128952, 53.094865605350918 ], [ 6.29703228141784, 53.09609097094976 ], [ 6.298902631117642, 53.096781703819069 ], [ 6.313213049861873, 53.093386380948481 ] ] ], [ [ [ 6.427885635743904, 53.110372820694714 ], [ 6.429718620243843, 53.109477318685059 ], [ 6.427896816447937, 53.108791344081602 ], [ 6.426764925177975, 53.110954708006538 ], [ 6.427660430059344, 53.110923607766843 ], [ 6.427885635743904, 53.110372820694714 ] ] ], [ [ [ 6.594407257441077, 53.115182535094526 ], [ 6.594394291697399, 53.115370652838166 ], [ 6.5950028336103, 53.115315302453936 ], [ 6.594626179291021, 53.115152559530202 ], [ 6.594407257441077, 53.115182535094526 ] ] ], [ [ [ 6.626397684437, 53.123362444248087 ], [ 6.627335591206528, 53.122833222584376 ], [ 6.628648448049583, 53.119493050467845 ], [ 6.630575689852058, 53.119385297180756 ], [ 6.627937744421941, 53.117179113170259 ], [ 6.628067782634543, 53.115874611911885 ], [ 6.629830294210839, 53.11468334098668 ], [ 6.633862114800892, 53.114203115530017 ], [ 6.635781527295586, 53.113396275238216 ], [ 6.63710277427459, 53.108648696057863 ], [ 6.634836257816773, 53.106202076530856 ], [ 6.634646987455191, 53.105678449758727 ], [ 6.635563546228438, 53.105152316461897 ], [ 6.626276391362548, 53.10276660413993 ], [ 6.626469358474614, 53.100885193324416 ], [ 6.609865965433793, 53.111085403531291 ], [ 6.60916401999748, 53.112452890139579 ], [ 6.60962889278365, 53.114123597870474 ], [ 6.60603137936687, 53.115294655753125 ], [ 6.605956140121608, 53.118266296765455 ], [ 6.611393897382722, 53.120093209407919 ], [ 6.614457761507222, 53.121723065084907 ], [ 6.614484584590231, 53.127832098674126 ], [ 6.613980875712841, 53.128284980467974 ], [ 6.61073744301117, 53.126989152520643 ], [ 6.614253573972587, 53.128574408144431 ], [ 6.618978350384076, 53.129880078795466 ], [ 6.621320248265181, 53.128309099424428 ], [ 6.621763333467506, 53.12635071043676 ], [ 6.622834219460987, 53.125372975616365 ], [ 6.626397684437, 53.123362444248087 ] ] ], [ [ [ 6.31934052722395, 53.317159228156925 ], [ 6.324353947274959, 53.315647741178822 ], [ 6.330426269840649, 53.31515409371125 ], [ 6.333400752807548, 53.315763582071988 ], [ 6.341227850989843, 53.318734142721929 ], [ 6.345067015522773, 53.319035273489654 ], [ 6.34925695773714, 53.317818019022425 ], [ 6.354542858274058, 53.314168594822618 ], [ 6.356862113530966, 53.313854262140197 ], [ 6.360396270246194, 53.315294959326799 ], [ 6.365353089030021, 53.321080956340367 ], [ 6.367009097382826, 53.321571689450074 ], [ 6.368763994016472, 53.321506284199302 ], [ 6.372681531610689, 53.315836430232707 ], [ 6.378948155166086, 53.313148280126093 ], [ 6.384806780355536, 53.314226347349432 ], [ 6.390518724334806, 53.311525836519948 ], [ 6.389106678099191, 53.309880183917777 ], [ 6.391150951058887, 53.307023156619046 ], [ 6.39094433030261, 53.305167432330279 ], [ 6.383184650174374, 53.307144443016043 ], [ 6.372459915598684, 53.307282848556859 ], [ 6.371444754991268, 53.306656642380837 ], [ 6.373479543178586, 53.305429378835782 ], [ 6.374979514214232, 53.303461758134304 ], [ 6.373779513195583, 53.302257826447928 ], [ 6.375405459153563, 53.302920253188795 ], [ 6.380948314636038, 53.300101845674135 ], [ 6.386931635216242, 53.301691677086602 ], [ 6.389491545834371, 53.301672909992035 ], [ 6.390960085913241, 53.298855924076051 ], [ 6.39139820477691, 53.298448812651486 ], [ 6.392240488597973, 53.299043108418147 ], [ 6.392787233872675, 53.298876558147114 ], [ 6.392116190984962, 53.298033853402387 ], [ 6.392904584714742, 53.297848966264908 ], [ 6.397904483584695, 53.298999264040731 ], [ 6.39630805435223, 53.300044284788456 ], [ 6.398534739303493, 53.301247605993055 ], [ 6.410023628943942, 53.297801788783858 ], [ 6.410985263534574, 53.29536185782662 ], [ 6.409915832581755, 53.291207099266614 ], [ 6.410492125402717, 53.290020692255233 ], [ 6.420463103636775, 53.287778618743857 ], [ 6.421307267376147, 53.286330000596536 ], [ 6.42443175913079, 53.287159556330096 ], [ 6.42471045509182, 53.284622458969736 ], [ 6.423064322970841, 53.281855174422084 ], [ 6.429168205796794, 53.280679757705123 ], [ 6.430706653441309, 53.278156066683025 ], [ 6.4402002908303, 53.281888087935648 ], [ 6.441967647917988, 53.28305030835061 ], [ 6.442768198052468, 53.282904981081536 ], [ 6.444600746526563, 53.280689756065158 ], [ 6.447268348487117, 53.281886582872062 ], [ 6.446808965517726, 53.280752087157978 ], [ 6.449378732411728, 53.280194648574536 ], [ 6.452741048816377, 53.281495405242374 ], [ 6.453469927901783, 53.282234105017039 ], [ 6.45484721462171, 53.282297461732014 ], [ 6.457080988843635, 53.283342127499736 ], [ 6.458168027521941, 53.283409720574525 ], [ 6.458879441259068, 53.282524575969312 ], [ 6.460226339079529, 53.282916519522502 ], [ 6.460160824968224, 53.282366484417565 ], [ 6.461952642519709, 53.280846532009548 ], [ 6.460825344023355, 53.27995946324954 ], [ 6.462233714545071, 53.279348996560877 ], [ 6.471497338274744, 53.278924786532805 ], [ 6.472123388784575, 53.275270099996334 ], [ 6.47535596966654, 53.271141423686736 ], [ 6.47886146709505, 53.271803652246234 ], [ 6.484204399901001, 53.272024505409469 ], [ 6.482956350260964, 53.261869097961245 ], [ 6.483927538958619, 53.26216199972523 ], [ 6.484646665856069, 53.263496844192971 ], [ 6.486525640517457, 53.264340547491194 ], [ 6.487537138754242, 53.26279566580407 ], [ 6.49392869545541, 53.261208196763022 ], [ 6.495910462344165, 53.264511801173363 ], [ 6.501598494845437, 53.265326736870705 ], [ 6.503948812053352, 53.265231090105424 ], [ 6.506475111873129, 53.268130203814742 ], [ 6.508381165052365, 53.256092260863355 ], [ 6.511442422369409, 53.254114240168157 ], [ 6.509558136309, 53.252777864077814 ], [ 6.509005701843178, 53.253074422956992 ], [ 6.509111476322514, 53.252418241167028 ], [ 6.508034527399192, 53.251794598175181 ], [ 6.50173352637182, 53.252482068618022 ], [ 6.496548619254504, 53.251118274340079 ], [ 6.497521198783361, 53.247132142802606 ], [ 6.495988499710159, 53.245611407945447 ], [ 6.493682430056374, 53.245868555857712 ], [ 6.491985479788572, 53.245554696919676 ], [ 6.492435756644956, 53.246674690381219 ], [ 6.49042543590596, 53.24698039004921 ], [ 6.490427497496018, 53.247320921090648 ], [ 6.488725509121214, 53.24723139372869 ], [ 6.488601659710269, 53.249016352436961 ], [ 6.480920741035802, 53.250185288178244 ], [ 6.48019497258147, 53.244360582845268 ], [ 6.473804355103567, 53.231622111093174 ], [ 6.47435312177174, 53.230828159835255 ], [ 6.469767914927455, 53.220468633415756 ], [ 6.479075510947965, 53.215894156822088 ], [ 6.478644021838427, 53.214306170680693 ], [ 6.480774504222357, 53.210647646832477 ], [ 6.486164255590812, 53.211744457155469 ], [ 6.487218538651362, 53.211425388118109 ], [ 6.488302919254181, 53.209516953651161 ], [ 6.48884178623346, 53.209548435389543 ], [ 6.484413979976746, 53.208555497375656 ], [ 6.486147844978674, 53.207299854493591 ], [ 6.484270662145973, 53.203820044872174 ], [ 6.48571682935421, 53.203821257815669 ], [ 6.492725633380473, 53.200736374999515 ], [ 6.49350490587701, 53.198497018680527 ], [ 6.496427748927675, 53.198137433306705 ], [ 6.506844706842158, 53.200145038537755 ], [ 6.513385989039716, 53.19693701780399 ], [ 6.515715198228861, 53.198308149669629 ], [ 6.530062542403823, 53.195765436018903 ], [ 6.536690662196685, 53.195892564057708 ], [ 6.536783427666821, 53.193926995267759 ], [ 6.538173980939188, 53.192725118398371 ], [ 6.538603166282878, 53.191379920158141 ], [ 6.540405776304862, 53.191799399217537 ], [ 6.540801267568579, 53.191237299319489 ], [ 6.542089968426334, 53.191513001107253 ], [ 6.541632130644484, 53.19071855165344 ], [ 6.543739318522505, 53.191142224274337 ], [ 6.545122619702784, 53.189459887016653 ], [ 6.545020353886337, 53.188049270700049 ], [ 6.543210672801723, 53.185502007105889 ], [ 6.546900261879184, 53.1810194577711 ], [ 6.545457546341791, 53.180119089415228 ], [ 6.54483935224258, 53.180659555500696 ], [ 6.544215054749565, 53.180548428720506 ], [ 6.544492790473847, 53.179480716933895 ], [ 6.549274019437544, 53.181191875733994 ], [ 6.548852138615501, 53.181664266489655 ], [ 6.556935735590491, 53.183830481987378 ], [ 6.558187603525629, 53.182039839423489 ], [ 6.566619136452374, 53.184514161530835 ], [ 6.571786365261729, 53.182234869509024 ], [ 6.567963283223525, 53.179562146698785 ], [ 6.569192909245793, 53.17785559962671 ], [ 6.573921766322811, 53.174135222357997 ], [ 6.572915582371097, 53.171542875615643 ], [ 6.569028541515124, 53.167572727542954 ], [ 6.569942416131142, 53.166096539379133 ], [ 6.572104072743467, 53.164974344450812 ], [ 6.573939247073647, 53.161166681351148 ], [ 6.564233102801779, 53.157820082150899 ], [ 6.581496957638263, 53.163530689757692 ], [ 6.581098885720933, 53.162613219348295 ], [ 6.583455289430044, 53.158527459601608 ], [ 6.587089330693164, 53.156225957933366 ], [ 6.58464254982511, 53.15430518672305 ], [ 6.58738643800684, 53.148683236179629 ], [ 6.587794254699341, 53.145891802445277 ], [ 6.600456339416389, 53.144308814972511 ], [ 6.605877891632836, 53.13984361556841 ], [ 6.603819064875433, 53.139355613548091 ], [ 6.605347548315597, 53.136901272061181 ], [ 6.601323927416932, 53.135996837749317 ], [ 6.599173599739863, 53.137705293270493 ], [ 6.593020876789884, 53.135123600338822 ], [ 6.593407542631351, 53.134410884801312 ], [ 6.589557570388823, 53.133214828605361 ], [ 6.589246591849755, 53.132406937715587 ], [ 6.588096922679545, 53.132220911253114 ], [ 6.589691870267998, 53.130757113706906 ], [ 6.5909052884355, 53.131356913039433 ], [ 6.596601462966261, 53.129134443253996 ], [ 6.600524368929897, 53.13063379291733 ], [ 6.601512517056429, 53.132853753315366 ], [ 6.605977880013378, 53.135013831134785 ], [ 6.607159158507907, 53.135011232356327 ], [ 6.607597389430919, 53.133557250115992 ], [ 6.605884233513514, 53.124805362327862 ], [ 6.603541837632256, 53.123633953163463 ], [ 6.601049532084846, 53.123271231587026 ], [ 6.599038308081912, 53.122179297868939 ], [ 6.597926339579449, 53.123032352637878 ], [ 6.599005860754747, 53.122020457883032 ], [ 6.597526504232008, 53.120699473367644 ], [ 6.599037608394639, 53.117064407519308 ], [ 6.596530404295737, 53.11646273118911 ], [ 6.59539216664415, 53.119180415912986 ], [ 6.593776079142621, 53.11786549591065 ], [ 6.594228935856244, 53.116677689636958 ], [ 6.591580231982758, 53.116604363179903 ], [ 6.592673457536891, 53.114759538974326 ], [ 6.593466134993683, 53.114528688917325 ], [ 6.59761977302708, 53.115583369085485 ], [ 6.597969530563425, 53.114465172779155 ], [ 6.597038996686074, 53.114111175922737 ], [ 6.597496511095114, 53.112526985533357 ], [ 6.598548882948684, 53.112612825178779 ], [ 6.598969322548608, 53.11126846191668 ], [ 6.598975146107483, 53.110783051281096 ], [ 6.597625159772291, 53.111594342745541 ], [ 6.593460123946233, 53.111671574175858 ], [ 6.593316506505087, 53.111062656547766 ], [ 6.590637074858613, 53.110643575975025 ], [ 6.59559627495471, 53.101048311667249 ], [ 6.594785665298192, 53.098852848611791 ], [ 6.593494904666541, 53.097862278921873 ], [ 6.594497376115097, 53.097508081475034 ], [ 6.592332551892109, 53.095502458296572 ], [ 6.590603003747044, 53.096405702439611 ], [ 6.586143533621394, 53.096478848428553 ], [ 6.579685496524972, 53.095022656644311 ], [ 6.577116054461814, 53.098122625912787 ], [ 6.569874920529755, 53.096609864186618 ], [ 6.562142242504408, 53.1078663482986 ], [ 6.554526584395552, 53.105271633111379 ], [ 6.552951174857208, 53.104191196122713 ], [ 6.549585985715732, 53.108517635450461 ], [ 6.549986987385977, 53.110210541396164 ], [ 6.548576881133596, 53.110874203838243 ], [ 6.55027904287667, 53.111391448674652 ], [ 6.54793290295002, 53.11418454145236 ], [ 6.547801868153169, 53.116785880114122 ], [ 6.544801679710454, 53.119074117946766 ], [ 6.543864942514424, 53.121838669913537 ], [ 6.540566377125611, 53.12503329232171 ], [ 6.538385267569299, 53.130130753107181 ], [ 6.529463852987962, 53.132035440027721 ], [ 6.527839357248935, 53.131855863158101 ], [ 6.530007568521143, 53.13680086020041 ], [ 6.526783381813888, 53.13618179897 ], [ 6.524535729805349, 53.137868936326576 ], [ 6.523139987925719, 53.137839796033383 ], [ 6.52296307205002, 53.138236365892048 ], [ 6.519077679347244, 53.13774466702862 ], [ 6.519423349108433, 53.136984615443701 ], [ 6.513712989874517, 53.136188488654952 ], [ 6.51429713395181, 53.134990723012379 ], [ 6.516967669094702, 53.134861303798338 ], [ 6.517756484739458, 53.133923962749215 ], [ 6.516581811433414, 53.132315096061447 ], [ 6.514761338059192, 53.132627643730743 ], [ 6.512543484363802, 53.13227323378878 ], [ 6.513246451539654, 53.131417629842346 ], [ 6.514737122165543, 53.131152969235288 ], [ 6.51092997484128, 53.13069305298999 ], [ 6.512501764633502, 53.125604462790612 ], [ 6.505191191062344, 53.122435151596058 ], [ 6.518057531716695, 53.111646925942132 ], [ 6.511459821904958, 53.10997460114708 ], [ 6.514385468728696, 53.103757029546003 ], [ 6.515806940955152, 53.10266849739962 ], [ 6.519084178663216, 53.101882663275063 ], [ 6.523091334783036, 53.099489239713577 ], [ 6.5111106450012, 53.09480079796041 ], [ 6.497131018153266, 53.090334308897965 ], [ 6.490416126771172, 53.097397872925548 ], [ 6.485008411316634, 53.106022294922035 ], [ 6.489989541777407, 53.097887003843987 ], [ 6.490930417787357, 53.096696395618387 ], [ 6.48126136837926, 53.092634875262924 ], [ 6.47976690262286, 53.098041175570323 ], [ 6.476728749430851, 53.099928406888061 ], [ 6.474300073807077, 53.103280102096434 ], [ 6.471496490204495, 53.104949352125935 ], [ 6.465409483514342, 53.106715075278075 ], [ 6.459291672498138, 53.106692293107336 ], [ 6.454069811490586, 53.107801281217554 ], [ 6.446731495191591, 53.107155889920534 ], [ 6.442304974118001, 53.108509937395254 ], [ 6.443573368894199, 53.110124916261661 ], [ 6.443445673709335, 53.116390217895827 ], [ 6.442718422452518, 53.117109282359664 ], [ 6.441601641113721, 53.116840464985216 ], [ 6.440802773633604, 53.117243852370734 ], [ 6.439593730664065, 53.120164473259273 ], [ 6.43883099040319, 53.12014768537707 ], [ 6.438447030213152, 53.119721260851783 ], [ 6.439720670954782, 53.118354236613904 ], [ 6.437099022944062, 53.114886660789637 ], [ 6.432920951466264, 53.115690714907643 ], [ 6.432189344037639, 53.116463812725144 ], [ 6.430092528121993, 53.116083229901619 ], [ 6.427405653655448, 53.114305659836589 ], [ 6.426190282215518, 53.114047777881083 ], [ 6.42627203146165, 53.112828677929556 ], [ 6.425976529669904, 53.114817601806145 ], [ 6.426098723964234, 53.115575496628509 ], [ 6.425890061427979, 53.114303074824029 ], [ 6.424242667167533, 53.11418479815076 ], [ 6.423260912567557, 53.113400002877185 ], [ 6.422357348125113, 53.114611326061627 ], [ 6.420813527526841, 53.113521129972703 ], [ 6.420288924808253, 53.113848586321318 ], [ 6.418162846158045, 53.112877558356494 ], [ 6.418884886264544, 53.111654959876951 ], [ 6.416770514320448, 53.111421773147242 ], [ 6.414670621848039, 53.112584528593054 ], [ 6.413918321091932, 53.11248317316241 ], [ 6.412139452337073, 53.113484373009172 ], [ 6.410328024335442, 53.1138116077096 ], [ 6.410109118997458, 53.113234119790903 ], [ 6.413369352318105, 53.110206359298928 ], [ 6.407243292630473, 53.106192871152153 ], [ 6.412284080040099, 53.104024333806898 ], [ 6.418273113944013, 53.110683109679613 ], [ 6.421120155738114, 53.110487791181292 ], [ 6.422820612188779, 53.108463535419808 ], [ 6.424190701821157, 53.108976019456932 ], [ 6.422969162359426, 53.111203009009472 ], [ 6.424735282764698, 53.11096323760782 ], [ 6.425405490166276, 53.109740526443034 ], [ 6.424585726699407, 53.109577109561322 ], [ 6.424789329605523, 53.109066829777852 ], [ 6.425832761821142, 53.108952226657372 ], [ 6.426767207083316, 53.1071419678848 ], [ 6.427757389694463, 53.106644114961036 ], [ 6.42878884800357, 53.107030242346305 ], [ 6.43049449126693, 53.104858720511437 ], [ 6.43076314512625, 53.103388762092457 ], [ 6.42885310711927, 53.102592530714453 ], [ 6.424516135538178, 53.099392867783095 ], [ 6.422517721984971, 53.09623341969376 ], [ 6.418854935252191, 53.094195880550473 ], [ 6.416484497820511, 53.091948239356263 ], [ 6.416365006135168, 53.08715130560234 ], [ 6.41047984829934, 53.074614798208394 ], [ 6.409563807698245, 53.074622709095507 ], [ 6.408485613438877, 53.075800954552335 ], [ 6.408077959923418, 53.074644276278541 ], [ 6.399556690929638, 53.073915191997315 ], [ 6.392970265473407, 53.072149569688158 ], [ 6.393035693722445, 53.076337752384077 ], [ 6.389035388208144, 53.076494276773111 ], [ 6.390759825253292, 53.080353873221263 ], [ 6.387146705439545, 53.084833521756444 ], [ 6.381603798441402, 53.084219596184262 ], [ 6.361215660165482, 53.084139295742773 ], [ 6.356209355025483, 53.083525386615584 ], [ 6.354872566723333, 53.083684791718198 ], [ 6.354951453599068, 53.085701957255935 ], [ 6.353444630457763, 53.085597201777055 ], [ 6.353702409556854, 53.086563076473936 ], [ 6.344628282666726, 53.087454243705032 ], [ 6.341170593163168, 53.086340665354335 ], [ 6.339701756767925, 53.085177502621761 ], [ 6.341310752589987, 53.082362376272478 ], [ 6.347115387275171, 53.081734396458678 ], [ 6.349427027252543, 53.082017708682677 ], [ 6.35250921995757, 53.081450129177355 ], [ 6.351626548578552, 53.079377053050003 ], [ 6.353429552614715, 53.079198388031791 ], [ 6.352449283089423, 53.07772955571884 ], [ 6.34985727734321, 53.077667403349729 ], [ 6.344526929492918, 53.076239166063786 ], [ 6.342817626832363, 53.076667824975758 ], [ 6.340008143533441, 53.076136669785861 ], [ 6.333566692833764, 53.07711150029467 ], [ 6.330780619789584, 53.079413852645771 ], [ 6.326501034570074, 53.080925236894686 ], [ 6.322237001035782, 53.079641446358899 ], [ 6.316830296085858, 53.080729845685426 ], [ 6.312944260365956, 53.083583842454665 ], [ 6.30717812722405, 53.083668674942579 ], [ 6.315157448505333, 53.09405278464002 ], [ 6.290565601165271, 53.099829050814776 ], [ 6.283050305351932, 53.1068631379907 ], [ 6.274138824602124, 53.111161165463884 ], [ 6.261684591161825, 53.114292694744968 ], [ 6.239363959059856, 53.113388825749134 ], [ 6.225961810546482, 53.114300140074398 ], [ 6.222606765128025, 53.114914146198998 ], [ 6.20560981368221, 53.115466454684913 ], [ 6.202381526670758, 53.117220591237256 ], [ 6.192941189980495, 53.123356596762342 ], [ 6.192412834508871, 53.123784999237628 ], [ 6.19612646533378, 53.121391906379962 ], [ 6.198971860854944, 53.123725751169417 ], [ 6.201214437244159, 53.126586404642957 ], [ 6.198961520924113, 53.128804418974354 ], [ 6.194802999035036, 53.130963425210155 ], [ 6.189986519667571, 53.132272650830984 ], [ 6.189008875344337, 53.131773740692331 ], [ 6.188176990438691, 53.132452059778537 ], [ 6.183422756633925, 53.131187318399313 ], [ 6.185716695339529, 53.129213440409536 ], [ 6.179069281845288, 53.133992024650198 ], [ 6.175677576274707, 53.135076376686833 ], [ 6.175621043291914, 53.144202199176405 ], [ 6.177337001500714, 53.166982764664027 ], [ 6.181223876468429, 53.170348264829819 ], [ 6.188034205290857, 53.182486716518632 ], [ 6.193097426731806, 53.189277732384205 ], [ 6.195276796562855, 53.191498501997643 ], [ 6.197755220113752, 53.192073920228538 ], [ 6.199432031730903, 53.193253582919766 ], [ 6.199621421570665, 53.198355319732336 ], [ 6.204114562489356, 53.199758474899483 ], [ 6.20957817462376, 53.199960977454467 ], [ 6.219242358907384, 53.206129811353833 ], [ 6.224839620263427, 53.212003823994309 ], [ 6.224750136963308, 53.214578573340958 ], [ 6.229988418687429, 53.217818449798294 ], [ 6.230173320378412, 53.222440431547085 ], [ 6.225339457465566, 53.225455381547533 ], [ 6.224632096752958, 53.230073794901479 ], [ 6.221680492060703, 53.231667697143166 ], [ 6.214583935996608, 53.233710697402458 ], [ 6.215542522979687, 53.236985154815649 ], [ 6.220239054202342, 53.237347760674616 ], [ 6.224972056678056, 53.238592839103106 ], [ 6.22461591919349, 53.239700941216967 ], [ 6.222823443907461, 53.239497672818857 ], [ 6.217978238112256, 53.241932130491428 ], [ 6.219453490102477, 53.242866750526126 ], [ 6.223218346556733, 53.243381017301665 ], [ 6.224170060780754, 53.244303638735694 ], [ 6.227743333038978, 53.245239672885937 ], [ 6.229707212970529, 53.244751899703317 ], [ 6.23109486567494, 53.245105362359617 ], [ 6.232075255667231, 53.247124663756146 ], [ 6.229601568468714, 53.24891319721084 ], [ 6.230318479261669, 53.25042641878553 ], [ 6.233665183512858, 53.250398998324407 ], [ 6.235100679369488, 53.2533548436773 ], [ 6.232625266128729, 53.254563916707589 ], [ 6.231749084922097, 53.255946627939615 ], [ 6.23217304889278, 53.256747412369478 ], [ 6.23494482529533, 53.256703899413004 ], [ 6.237584186728117, 53.257547158904451 ], [ 6.238763027658524, 53.259681033480099 ], [ 6.237973446654099, 53.261582736068569 ], [ 6.239415661036728, 53.263143235721984 ], [ 6.241623516935731, 53.263951683190776 ], [ 6.243484499403226, 53.265459824726889 ], [ 6.243625014747727, 53.266459527736508 ], [ 6.246863172423753, 53.268295830926746 ], [ 6.249977289708139, 53.267219997278076 ], [ 6.253474138436325, 53.267724628615568 ], [ 6.254943464165557, 53.26852454772267 ], [ 6.255763293835007, 53.270836489669257 ], [ 6.252964937210829, 53.273467863068241 ], [ 6.251408724147525, 53.277254968970738 ], [ 6.254266057383526, 53.288642838282044 ], [ 6.259903656385464, 53.291075709876914 ], [ 6.267456569136935, 53.290854853328831 ], [ 6.26926786236765, 53.290278463828386 ], [ 6.270754922561464, 53.292060139806388 ], [ 6.270286679905855, 53.293159730748449 ], [ 6.274374946432758, 53.29648870729568 ], [ 6.274488006610113, 53.299147386101211 ], [ 6.278307175445253, 53.302730935686363 ], [ 6.279478633872878, 53.303324380651553 ], [ 6.290250171491194, 53.305377683856257 ], [ 6.294016443954919, 53.308368577244288 ], [ 6.292779334993118, 53.309892156266322 ], [ 6.286763298904986, 53.312010364674762 ], [ 6.284027779511328, 53.311792166201855 ], [ 6.280503416685083, 53.312581484699457 ], [ 6.28381398459464, 53.327305569782354 ], [ 6.284005355262295, 53.326785172102028 ], [ 6.29262052407943, 53.322486972786699 ], [ 6.300153008238778, 53.321110958934597 ], [ 6.303438970015997, 53.321026769847691 ], [ 6.308754405922245, 53.32267622451883 ], [ 6.30970630901425, 53.326400056501839 ], [ 6.313234952936384, 53.328813474098865 ], [ 6.315948071449117, 53.325071390875337 ], [ 6.316312386510712, 53.31976338702458 ], [ 6.31934052722395, 53.317159228156925 ] ] ], [ [ [ 6.517567983736853, 53.200132595801485 ], [ 6.517799805321439, 53.200941387256684 ], [ 6.519156648974986, 53.201463336834586 ], [ 6.519551400229354, 53.200857768425671 ], [ 6.517567983736853, 53.200132595801485 ] ] ], [ [ [ 6.497379975080249, 53.215337796917055 ], [ 6.498235422564354, 53.215520389109663 ], [ 6.498736565151398, 53.214689261747722 ], [ 6.49715676417089, 53.214343940524969 ], [ 6.496656703131495, 53.213178371471777 ], [ 6.497193386452173, 53.212362312135255 ], [ 6.489242806386422, 53.212980243205223 ], [ 6.489385294780233, 53.214296280513047 ], [ 6.491857123224431, 53.214112478477631 ], [ 6.495791155239857, 53.214976773789665 ], [ 6.496594120587257, 53.215539021542966 ], [ 6.497379975080249, 53.215337796917055 ] ] ], [ [ [ 6.394111773629804, 53.300910123062977 ], [ 6.39385783487992, 53.300399402352369 ], [ 6.391930720181545, 53.299835844008825 ], [ 6.391659868810332, 53.300484980947537 ], [ 6.392356749638438, 53.300883759968116 ], [ 6.393516966091168, 53.301208688400713 ], [ 6.394111773629804, 53.300910123062977 ] ] ], [ [ [ 6.391074361810165, 53.304830066928155 ], [ 6.39115143993215, 53.304585445103967 ], [ 6.391032648932113, 53.304497240828802 ], [ 6.390884457690097, 53.304909767674786 ], [ 6.391074361810165, 53.304830066928155 ] ] ] ] } }
]
}
