{
"type": "FeatureCollection",
"name": "province_vvl",
"crs": { "type": "name", "properties": { "name": "urn:ogc:def:crs:OGC:1.3:CRS84" } },
"features": [
{ "type": "Feature", "properties": { "gid": "PV22", "label": "Drenthe", "code": "22", "ligt_in_land_code": "6030", "ligt_in_land_naam": "Nederland" }, "geometry": { "type": "MultiPolygon", "coordinates": [ [ [ [ 7.014799274866755, 52.87298657872816 ], [ 7.045571012075538, 52.915908824323076 ], [ 7.026113188950022, 52.919160518188733 ], [ 7.016196627093416, 52.924425682574935 ], [ 6.936610399768174, 52.992759752596356 ], [ 6.751811750641572, 53.110358794498403 ], [ 6.751356158785708, 53.111434846874552 ], [ 6.749048450552372, 53.11158121034515 ], [ 6.747794101084636, 53.113488195208035 ], [ 6.743773651128996, 53.115738650367859 ], [ 6.743253770102585, 53.116568299741751 ], [ 6.74239657192891, 53.116370689803986 ], [ 6.737450956338635, 53.119461728969213 ], [ 6.709868426090726, 53.120254311585597 ], [ 6.695366928276136, 53.121176015112837 ], [ 6.670602480811915, 53.116516307928784 ], [ 6.670889884071466, 53.116243829710534 ], [ 6.634831634371609, 53.106202126492754 ], [ 6.635977295866826, 53.107034030089544 ], [ 6.635670977139172, 53.107848076713999 ], [ 6.637086358845337, 53.108300889052074 ], [ 6.636855778258304, 53.110264809902517 ], [ 6.635110771918188, 53.111460930958359 ], [ 6.636597243802689, 53.11284287284797 ], [ 6.633636306676256, 53.11434746578 ], [ 6.62983029421084, 53.114683340986701 ], [ 6.628055952043926, 53.115647018524378 ], [ 6.628402040308837, 53.116526455520237 ], [ 6.627646162311905, 53.117055608242154 ], [ 6.630830599474678, 53.119211129528502 ], [ 6.629388341894583, 53.119838209792896 ], [ 6.628648448049568, 53.119493050467845 ], [ 6.627447292746032, 53.121181568903182 ], [ 6.627642158106151, 53.122710508580575 ], [ 6.621903679233567, 53.126194800057007 ], [ 6.621275125886856, 53.128408786713983 ], [ 6.618639791926466, 53.130379686320929 ], [ 6.619019533566965, 53.131552494912945 ], [ 6.617151192888671, 53.132115052614893 ], [ 6.616530759832093, 53.132981655045199 ], [ 6.613641275230735, 53.132694287265558 ], [ 6.614400443105876, 53.135556957403139 ], [ 6.610780652089239, 53.137905685586581 ], [ 6.606521015806599, 53.139313859050439 ], [ 6.599984475258636, 53.14472352637015 ], [ 6.59729951985562, 53.144014301776487 ], [ 6.595892007011247, 53.144335238383277 ], [ 6.595681487738232, 53.145480346039513 ], [ 6.590542811764863, 53.14494687988396 ], [ 6.587964215720356, 53.145436085981352 ], [ 6.587743301983671, 53.147802789324366 ], [ 6.586015482573221, 53.152190492665198 ], [ 6.584521341846356, 53.153509366660529 ], [ 6.584514378069546, 53.154226001087288 ], [ 6.587089330693178, 53.156225957933366 ], [ 6.584818141190159, 53.157637307720826 ], [ 6.583572500088342, 53.157867464893272 ], [ 6.583251855691084, 53.159486489336913 ], [ 6.581697842239878, 53.161252535114158 ], [ 6.582020065577626, 53.16208547104511 ], [ 6.580731218432653, 53.162203866553646 ], [ 6.581514700327345, 53.163584444109411 ], [ 6.563687461755372, 53.157638374513873 ], [ 6.559496800923149, 53.16910575582142 ], [ 6.548188303995554, 53.181097637027818 ], [ 6.543126845027521, 53.178809063795022 ], [ 6.54174391833292, 53.1786103064968 ], [ 6.539656156317307, 53.181221574514602 ], [ 6.534281859599885, 53.184085135273541 ], [ 6.529492738327179, 53.195186179662436 ], [ 6.530491980940598, 53.195559273289348 ], [ 6.526931398039013, 53.195808482872778 ], [ 6.515715198228875, 53.198308149669629 ], [ 6.513385989039731, 53.19693701780399 ], [ 6.506859257196028, 53.200144031045959 ], [ 6.496618593691371, 53.198161816798915 ], [ 6.494227144169635, 53.198217547662694 ], [ 6.493164148563451, 53.198778306419008 ], [ 6.492592552247863, 53.201386100527756 ], [ 6.491671442366984, 53.201185032697602 ], [ 6.488924238005463, 53.203131564219092 ], [ 6.485998517651419, 53.20332110532047 ], [ 6.485716829354194, 53.203821257815669 ], [ 6.482255235034392, 53.203666701482305 ], [ 6.46522641196247, 53.200457513052051 ], [ 6.44771207469905, 53.196440585061318 ], [ 6.445661941956331, 53.191015487182661 ], [ 6.442866783736709, 53.187740423089224 ], [ 6.438017906438779, 53.185651536069152 ], [ 6.436726636490277, 53.185406868703808 ], [ 6.435770552559512, 53.185914861943928 ], [ 6.434437162596278, 53.185748826954317 ], [ 6.42974235849024, 53.183158659639908 ], [ 6.424049606046076, 53.181511923142274 ], [ 6.420550437526711, 53.181107433343534 ], [ 6.418227106173352, 53.180055294380672 ], [ 6.415464602984725, 53.179833617173976 ], [ 6.406984949560107, 53.177654408569779 ], [ 6.405612882245938, 53.176505265222957 ], [ 6.404439188848791, 53.174112759376925 ], [ 6.404185120864787, 53.168681252949966 ], [ 6.402921511217619, 53.16720551134209 ], [ 6.395165335250713, 53.163576636332117 ], [ 6.392901116905217, 53.16180768965458 ], [ 6.391128129136705, 53.159418754322274 ], [ 6.389986901969069, 53.159667280092435 ], [ 6.389839285476016, 53.158479659795518 ], [ 6.388502176644051, 53.158095950316593 ], [ 6.381414284159534, 53.153505504201668 ], [ 6.381546329972633, 53.149592673777228 ], [ 6.382612271281847, 53.14957048973384 ], [ 6.36585500204282, 53.12222751982587 ], [ 6.363558460930202, 53.107551565479419 ], [ 6.35662047728214, 53.107084517866731 ], [ 6.344433412370765, 53.08713492001722 ], [ 6.315157448505333, 53.09405278464002 ], [ 6.305273761233336, 53.081189548535797 ], [ 6.36781052018461, 53.067359995389872 ], [ 6.364910434878293, 53.051900804398983 ], [ 6.362521372211408, 53.033969029095019 ], [ 6.427614708971869, 52.97181540007346 ], [ 6.39343577029688, 52.932843447366764 ], [ 6.334460315655895, 52.90656989965764 ], [ 6.333280544507828, 52.906356065205784 ], [ 6.30298525513556, 52.924972366748136 ], [ 6.256593063409235, 52.927641232935997 ], [ 6.247552946602468, 52.923691686162677 ], [ 6.245118167813211, 52.920877552864248 ], [ 6.24482959280563, 52.91958699934942 ], [ 6.232291053300616, 52.913438179885944 ], [ 6.206900007036132, 52.890743861189982 ], [ 6.165993078047443, 52.875026601245075 ], [ 6.119819889813953, 52.854214943213982 ], [ 6.128694393238009, 52.847807370316872 ], [ 6.130311516670942, 52.843930382998337 ], [ 6.136824764907163, 52.838797979274879 ], [ 6.151962155268833, 52.828829686180271 ], [ 6.1491989569091, 52.828402418387839 ], [ 6.157643904295649, 52.825035548879619 ], [ 6.171681872913572, 52.815060234479979 ], [ 6.172418798572021, 52.815639132290173 ], [ 6.177229782604326, 52.813851091568431 ], [ 6.201730742250663, 52.793696094817086 ], [ 6.193807864719076, 52.78640280634567 ], [ 6.180253203224799, 52.777192382636102 ], [ 6.173099011929136, 52.773316564594538 ], [ 6.168525388810404, 52.767093492618336 ], [ 6.163939986186742, 52.766449346108686 ], [ 6.156702727270229, 52.762698540055624 ], [ 6.138655230643757, 52.759093932435285 ], [ 6.132468094210321, 52.75866799431914 ], [ 6.126616680161018, 52.756935129754524 ], [ 6.121665567652272, 52.754284328878128 ], [ 6.120557385175658, 52.752467983116112 ], [ 6.120332106152508, 52.750149044794846 ], [ 6.129147870058659, 52.738028283960517 ], [ 6.140180103095063, 52.719949071643782 ], [ 6.148497571442983, 52.707631348995783 ], [ 6.151422778458569, 52.702882722176454 ], [ 6.152354251459191, 52.699310991715521 ], [ 6.156606681442322, 52.691957347156233 ], [ 6.158802689982947, 52.692480210676479 ], [ 6.1621848549678, 52.691278796325733 ], [ 6.164924734811394, 52.68888951156147 ], [ 6.166390811096258, 52.688936671178475 ], [ 6.168195568880393, 52.688135876627555 ], [ 6.169650899088724, 52.686120770486497 ], [ 6.162996113548541, 52.68006181924256 ], [ 6.163884972788615, 52.679505769960116 ], [ 6.183146848169641, 52.675063274466652 ], [ 6.181932923846922, 52.676868203159216 ], [ 6.184208083337596, 52.677207832519393 ], [ 6.180548210180794, 52.681587874454074 ], [ 6.18587068916534, 52.68250351349262 ], [ 6.187862185020205, 52.679613748261012 ], [ 6.191444470963058, 52.679319849105198 ], [ 6.192054771478221, 52.676426471952858 ], [ 6.194229772859418, 52.676629584739622 ], [ 6.195036117700349, 52.679572909180457 ], [ 6.201681511001955, 52.684620283372951 ], [ 6.203796672817098, 52.684696273276693 ], [ 6.204984856643922, 52.684161047349249 ], [ 6.206352719260698, 52.6848452137706 ], [ 6.208602559063731, 52.684771899632082 ], [ 6.210130185937441, 52.685225221086377 ], [ 6.212535762834918, 52.684633632464227 ], [ 6.21208650845353, 52.685286821309937 ], [ 6.213715363287055, 52.685636354991765 ], [ 6.21409568149647, 52.6863155898711 ], [ 6.215020830099157, 52.686481936017103 ], [ 6.215801329918211, 52.686090234329427 ], [ 6.21664958335496, 52.686405843977873 ], [ 6.217453333345881, 52.685499434888506 ], [ 6.218367060186935, 52.68594868441528 ], [ 6.219806801429341, 52.685704467255078 ], [ 6.218707904925049, 52.684327213874866 ], [ 6.221165132530888, 52.683535866089301 ], [ 6.221090882275957, 52.682778878773966 ], [ 6.221652118053187, 52.683060704255801 ], [ 6.224905432003985, 52.682431151605833 ], [ 6.225048865176306, 52.681984637910261 ], [ 6.225656641676691, 52.682214628175181 ], [ 6.227143773826769, 52.681241552446011 ], [ 6.227721598641532, 52.681727775703173 ], [ 6.228278897353678, 52.681276471844328 ], [ 6.228724707554015, 52.681662363204808 ], [ 6.230717913065077, 52.681176253626376 ], [ 6.232740872145897, 52.681454571092068 ], [ 6.233238211512578, 52.680469676416571 ], [ 6.234064561198319, 52.680221917915638 ], [ 6.232925214914884, 52.679870503725837 ], [ 6.232843132126225, 52.67910935371723 ], [ 6.236777971329756, 52.678045343239084 ], [ 6.237074549476951, 52.67754764204566 ], [ 6.240503845977064, 52.677728662828315 ], [ 6.241528201172953, 52.678342435530425 ], [ 6.242422800417193, 52.678170907313707 ], [ 6.243760701259306, 52.678718280722883 ], [ 6.245310651138596, 52.677191896373493 ], [ 6.245906161832226, 52.677348283400327 ], [ 6.246177911180324, 52.676680516957852 ], [ 6.246926948260342, 52.676706299496267 ], [ 6.248365116115939, 52.675616795185825 ], [ 6.248957012550226, 52.673861609317235 ], [ 6.247286051923855, 52.672811162226346 ], [ 6.24822691904211, 52.672552454438069 ], [ 6.24822706010431, 52.671956049297407 ], [ 6.249238194917203, 52.671371264699474 ], [ 6.250862132022099, 52.671729717286802 ], [ 6.250298365769551, 52.671028505790858 ], [ 6.252001453259634, 52.669881372345934 ], [ 6.254173276602526, 52.670221036427378 ], [ 6.2546221075564, 52.669617916042483 ], [ 6.25501137026186, 52.670093970247194 ], [ 6.255911664609837, 52.66960163547072 ], [ 6.257419645720128, 52.670407574304562 ], [ 6.258176249145109, 52.66981836486876 ], [ 6.259426488605964, 52.669864059802599 ], [ 6.260535137853612, 52.670477824985682 ], [ 6.262312483697738, 52.669680551323019 ], [ 6.265400949166458, 52.669179515461394 ], [ 6.265794244445842, 52.666864988735377 ], [ 6.270067118640716, 52.664794115489286 ], [ 6.27320021860742, 52.664836768669865 ], [ 6.274849848315568, 52.667185179082651 ], [ 6.276226034167315, 52.66727124288834 ], [ 6.276815955159299, 52.668746091969567 ], [ 6.277447573039633, 52.668939960266762 ], [ 6.277905351934557, 52.668539358943484 ], [ 6.279162696749649, 52.669053020974729 ], [ 6.282704902858267, 52.668219297085685 ], [ 6.283671952156438, 52.667386270014489 ], [ 6.285464782696358, 52.66702219283713 ], [ 6.285052513019417, 52.665394352940901 ], [ 6.287226183041432, 52.664180645275486 ], [ 6.287486929725576, 52.663452600924948 ], [ 6.288357198553673, 52.663878260195816 ], [ 6.288972941896339, 52.66324960987766 ], [ 6.291946865009503, 52.662437314664508 ], [ 6.295366871490182, 52.662286035843749 ], [ 6.295168985152543, 52.663542333500324 ], [ 6.297562993626444, 52.666369434185988 ], [ 6.299618223467476, 52.665809938651421 ], [ 6.299738469507862, 52.666511323918805 ], [ 6.302245917780105, 52.666404120147348 ], [ 6.3018647345159, 52.666972958312456 ], [ 6.302684652735794, 52.66734955058179 ], [ 6.305700052513346, 52.66623151305695 ], [ 6.30975901307753, 52.666751488936882 ], [ 6.311511892447091, 52.667305713761749 ], [ 6.312080466000443, 52.668055459193326 ], [ 6.314103204466295, 52.668058168843629 ], [ 6.31390458970642, 52.668714518015634 ], [ 6.314879576743496, 52.668771562385977 ], [ 6.314957066778234, 52.6694245725051 ], [ 6.316772152310383, 52.66946640680581 ], [ 6.316789539003105, 52.669908823570402 ], [ 6.318960577669081, 52.669721239855448 ], [ 6.31936201236887, 52.670397942940561 ], [ 6.3226504039054, 52.6705101668623 ], [ 6.325021759843486, 52.669951825150982 ], [ 6.327036903489365, 52.669158972854234 ], [ 6.326838689927603, 52.668607727407782 ], [ 6.328751695645259, 52.666704967797941 ], [ 6.327955034894654, 52.666065755150228 ], [ 6.329290121716752, 52.665398458295165 ], [ 6.328516813302925, 52.665378105782878 ], [ 6.327620350646519, 52.663717666444185 ], [ 6.32587592879936, 52.662864731867067 ], [ 6.325754530151292, 52.661283205315485 ], [ 6.327224595200493, 52.660446807063785 ], [ 6.325875828496025, 52.659822864146619 ], [ 6.326289922810723, 52.658986082676286 ], [ 6.328686075216283, 52.658442026525776 ], [ 6.330109560888989, 52.657015551490254 ], [ 6.332637917585085, 52.656750731954823 ], [ 6.332393781885701, 52.655673477452915 ], [ 6.334002897046368, 52.654698862884267 ], [ 6.335678521902305, 52.655184826402767 ], [ 6.336532402925769, 52.654363730707637 ], [ 6.337369844014608, 52.654566818395978 ], [ 6.338244876570352, 52.654139330158429 ], [ 6.339532870832597, 52.654727652352136 ], [ 6.341395247063985, 52.654121176221203 ], [ 6.343596313948647, 52.65115780061452 ], [ 6.34738078276136, 52.649914609716184 ], [ 6.34696782976409, 52.649151943676195 ], [ 6.348648116458436, 52.649148556803368 ], [ 6.350046396437291, 52.648419222100159 ], [ 6.351726150441174, 52.648304556716653 ], [ 6.352013241173546, 52.648639359594256 ], [ 6.35329857964676, 52.647813666248361 ], [ 6.353337587172187, 52.645963319668475 ], [ 6.358404239754739, 52.64572840060238 ], [ 6.358599568609341, 52.645249554701728 ], [ 6.35975058780974, 52.645561987867033 ], [ 6.362565089373456, 52.644242160271382 ], [ 6.363204567878455, 52.64338599254787 ], [ 6.364441035587492, 52.643174564608742 ], [ 6.36389246321898, 52.642262761184874 ], [ 6.364610963525581, 52.64155624441117 ], [ 6.363154112100577, 52.64093725059783 ], [ 6.364292209450805, 52.640410285783084 ], [ 6.364241498366211, 52.639613286546464 ], [ 6.363019081677222, 52.639058476528355 ], [ 6.364233454786302, 52.637656966463595 ], [ 6.366284271084378, 52.637566121106602 ], [ 6.368139354984769, 52.635582392482867 ], [ 6.369522315662733, 52.635483960232293 ], [ 6.369778461242032, 52.634970096613941 ], [ 6.368780381203534, 52.634463084228237 ], [ 6.368602558199542, 52.633525822732999 ], [ 6.369574828628171, 52.632710116617098 ], [ 6.369180255863362, 52.632067464013431 ], [ 6.370694998192279, 52.63157449489907 ], [ 6.371485124385831, 52.631792356242372 ], [ 6.372276194031977, 52.62949897002477 ], [ 6.372937037539377, 52.629625482419414 ], [ 6.373037967035299, 52.629179226851079 ], [ 6.374137225875314, 52.629009789633663 ], [ 6.374889632256354, 52.627945450186438 ], [ 6.374278433463317, 52.627628546574144 ], [ 6.375205894712042, 52.627408128161534 ], [ 6.374090551861383, 52.626437087372715 ], [ 6.37515291550628, 52.626058381702038 ], [ 6.375274852760977, 52.625294073872517 ], [ 6.37459272673772, 52.624363312053788 ], [ 6.373252524618303, 52.623837456391129 ], [ 6.373622312803425, 52.622987777363079 ], [ 6.375377664312941, 52.621523788475656 ], [ 6.376309808438289, 52.621484818158464 ], [ 6.376238188386598, 52.620937688489008 ], [ 6.377178005769614, 52.620360717945665 ], [ 6.376271508226402, 52.619400269530715 ], [ 6.376915956823752, 52.618332498151361 ], [ 6.376057763719635, 52.617809722318285 ], [ 6.376510377655398, 52.616923931654441 ], [ 6.379257694592757, 52.615984280357985 ], [ 6.379025916978077, 52.615586246110084 ], [ 6.380319501841368, 52.614974919182977 ], [ 6.382796090784216, 52.615661134527812 ], [ 6.383520584627379, 52.614630762069801 ], [ 6.383120514662225, 52.613021906083979 ], [ 6.383836825493356, 52.612197740936281 ], [ 6.389041744819181, 52.614340648232854 ], [ 6.391522214618127, 52.61451941138813 ], [ 6.391670884610312, 52.615142205777609 ], [ 6.393630541592253, 52.616118005856904 ], [ 6.393845579659282, 52.617233470619539 ], [ 6.396035213390098, 52.617787962008535 ], [ 6.397481486593805, 52.617588009545592 ], [ 6.397568421933866, 52.61702401158788 ], [ 6.399186530571507, 52.617170166795816 ], [ 6.401123500459883, 52.616259600923136 ], [ 6.403766747384636, 52.616271184535051 ], [ 6.404022260333591, 52.61674459118894 ], [ 6.405860170967886, 52.617091851345855 ], [ 6.406858313615199, 52.617780995466404 ], [ 6.405893772310582, 52.618708819186431 ], [ 6.406250909425019, 52.620694428464105 ], [ 6.409480376639922, 52.621365461606885 ], [ 6.409502226821532, 52.62173325692099 ], [ 6.41088981764868, 52.621314041300153 ], [ 6.412858770989622, 52.619574432546479 ], [ 6.416290238773888, 52.61864517147098 ], [ 6.41733160832572, 52.619193385187728 ], [ 6.418808495764555, 52.619023196069925 ], [ 6.419007228970008, 52.620930190964366 ], [ 6.41997934386695, 52.621273613906595 ], [ 6.420236449705854, 52.622317638186395 ], [ 6.424232889236292, 52.623831767141589 ], [ 6.424359264344606, 52.62429344134312 ], [ 6.426794303740285, 52.624526873390067 ], [ 6.426032371153044, 52.625784806318386 ], [ 6.426589685291086, 52.626831314828408 ], [ 6.428030026550727, 52.627154757683556 ], [ 6.428176485008951, 52.628188499183295 ], [ 6.430546955581645, 52.627831748895183 ], [ 6.431242896744655, 52.628377931121342 ], [ 6.432992225602999, 52.627765045330307 ], [ 6.433803064378496, 52.626409209750257 ], [ 6.432488439586107, 52.625640018595185 ], [ 6.435480985869858, 52.621991602250446 ], [ 6.435613046835504, 52.620870925306292 ], [ 6.434461420693513, 52.620417224795055 ], [ 6.434934370169231, 52.619285543995552 ], [ 6.436057958930032, 52.619065766740249 ], [ 6.43647339321013, 52.618069672562328 ], [ 6.440784209841184, 52.616077586940534 ], [ 6.441586367522596, 52.616139900952248 ], [ 6.441879663592926, 52.615637264119847 ], [ 6.443032863584333, 52.616195496389508 ], [ 6.448094211103736, 52.614792267791792 ], [ 6.450558272501304, 52.615216391105349 ], [ 6.453365990901469, 52.61394570244088 ], [ 6.453962542752592, 52.615036944972864 ], [ 6.454998866682565, 52.614874213852744 ], [ 6.455138114451297, 52.615440360080768 ], [ 6.457732766653607, 52.61604392329636 ], [ 6.459788257089673, 52.615759777205703 ], [ 6.460832393013813, 52.616301853828794 ], [ 6.460671957649144, 52.617512860002016 ], [ 6.462065450876302, 52.619154909853378 ], [ 6.462428721632411, 52.620955737539681 ], [ 6.463986800634601, 52.621705947050415 ], [ 6.463210154838903, 52.622151388158485 ], [ 6.463284906779668, 52.623513633574078 ], [ 6.470073150582745, 52.625007286745486 ], [ 6.472368731049709, 52.6245792610218 ], [ 6.473323593912837, 52.622932388963697 ], [ 6.473119846801079, 52.622249652301569 ], [ 6.47249315529261, 52.622236378075513 ], [ 6.473102819438347, 52.621219682685769 ], [ 6.474334040215616, 52.620732844191942 ], [ 6.475920962613035, 52.621276913238063 ], [ 6.478016185958705, 52.618631302333931 ], [ 6.479309488048458, 52.619005285212218 ], [ 6.480581221693927, 52.618154766732331 ], [ 6.483895506602964, 52.619076566970342 ], [ 6.488127585975477, 52.618828730256851 ], [ 6.491850404904489, 52.619144250588917 ], [ 6.494900563418131, 52.618032101910877 ], [ 6.499738320145276, 52.618003796361769 ], [ 6.504512175836463, 52.617058147529718 ], [ 6.512026842164039, 52.613649665850154 ], [ 6.518604190693384, 52.614087840754493 ], [ 6.513861463898785, 52.646293767718809 ], [ 6.546457612942683, 52.663535359584536 ], [ 6.552821389712463, 52.665594962035094 ], [ 6.614526801508503, 52.674049271295011 ], [ 6.682509173088223, 52.654178509583431 ], [ 6.708546524846114, 52.648715349982183 ], [ 6.70556295259908, 52.645821255852667 ], [ 6.705677326878673, 52.643478245248403 ], [ 6.702144505789257, 52.64249927731413 ], [ 6.701152739878852, 52.641735932722391 ], [ 6.702170324789972, 52.641083649670023 ], [ 6.703648979533373, 52.641318236656488 ], [ 6.705519040233961, 52.640968679817888 ], [ 6.706525507477124, 52.639542141108009 ], [ 6.705045481034035, 52.637245964603103 ], [ 6.703330198719878, 52.635840101255241 ], [ 6.703228357104618, 52.634383658531384 ], [ 6.704640523708055, 52.633601750259771 ], [ 6.704252217643398, 52.63250290124072 ], [ 6.702766423127559, 52.630577311296989 ], [ 6.700910861430493, 52.629400796509927 ], [ 6.700791678829814, 52.628409630864972 ], [ 6.702004531148232, 52.627267051404864 ], [ 6.704846145266493, 52.627316674546023 ], [ 6.707170971785765, 52.626760429826497 ], [ 6.708001543591274, 52.628014299207685 ], [ 6.710053111744886, 52.627820281038389 ], [ 6.715015666272602, 52.630265514504359 ], [ 6.718279101832937, 52.631341013893866 ], [ 6.720786344524436, 52.631432175497594 ], [ 6.726398097357315, 52.633220350361114 ], [ 6.730692406547008, 52.637524918938574 ], [ 6.736958630883073, 52.641202954878644 ], [ 6.741984042736122, 52.645332887387887 ], [ 6.750490168465301, 52.646886668255078 ], [ 6.752775482152702, 52.648147221576608 ], [ 6.75363053937211, 52.647737009627761 ], [ 6.751908011993157, 52.647030485582391 ], [ 6.753451558114372, 52.645806266427527 ], [ 6.758848355397931, 52.648825444602672 ], [ 6.767879219689387, 52.646851074059505 ], [ 6.772089227267927, 52.650051130551233 ], [ 6.774175323015258, 52.650199272880727 ], [ 6.777430906111078, 52.651660828077581 ], [ 6.783648281047879, 52.652517140535188 ], [ 6.787445721294767, 52.652379675759413 ], [ 6.789745649708225, 52.65279689282881 ], [ 6.794289951224312, 52.650656965712543 ], [ 6.803327039909668, 52.651852066465459 ], [ 6.805818804585081, 52.651177828558673 ], [ 6.807915883620012, 52.649122801628586 ], [ 6.81609101653301, 52.64862625255369 ], [ 6.818860854332782, 52.647679591899625 ], [ 6.822274245726564, 52.647749048284147 ], [ 6.827501546258886, 52.649038762480266 ], [ 6.83178412358233, 52.651517349223802 ], [ 6.83746013920715, 52.651943336201818 ], [ 6.850988928884366, 52.648603886177078 ], [ 6.853792688753781, 52.649569993546663 ], [ 6.864596615321644, 52.649816910879814 ], [ 6.872810702545424, 52.653270552739002 ], [ 6.879950278300316, 52.650548316810003 ], [ 6.891358700072693, 52.651516092690819 ], [ 6.896812710701735, 52.651417120589329 ], [ 6.898693067245376, 52.650954880085443 ], [ 6.902938061153984, 52.648593837975469 ], [ 6.914463774802311, 52.646481614910172 ], [ 6.915692008983818, 52.641814943599044 ], [ 6.918972102199463, 52.639911657107909 ], [ 6.928521878620987, 52.640184850053409 ], [ 6.934645074356317, 52.638323495138643 ], [ 6.938854242336546, 52.637871681801577 ], [ 6.945427157220318, 52.639342308891756 ], [ 6.953780940947289, 52.639026558093498 ], [ 6.959311199008253, 52.641745004915421 ], [ 6.968000550127083, 52.641739226477704 ], [ 6.970247271495594, 52.642637298216037 ], [ 6.974809369955651, 52.646053122546654 ], [ 6.975984696361597, 52.646254670525629 ], [ 6.981924583325078, 52.645012723268223 ], [ 6.984270793166994, 52.643636801380453 ], [ 6.992459051167812, 52.641332377908739 ], [ 6.999232760384029, 52.642152765710684 ], [ 7.001877323680286, 52.641918937302691 ], [ 7.004490662586311, 52.6408769497354 ], [ 7.006597479085346, 52.638521918416551 ], [ 7.012491632419346, 52.636776581964071 ], [ 7.028762285140374, 52.634640783627873 ], [ 7.035467010525816, 52.634854489834012 ], [ 7.03860580686074, 52.632870883894938 ], [ 7.041732810282883, 52.632710083742957 ], [ 7.055728582486239, 52.643419764642026 ], [ 7.055640554879536, 52.644359600486979 ], [ 7.054755244770911, 52.644422721381346 ], [ 7.064882654023749, 52.729367332131702 ], [ 7.071551185505725, 52.810421153902773 ], [ 7.079983371866971, 52.821485986284735 ], [ 7.079512599100818, 52.821616890120275 ], [ 7.08008949423043, 52.82233414757399 ], [ 7.080534461585548, 52.822211068473933 ], [ 7.092739665529219, 52.838196135693096 ], [ 7.072147894894451, 52.838405095051286 ], [ 7.071588596036992, 52.83930217330915 ], [ 7.072192957146645, 52.845210934661722 ], [ 7.07627251234685, 52.848686204035317 ], [ 7.076260272476735, 52.850030654596814 ], [ 7.0695574050698, 52.847747650390751 ], [ 7.065917304685275, 52.85164196687829 ], [ 7.064270145410275, 52.851043245578566 ], [ 7.063734086745942, 52.851811727656781 ], [ 7.062747303329504, 52.851447550803776 ], [ 7.052300941266035, 52.861495635325049 ], [ 7.051461353512415, 52.861182070534923 ], [ 7.046433017999825, 52.865855601788454 ], [ 7.043486223700532, 52.865218578090882 ], [ 7.040241902154873, 52.872903242867082 ], [ 7.014799274866755, 52.87298657872816 ] ] ] ] } },
{ "type": "Feature", "properties": { "gid": "PV20", "label": "Groningen", "code": "20", "ligt_in_land_code": "6030", "ligt_in_land_naam": "Nederland" }, "geometry": { "type": "MultiPolygon", "coordinates": [ [ [ [ 6.915925347677415, 53.457358312512994 ], [ 6.907593275685203, 53.461524536814125 ], [ 6.890929153071913, 53.46513521654682 ], [ 6.874265005119084, 53.464579660915788 ], [ 6.857600839248367, 53.468745885559791 ], [ 6.82010659711022, 53.493742897480374 ], [ 6.790944377663667, 53.506519135490542 ], [ 6.749283974767801, 53.525683537522937 ], [ 6.665963349804248, 53.561234952724504 ], [ 6.646521948429709, 53.570956010731273 ], [ 6.637131608867204, 53.576423270973947 ], [ 6.612607863874834, 53.564308182448066 ], [ 6.428587646675006, 53.566036264003266 ], [ 6.352528041688638, 53.539713416137715 ], [ 6.352123075752465, 53.521746412777084 ], [ 6.367249131542291, 53.523870736465398 ], [ 6.382272309533027, 53.521501428382422 ], [ 6.393252469304239, 53.521722219489504 ], [ 6.40444900782573, 53.520885609906507 ], [ 6.411133101283468, 53.517486916982961 ], [ 6.416009664875152, 53.512989231267298 ], [ 6.418680899659895, 53.505645523319188 ], [ 6.417751361601216, 53.500295414261288 ], [ 6.41501524837348, 53.497507116567611 ], [ 6.40899105643392, 53.494852769638072 ], [ 6.402209843805053, 53.494008211161727 ], [ 6.38392263247235, 53.495428786569789 ], [ 6.381646641120978, 53.494550888456018 ], [ 6.366632862903885, 53.496920120854689 ], [ 6.351566881607618, 53.497041582153521 ], [ 6.350426112729946, 53.446268480754739 ], [ 6.194020201129556, 53.413288807842875 ], [ 6.167944637748909, 53.390759091945853 ], [ 6.167725895227498, 53.384769591268125 ], [ 6.170523814521837, 53.374782176064095 ], [ 6.174926628470441, 53.368357404947609 ], [ 6.178588406831119, 53.364827779028573 ], [ 6.180150208396422, 53.364066936285781 ], [ 6.189372851421281, 53.361744224577961 ], [ 6.215037042527672, 53.358397532912562 ], [ 6.218891990938326, 53.357406699100281 ], [ 6.224972431201482, 53.354307164236381 ], [ 6.22647814462222, 53.352278868613453 ], [ 6.227870134359214, 53.348417391704359 ], [ 6.230480318897308, 53.344745756857129 ], [ 6.233595452921939, 53.343099723259549 ], [ 6.236569315976494, 53.342737569463672 ], [ 6.239298916026043, 53.343039132505886 ], [ 6.247577219153075, 53.347472355969181 ], [ 6.251438379307355, 53.348432364792473 ], [ 6.254046688343488, 53.348593392570173 ], [ 6.264478308713742, 53.346259117471888 ], [ 6.273680379868307, 53.34527150128833 ], [ 6.280015975671491, 53.342648352028483 ], [ 6.286980744339838, 53.341381753224049 ], [ 6.280503416685113, 53.312581484699457 ], [ 6.284027779511328, 53.311792166201855 ], [ 6.286692672646122, 53.312023167849269 ], [ 6.290411574101762, 53.311130387306036 ], [ 6.292521176335556, 53.310258395029472 ], [ 6.294361128314181, 53.308172662123944 ], [ 6.289650575537877, 53.305073093006648 ], [ 6.281467774388462, 53.303907172255037 ], [ 6.278427886222011, 53.302829656677829 ], [ 6.274547723374651, 53.299243730003511 ], [ 6.274410190134268, 53.296503884625501 ], [ 6.271029142638399, 53.294194971073928 ], [ 6.270685340646637, 53.291562479007879 ], [ 6.268716772433241, 53.289773355538784 ], [ 6.267456569136921, 53.290854853328831 ], [ 6.265629139637338, 53.291217120856807 ], [ 6.259903656385448, 53.291075709876914 ], [ 6.257258826320364, 53.29033870405307 ], [ 6.253227613813102, 53.287927930973424 ], [ 6.253374274255822, 53.286055231966422 ], [ 6.251995452237535, 53.28205626864834 ], [ 6.252491190266532, 53.279441008764366 ], [ 6.251408724147554, 53.27725496897073 ], [ 6.252964937210801, 53.273467863068241 ], [ 6.25570098242859, 53.270985467314254 ], [ 6.255529482220891, 53.268982630199247 ], [ 6.253951186864378, 53.267894613312812 ], [ 6.251984359316919, 53.26740506431215 ], [ 6.249480194980845, 53.267268317208575 ], [ 6.24761326416199, 53.268404129910884 ], [ 6.245215391904221, 53.267628285784902 ], [ 6.243557861248334, 53.266398723189226 ], [ 6.243067605031291, 53.265000336572292 ], [ 6.238843567405259, 53.26280664105348 ], [ 6.23758880318603, 53.260870366577578 ], [ 6.238911409462335, 53.259393601692942 ], [ 6.237731725776726, 53.257665715711347 ], [ 6.235619856290578, 53.256817025870653 ], [ 6.232104690255388, 53.256695398030615 ], [ 6.231752763811047, 53.255568584749064 ], [ 6.232325142021507, 53.254847287345974 ], [ 6.234710780843555, 53.253964053231257 ], [ 6.235100679369518, 53.253354843677293 ], [ 6.233704720506308, 53.250799810647145 ], [ 6.231625041423862, 53.250170842983351 ], [ 6.230052183504998, 53.250408070435185 ], [ 6.229480780462065, 53.249825572448025 ], [ 6.230082457660589, 53.248082671198105 ], [ 6.231947740742106, 53.247198018850462 ], [ 6.231043483539477, 53.245067084216949 ], [ 6.229587788856983, 53.244758039497739 ], [ 6.227743333038978, 53.245239672885987 ], [ 6.224503661671082, 53.24436812775582 ], [ 6.223215236284816, 53.243301586604559 ], [ 6.219687709471908, 53.242956692602718 ], [ 6.217978238112256, 53.241932130491428 ], [ 6.222823443907462, 53.239497672818878 ], [ 6.224615919193505, 53.239700941217002 ], [ 6.224972056678085, 53.238592839103106 ], [ 6.220239054202312, 53.237347760674616 ], [ 6.215542522979717, 53.236985154815649 ], [ 6.214882425043031, 53.23521361749107 ], [ 6.216753396797771, 53.234341647413736 ], [ 6.214302066779409, 53.234066927734553 ], [ 6.215085388065757, 53.23357345718486 ], [ 6.217069901829059, 53.233431702354963 ], [ 6.218122622496392, 53.231633974300692 ], [ 6.22057304414705, 53.232025843299589 ], [ 6.224720162894785, 53.229984126157625 ], [ 6.225039527521756, 53.227942089353789 ], [ 6.226237436754444, 53.226828449143952 ], [ 6.225339457465566, 53.225455381547533 ], [ 6.230173320378412, 53.222440431547106 ], [ 6.230072193324256, 53.220180003648068 ], [ 6.228984461060722, 53.219148681738716 ], [ 6.229980343835003, 53.217788223780424 ], [ 6.224750136963324, 53.214578573340951 ], [ 6.225318843619305, 53.213312071619562 ], [ 6.224802903803876, 53.211947558477874 ], [ 6.222294698054932, 53.210522073525937 ], [ 6.22208463315742, 53.208790497369677 ], [ 6.220070107243618, 53.207664357119398 ], [ 6.219057588174838, 53.205993517110599 ], [ 6.216385710381789, 53.204511982257486 ], [ 6.214165507118761, 53.203889661669628 ], [ 6.209426173409796, 53.199884470235155 ], [ 6.204114562489339, 53.19975847489949 ], [ 6.19962142157068, 53.198355319732336 ], [ 6.199432031730918, 53.193253582919773 ], [ 6.197755220113768, 53.192073920228566 ], [ 6.195336431253408, 53.191538357538789 ], [ 6.192854387543498, 53.189068301635906 ], [ 6.184156755144939, 53.176371974322251 ], [ 6.181375452360939, 53.170556726028479 ], [ 6.177781258851388, 53.167928872600157 ], [ 6.177179619156038, 53.166401881841828 ], [ 6.175317219240673, 53.135481947449847 ], [ 6.17648541854012, 53.134619143903841 ], [ 6.178810532276232, 53.134141826439226 ], [ 6.183918782821046, 53.130865936306407 ], [ 6.189936995633298, 53.125750543431316 ], [ 6.189567688134562, 53.125544214054571 ], [ 6.205048274943205, 53.115484155850893 ], [ 6.222606765128025, 53.114914146198998 ], [ 6.22748491846464, 53.114078224528427 ], [ 6.236264283213289, 53.113386563655013 ], [ 6.258372362211927, 53.114371278646971 ], [ 6.262650818532387, 53.114123092344663 ], [ 6.273903624952261, 53.111252536546488 ], [ 6.283050305351932, 53.1068631379907 ], [ 6.288750690606987, 53.102073119031289 ], [ 6.290565601165286, 53.099829050814776 ], [ 6.344433412370765, 53.08713492001722 ], [ 6.35662047728214, 53.107084517866731 ], [ 6.363558460930202, 53.107551565479419 ], [ 6.36585500204282, 53.12222751982587 ], [ 6.382612271281847, 53.14957048973384 ], [ 6.381546329972633, 53.149592673777228 ], [ 6.381414284159534, 53.153505504201668 ], [ 6.388502176644051, 53.158095950316593 ], [ 6.389839285476016, 53.158479659795518 ], [ 6.389986901969069, 53.159667280092435 ], [ 6.391128129136705, 53.159418754322274 ], [ 6.392901116905217, 53.16180768965458 ], [ 6.395165335250713, 53.163576636332117 ], [ 6.402921511217619, 53.16720551134209 ], [ 6.404185120864787, 53.168681252949966 ], [ 6.404439188848791, 53.174112759376925 ], [ 6.405612882245938, 53.176505265222957 ], [ 6.406984949560107, 53.177654408569779 ], [ 6.415464602984725, 53.179833617173976 ], [ 6.418227106173352, 53.180055294380672 ], [ 6.420550437526711, 53.181107433343534 ], [ 6.424049606046076, 53.181511923142274 ], [ 6.42974235849024, 53.183158659639908 ], [ 6.434437162596278, 53.185748826954317 ], [ 6.435770552559512, 53.185914861943928 ], [ 6.436726636490277, 53.185406868703808 ], [ 6.438017906438779, 53.185651536069152 ], [ 6.442866783736709, 53.187740423089224 ], [ 6.445661941956331, 53.191015487182661 ], [ 6.44771207469905, 53.196440585061318 ], [ 6.46522641196247, 53.200457513052051 ], [ 6.482255235034392, 53.203666701482305 ], [ 6.485716829354194, 53.203821257815669 ], [ 6.485998517651419, 53.20332110532047 ], [ 6.488924238005463, 53.203131564219092 ], [ 6.491671442366984, 53.201185032697602 ], [ 6.492592552247863, 53.201386100527756 ], [ 6.493164148563451, 53.198778306419008 ], [ 6.494227144169635, 53.198217547662694 ], [ 6.496618593691371, 53.198161816798915 ], [ 6.506859257196028, 53.200144031045959 ], [ 6.513385989039731, 53.19693701780399 ], [ 6.515715198228875, 53.198308149669629 ], [ 6.526931398039013, 53.195808482872778 ], [ 6.530491980940598, 53.195559273289348 ], [ 6.529492738327179, 53.195186179662436 ], [ 6.534281859599885, 53.184085135273541 ], [ 6.539656156317307, 53.181221574514602 ], [ 6.54174391833292, 53.1786103064968 ], [ 6.543126845027521, 53.178809063795022 ], [ 6.548188303995554, 53.181097637027818 ], [ 6.559496800923149, 53.16910575582142 ], [ 6.563687461755372, 53.157638374513873 ], [ 6.581514700327345, 53.163584444109411 ], [ 6.580731218432653, 53.162203866553646 ], [ 6.582020065577626, 53.16208547104511 ], [ 6.581697842239878, 53.161252535114158 ], [ 6.583251855691084, 53.159486489336913 ], [ 6.583572500088342, 53.157867464893272 ], [ 6.584818141190159, 53.157637307720826 ], [ 6.587089330693178, 53.156225957933366 ], [ 6.584514378069546, 53.154226001087288 ], [ 6.584521341846356, 53.153509366660529 ], [ 6.586015482573221, 53.152190492665198 ], [ 6.587743301983671, 53.147802789324366 ], [ 6.587964215720356, 53.145436085981352 ], [ 6.590542811764863, 53.14494687988396 ], [ 6.595681487738232, 53.145480346039513 ], [ 6.595892007011247, 53.144335238383277 ], [ 6.59729951985562, 53.144014301776487 ], [ 6.599984475258636, 53.14472352637015 ], [ 6.606521015806599, 53.139313859050439 ], [ 6.610780652089239, 53.137905685586581 ], [ 6.614400443105876, 53.135556957403139 ], [ 6.613641275230735, 53.132694287265558 ], [ 6.616530759832093, 53.132981655045199 ], [ 6.617151192888671, 53.132115052614893 ], [ 6.619019533566965, 53.131552494912945 ], [ 6.618639791926466, 53.130379686320929 ], [ 6.621275125886856, 53.128408786713983 ], [ 6.621903679233567, 53.126194800057007 ], [ 6.627642158106151, 53.122710508580575 ], [ 6.627447292746032, 53.121181568903182 ], [ 6.628648448049568, 53.119493050467845 ], [ 6.629388341894583, 53.119838209792896 ], [ 6.630830599474678, 53.119211129528502 ], [ 6.627646162311905, 53.117055608242154 ], [ 6.628402040308837, 53.116526455520237 ], [ 6.628055952043926, 53.115647018524378 ], [ 6.62983029421084, 53.114683340986701 ], [ 6.633636306676256, 53.11434746578 ], [ 6.636597243802689, 53.11284287284797 ], [ 6.635110771918188, 53.111460930958359 ], [ 6.636855778258304, 53.110264809902517 ], [ 6.637086358845337, 53.108300889052074 ], [ 6.635670977139172, 53.107848076713999 ], [ 6.635977295866826, 53.107034030089544 ], [ 6.634831634371609, 53.106202126492754 ], [ 6.670889884071466, 53.116243829710534 ], [ 6.670602480811915, 53.116516307928784 ], [ 6.695366928276136, 53.121176015112837 ], [ 6.709868426090726, 53.120254311585597 ], [ 6.737450956338635, 53.119461728969213 ], [ 6.74239657192891, 53.116370689803986 ], [ 6.743253770102585, 53.116568299741751 ], [ 6.743773651128996, 53.115738650367859 ], [ 6.747794101084636, 53.113488195208035 ], [ 6.749048450552372, 53.11158121034515 ], [ 6.751356158785708, 53.111434846874552 ], [ 6.751811750641572, 53.110358794498403 ], [ 6.936610399768174, 52.992759752596356 ], [ 7.016196627093416, 52.924425682574935 ], [ 7.026113188950022, 52.919160518188733 ], [ 7.045571012075538, 52.915908824323076 ], [ 7.014799274866755, 52.87298657872816 ], [ 7.040241902154873, 52.872903242867082 ], [ 7.043486223700532, 52.865218578090882 ], [ 7.046433017999825, 52.865855601788454 ], [ 7.051461353512415, 52.861182070534923 ], [ 7.052300941266035, 52.861495635325049 ], [ 7.062747303329504, 52.851447550803776 ], [ 7.063734086745942, 52.851811727656781 ], [ 7.064270145410275, 52.851043245578566 ], [ 7.065917304685275, 52.85164196687829 ], [ 7.0695574050698, 52.847747650390751 ], [ 7.076260272476735, 52.850030654596814 ], [ 7.07627251234685, 52.848686204035317 ], [ 7.072192957146645, 52.845210934661722 ], [ 7.071588596036992, 52.83930217330915 ], [ 7.072147894894451, 52.838405095051286 ], [ 7.092739665529219, 52.838196135693096 ], [ 7.087257914784622, 52.849887140884007 ], [ 7.098704212812631, 52.859737822443023 ], [ 7.10438542815564, 52.863943312375625 ], [ 7.181515491515235, 52.941584240571856 ], [ 7.209562334254553, 53.000506673039197 ], [ 7.21512888653926, 53.005116842953861 ], [ 7.216487731406337, 53.005649910523019 ], [ 7.216102664360166, 53.005922031672753 ], [ 7.217445356723045, 53.00703714058411 ], [ 7.212968109455272, 53.010877480168169 ], [ 7.199219323274717, 53.0813861843925 ], [ 7.202793505122835, 53.113410573469423 ], [ 7.182898697016403, 53.121764930834182 ], [ 7.185872814784526, 53.12422574662299 ], [ 7.183641193867937, 53.124867887042775 ], [ 7.180936528766642, 53.127833452310675 ], [ 7.178902217119285, 53.138285714591575 ], [ 7.17899264447813, 53.138564438210928 ], [ 7.180263661294392, 53.138032485066539 ], [ 7.18316872878721, 53.140189328186985 ], [ 7.183962814985278, 53.142315858267679 ], [ 7.185865202509548, 53.14466808817037 ], [ 7.189601260096542, 53.147961573591587 ], [ 7.189323465443018, 53.157322875542853 ], [ 7.191179341762837, 53.159571812579024 ], [ 7.190900425863084, 53.161839742271631 ], [ 7.203654868749188, 53.17656421046987 ], [ 7.212561603307146, 53.176965054040068 ], [ 7.227498373224413, 53.18027850960182 ], [ 7.208042710873868, 53.188476517281778 ], [ 7.211453258126993, 53.192508586028644 ], [ 7.216551685823117, 53.195548023726332 ], [ 7.217622763715194, 53.197817332613944 ], [ 7.217025367786984, 53.214766599857661 ], [ 7.210491716870407, 53.228397130405035 ], [ 7.212504566232485, 53.228188665734329 ], [ 7.187601491922719, 53.332181953470709 ], [ 7.171719972188202, 53.333206402542125 ], [ 7.132559264817663, 53.332650878834329 ], [ 7.111173777327306, 53.331817676468532 ], [ 7.061736822006524, 53.324040751748392 ], [ 7.019243178628499, 53.324318443797793 ], [ 7.005912007103928, 53.326540434943489 ], [ 6.995357951213863, 53.331817603603817 ], [ 6.993413781453185, 53.336261494857361 ], [ 6.994524665376646, 53.343205095202329 ], [ 6.993691558093661, 53.348760058409219 ], [ 6.969250794554017, 53.376812284019117 ], [ 6.959529977165347, 53.385977868834217 ], [ 6.952031086331401, 53.394032472147565 ], [ 6.932034009057352, 53.438471655789641 ], [ 6.924257482413599, 53.449303760269316 ], [ 6.915925347677415, 53.457358312512994 ] ] ] ] } }
]
}
