{
"type": "FeatureCollection",
"name": "res_simplified",
"crs": { "type": "name", "properties": { "name": "urn:ogc:def:crs:OGC::CRS84" } },
"features": [
{ "type": "Feature", "properties": { "statcode": "ET0101", "id": 1, "jrstatcode": "2021ET0101", "statnaam": "Groningen", "rubriek": "subres_regio", "gid": "ET0101", "label": "Groningen" }, "geometry": { "type": "MultiPolygon", "coordinates": [ [ [ [ 7.208052969470304, 53.239197552703075 ], [ 7.206457232483094, 53.237644838830882 ], [ 7.205136109054074, 53.239410860847052 ], [ 7.206725663110748, 53.239472370406176 ], [ 7.206872446336765, 53.241580126504992 ], [ 7.208948025323206, 53.243072847181487 ], [ 7.209672761834304, 53.239638740824944 ], [ 7.208052969470304, 53.239197552703075 ] ] ], [ [ [ 6.212612829521921, 53.364214149703379 ], [ 6.212177747629986, 53.36292814494287 ], [ 6.209455726838073, 53.363762982803991 ], [ 6.211016669184803, 53.36491796941948 ], [ 6.212612829521921, 53.364214149703379 ] ] ], [ [ [ 6.209669985481708, 53.372358929470586 ], [ 6.209761503712639, 53.370357345001615 ], [ 6.208049779096708, 53.370537756978393 ], [ 6.206702160993962, 53.372062005156408 ], [ 6.207103369499989, 53.372592847063586 ], [ 6.208481491530436, 53.372868079548802 ], [ 6.209669985481708, 53.372358929470586 ] ] ], [ [ [ 6.207046293712501, 53.370279092613686 ], [ 6.206017962124181, 53.366521791704763 ], [ 6.208433308814695, 53.36502284828525 ], [ 6.207372070166716, 53.363651941914064 ], [ 6.196303929246529, 53.364016470671061 ], [ 6.181840526671982, 53.370464514683874 ], [ 6.183102876884705, 53.373878040085707 ], [ 6.187664654989309, 53.372836781855717 ], [ 6.190218043880421, 53.369488304367145 ], [ 6.191066900015397, 53.370225571492547 ], [ 6.190778268190929, 53.373365915062962 ], [ 6.192118218238932, 53.374854599343124 ], [ 6.194399070005416, 53.374898458546397 ], [ 6.197101649735541, 53.373346611833718 ], [ 6.205396218383683, 53.37222566036526 ], [ 6.207046293712501, 53.370279092613686 ] ] ], [ [ [ 6.189009329725271, 53.385906194847706 ], [ 6.184222718904537, 53.383811228736668 ], [ 6.183533414146778, 53.386721415253895 ], [ 6.186210794779618, 53.387618671499695 ], [ 6.187985128197017, 53.387112455979022 ], [ 6.189009329725271, 53.385906194847706 ] ] ], [ [ [ 6.227350433573975, 53.390160338780149 ], [ 6.223530282770708, 53.38979423368405 ], [ 6.219067602698257, 53.390888125691241 ], [ 6.222697985390863, 53.392637031629917 ], [ 6.228020811452476, 53.393445532874289 ], [ 6.229410939236766, 53.393064700140805 ], [ 6.231265636931314, 53.391538229542341 ], [ 6.227350433573975, 53.390160338780149 ] ] ], [ [ [ 6.778756785299008, 53.460749516321961 ], [ 6.793126399652918, 53.455720534372524 ], [ 6.796871415779373, 53.455139306997637 ], [ 6.798364429062786, 53.455010583216364 ], [ 6.813694160433203, 53.463266463355609 ], [ 6.828898680225551, 53.459653985417155 ], [ 6.830188541361655, 53.459756531760725 ], [ 6.832533865912037, 53.462393486192909 ], [ 6.83473134841138, 53.462501813253837 ], [ 6.834667671553832, 53.462136816542845 ], [ 6.832776036920941, 53.462020597453716 ], [ 6.830779521735263, 53.459640545112762 ], [ 6.833531844446667, 53.45829024859983 ], [ 6.834355069995203, 53.456151810547176 ], [ 6.832053164021135, 53.456041846209452 ], [ 6.824471914640091, 53.457782894475528 ], [ 6.823921921178467, 53.456523147433401 ], [ 6.834457178076566, 53.454614735133944 ], [ 6.832149599450339, 53.450727940417742 ], [ 6.814775626139765, 53.453498590890987 ], [ 6.81364260627032, 53.453062970398896 ], [ 6.812739843067932, 53.451016041854785 ], [ 6.829406831201351, 53.448204112071416 ], [ 6.828482618791855, 53.445843614971274 ], [ 6.819795604435411, 53.447140101563349 ], [ 6.819017839906823, 53.445068459737158 ], [ 6.833476694843166, 53.442908289909433 ], [ 6.837276492026359, 53.443531878288269 ], [ 6.847851365530222, 53.442019240382102 ], [ 6.84825218326764, 53.44240941646656 ], [ 6.855489230003436, 53.441635143167375 ], [ 6.856394280662608, 53.443687729975245 ], [ 6.838372043818088, 53.446856169064297 ], [ 6.842581045029791, 53.457210453120233 ], [ 6.842534685794808, 53.458415569004686 ], [ 6.840996321934452, 53.460336202713364 ], [ 6.841573353725757, 53.46038380619256 ], [ 6.843160448298062, 53.458366400516979 ], [ 6.842947003816312, 53.456184582108328 ], [ 6.856882626080103, 53.452761337645427 ], [ 6.863157295464385, 53.450619704015395 ], [ 6.879695395128741, 53.441465745408117 ], [ 6.880573532891671, 53.442120540153333 ], [ 6.883470530275867, 53.440823476599945 ], [ 6.882459802262978, 53.440024248896961 ], [ 6.883340906086741, 53.435753839006438 ], [ 6.875323291776381, 53.421895141719546 ], [ 6.874210746769434, 53.408033793239341 ], [ 6.878962827424882, 53.405153869647727 ], [ 6.888058132393288, 53.395958873063343 ], [ 6.885423367980186, 53.393516073272316 ], [ 6.885257515650025, 53.392449001036404 ], [ 6.889170400867997, 53.391269172430817 ], [ 6.890576348765651, 53.388867809633062 ], [ 6.888661211765343, 53.383699825745715 ], [ 6.889000969634925, 53.380280175924447 ], [ 6.893202882849281, 53.371311574775049 ], [ 6.895679747880759, 53.369611011609599 ], [ 6.894513234866771, 53.36513937642173 ], [ 6.895018599054958, 53.363291455783688 ], [ 6.896448568503865, 53.361892997666146 ], [ 6.896181061564283, 53.359040174806978 ], [ 6.897126101216179, 53.355583422256565 ], [ 6.902085948728846, 53.347509863253613 ], [ 6.908526288342943, 53.347248024417574 ], [ 6.913038982377809, 53.344601514078761 ], [ 6.91887709020066, 53.342179275828691 ], [ 6.929941963611795, 53.335483398251561 ], [ 6.930484518253129, 53.334862078524665 ], [ 6.93217747101065, 53.334577906247105 ], [ 6.936316019707196, 53.334029491476109 ], [ 6.944317391650058, 53.329693283260063 ], [ 6.943558853782086, 53.327278378765648 ], [ 6.953221398698213, 53.324467576733497 ], [ 6.970271001301874, 53.321776952247347 ], [ 6.986988473796203, 53.317550923181713 ], [ 6.996464486297116, 53.31671528422774 ], [ 7.004972945974041, 53.317117092272539 ], [ 7.005072775938047, 53.316846131228054 ], [ 7.004802691963457, 53.316758622168429 ], [ 7.003603762860687, 53.316122450304462 ], [ 6.992912755646448, 53.315756504227075 ], [ 6.987633129484733, 53.316400044094806 ], [ 6.970371253775979, 53.320801627832836 ], [ 6.952159315947641, 53.323297659399174 ], [ 6.946087213252157, 53.32486064335432 ], [ 6.94052242432796, 53.328305350179797 ], [ 6.939683884226355, 53.328167602596608 ], [ 6.934314148179759, 53.333074908035059 ], [ 6.931165620011098, 53.332122009935354 ], [ 6.929135261103371, 53.32899264132039 ], [ 6.928693450476832, 53.329092690218509 ], [ 6.928121644150272, 53.327689964322431 ], [ 6.930475490497239, 53.327155201068202 ], [ 6.931804275385063, 53.326226737081967 ], [ 6.935927174702345, 53.326329949543627 ], [ 6.949875203516464, 53.322065783199626 ], [ 6.958122598525856, 53.320604722533858 ], [ 6.96291123398801, 53.318858767369875 ], [ 6.968314825735742, 53.319004824505079 ], [ 6.97504620170333, 53.316960607710627 ], [ 6.979354740000236, 53.316332927698866 ], [ 6.996277472922164, 53.311665193089532 ], [ 7.000589690119275, 53.309424439749343 ], [ 7.010727024571035, 53.313809948261905 ], [ 7.009225462494132, 53.315425958505507 ], [ 7.010233835389915, 53.315788769059964 ], [ 7.012914188740654, 53.311244525604138 ], [ 7.009785066066389, 53.306526527866971 ], [ 7.01029299099888, 53.306123734249297 ], [ 7.026994960827931, 53.302459244831994 ], [ 7.030987574783334, 53.3025913110435 ], [ 7.037946440173206, 53.304685496345428 ], [ 7.039185220250837, 53.30239969514637 ], [ 7.04478394291574, 53.301350031808298 ], [ 7.047502913743319, 53.299567344685158 ], [ 7.068193462430611, 53.299757062232814 ], [ 7.06992114604587, 53.30019099468749 ], [ 7.076718264911997, 53.300277677863825 ], [ 7.080722674661556, 53.30369604754781 ], [ 7.086251092330648, 53.304158440301627 ], [ 7.090988959821853, 53.30513224062959 ], [ 7.092232966136805, 53.305620552460937 ], [ 7.095384101272292, 53.308047036856728 ], [ 7.09837879440508, 53.308725801403604 ], [ 7.099966264667085, 53.307900486174105 ], [ 7.099171841491834, 53.306477142438389 ], [ 7.09837565565517, 53.305050538116745 ], [ 7.095629778043137, 53.30473745356862 ], [ 7.090353600898129, 53.30053372627372 ], [ 7.085497989027679, 53.297750221531722 ], [ 7.084900068162387, 53.298018057073072 ], [ 7.084168106908661, 53.297559560684661 ], [ 7.082503770418732, 53.291234335414799 ], [ 7.085242536000876, 53.282508279882023 ], [ 7.080905518080513, 53.277397481647334 ], [ 7.078238062938103, 53.270769675287447 ], [ 7.078331384226034, 53.266581296124905 ], [ 7.084620703091796, 53.261564501861542 ], [ 7.093249678240937, 53.257144300465015 ], [ 7.096022233719378, 53.255815082738039 ], [ 7.097721762739716, 53.256122198750475 ], [ 7.103612944301764, 53.252277348890544 ], [ 7.105276986114927, 53.252744977161207 ], [ 7.106550663707844, 53.251903096450896 ], [ 7.108266005164473, 53.252662387804946 ], [ 7.111828028894679, 53.25069169353506 ], [ 7.115105772486889, 53.252230641923873 ], [ 7.116611260375381, 53.250646820888463 ], [ 7.119241001892024, 53.25119030869724 ], [ 7.120935056883856, 53.249882851732046 ], [ 7.123996685421545, 53.250415402072541 ], [ 7.134008041555711, 53.250154973691593 ], [ 7.135451924632085, 53.248401764589808 ], [ 7.139681505470542, 53.247508564220148 ], [ 7.143043602352098, 53.245698667202973 ], [ 7.14708918036935, 53.246348586170377 ], [ 7.150120115706123, 53.245192508583834 ], [ 7.15586431807459, 53.243391877912522 ], [ 7.156156964584359, 53.24491817869621 ], [ 7.158640051618329, 53.245024930997211 ], [ 7.159369324379858, 53.246093434378537 ], [ 7.163137206545362, 53.245373632256182 ], [ 7.166545361904901, 53.243880708128188 ], [ 7.167750276721107, 53.242756111503247 ], [ 7.170403607171579, 53.242682829689457 ], [ 7.17306605731394, 53.240498206639373 ], [ 7.173758169282429, 53.241508184764527 ], [ 7.177485135107781, 53.241233173556161 ], [ 7.183217450105236, 53.239129202487931 ], [ 7.18357995746317, 53.239875933936027 ], [ 7.186220907121418, 53.238735763507755 ], [ 7.187477837990367, 53.239123189244417 ], [ 7.189597568563945, 53.237950246152685 ], [ 7.19455639548255, 53.238025435791002 ], [ 7.204861683291448, 53.236721856406604 ], [ 7.207027662225523, 53.232383612985601 ], [ 7.20894959649891, 53.231811106423947 ], [ 7.206576664515673, 53.236819798976178 ], [ 7.208070764231024, 53.238873795181732 ], [ 7.20980621223088, 53.239407878721394 ], [ 7.212504566232504, 53.228188665734329 ], [ 7.210491716870418, 53.228397130405035 ], [ 7.21702536778699, 53.214766599857661 ], [ 7.217622763715173, 53.197817332613944 ], [ 7.216551685823117, 53.195548023726332 ], [ 7.211453258126973, 53.192508586028694 ], [ 7.208190393767206, 53.188651017979382 ], [ 7.218244380496386, 53.184243495693373 ], [ 7.227498373224411, 53.18027850960182 ], [ 7.214002285875996, 53.177204114306413 ], [ 7.205994864952147, 53.176497042127203 ], [ 7.203654868749204, 53.176564210469877 ], [ 7.200771089624461, 53.173279614673248 ], [ 7.190900425863074, 53.161839742271631 ], [ 7.191179341762862, 53.159571812578996 ], [ 7.189323465443024, 53.157322875542874 ], [ 7.189244223164386, 53.154882960036801 ], [ 7.189601260096546, 53.147961573591608 ], [ 7.185865202509548, 53.14466808817037 ], [ 7.183123402811405, 53.14014913130805 ], [ 7.180263661294365, 53.138032485066546 ], [ 7.178961564790038, 53.138545489468399 ], [ 7.180076627830445, 53.131319793498832 ], [ 7.181018536571423, 53.127678641332096 ], [ 7.183641193867932, 53.124867887042775 ], [ 7.185872814784532, 53.12422574662299 ], [ 7.183101072513988, 53.121679982102826 ], [ 7.202793505122827, 53.113410573469423 ], [ 7.199219323274691, 53.0813861843925 ], [ 7.200513602343765, 53.074678711760114 ], [ 7.204243238478395, 53.05557409207151 ], [ 7.21293205244502, 53.011060834621404 ], [ 7.217445356723037, 53.00703714058411 ], [ 7.216102664360146, 53.005922031672753 ], [ 7.216487731406364, 53.005649910523047 ], [ 7.209562334254541, 53.000506673039197 ], [ 7.200509137028007, 52.981483735550547 ], [ 7.181515491515237, 52.941584240571885 ], [ 7.150260581704638, 52.910126783637224 ], [ 7.104370693708483, 52.863931188063297 ], [ 7.087257914784635, 52.849887140883972 ], [ 7.087820936040725, 52.848687213533857 ], [ 7.092739665529198, 52.838196135693074 ], [ 7.072378654932537, 52.838513899724589 ], [ 7.07164094331952, 52.839278179277315 ], [ 7.072192957146666, 52.845210934661722 ], [ 7.076317061943696, 52.848746765189226 ], [ 7.076236882578873, 52.850030123911658 ], [ 7.070068098401483, 52.847793385205563 ], [ 7.069138155292483, 52.847863670734959 ], [ 7.065917304685255, 52.85164196687829 ], [ 7.0642701454103, 52.851043245578566 ], [ 7.063749671672166, 52.851789532304622 ], [ 7.062726515981982, 52.851468443916659 ], [ 7.052300941266023, 52.861495635325049 ], [ 7.051461353512399, 52.86118207053493 ], [ 7.047884922136467, 52.864506271004515 ], [ 7.046433017999846, 52.865855601788475 ], [ 7.043486223700511, 52.865218578090904 ], [ 7.040286193964239, 52.872818215182264 ], [ 7.018576914506942, 52.872974994720472 ], [ 7.014799274866757, 52.872986578728131 ], [ 7.016562059012825, 52.875446163771599 ], [ 7.039539874788632, 52.907503691924127 ], [ 7.039580572539965, 52.907560428300677 ], [ 7.04553112117777, 52.915915495722999 ], [ 7.026854375416079, 52.919037011418801 ], [ 7.02467071043704, 52.919869996207112 ], [ 7.015697681079108, 52.924815655693102 ], [ 7.009558647096978, 52.930093146101626 ], [ 7.002899220414839, 52.935814837144299 ], [ 6.995023711801554, 52.942587822183704 ], [ 6.987880570255676, 52.948723216422046 ], [ 6.986022412739283, 52.95031893425049 ], [ 6.979860926479461, 52.955604231011378 ], [ 6.978563518636568, 52.95671684965253 ], [ 6.970352660552997, 52.963769012278568 ], [ 6.969586281565959, 52.964427214883983 ], [ 6.963292300815628, 52.969820942595504 ], [ 6.956720874759744, 52.975473295072121 ], [ 6.956650442159329, 52.975533871614971 ], [ 6.948411448291894, 52.982617897931355 ], [ 6.942927258234717, 52.987331785570142 ], [ 6.936610606468505, 52.992759575556981 ], [ 6.935684803872583, 52.993352545517837 ], [ 6.934679925593372, 52.993996103857917 ], [ 6.922171262907539, 53.002004665028252 ], [ 6.907184455330643, 53.011594247198154 ], [ 6.907130511865872, 53.011628765572112 ], [ 6.904620002668368, 53.013234534060274 ], [ 6.8970879987378, 53.018051193039703 ], [ 6.861287446519793, 53.04087401750008 ], [ 6.843273029457793, 53.052344216842215 ], [ 6.837170404695812, 53.056228436504711 ], [ 6.814535534153284, 53.070598058184459 ], [ 6.813944746074357, 53.070971583127353 ], [ 6.789826851441259, 53.086307726329366 ], [ 6.776509375691281, 53.094760663499123 ], [ 6.744729944415677, 53.115247994086801 ], [ 6.743253770102585, 53.116568299741751 ], [ 6.742396571928891, 53.116370689803986 ], [ 6.737450956338634, 53.119461728969185 ], [ 6.723256501725685, 53.120052411761137 ], [ 6.721380803465835, 53.120130339211606 ], [ 6.719831760661762, 53.120218536161246 ], [ 6.718724701008477, 53.120247895761082 ], [ 6.69536692827611, 53.121176015112837 ], [ 6.694617351812933, 53.121057830393028 ], [ 6.678771877835265, 53.118108187341328 ], [ 6.670602480811909, 53.116516307928784 ], [ 6.653648242149388, 53.11162476149017 ], [ 6.651909362116504, 53.111159544111857 ], [ 6.6435021201215, 53.108662340866275 ], [ 6.634836257816771, 53.106202076530856 ], [ 6.63567097713919, 53.107848076713971 ], [ 6.637086358845339, 53.108300889052089 ], [ 6.636597243802688, 53.112842872847978 ], [ 6.633527768988999, 53.114381378985286 ], [ 6.629660619853915, 53.114738680299055 ], [ 6.62817952148276, 53.115991414757332 ], [ 6.627937744421937, 53.117179113170259 ], [ 6.630575689852066, 53.119385297180756 ], [ 6.628648448049582, 53.119493050467845 ], [ 6.627335591206533, 53.122833222584376 ], [ 6.622834219460987, 53.125372975616372 ], [ 6.621763333467514, 53.12635071043676 ], [ 6.62132024826518, 53.128309099424428 ], [ 6.618978350384085, 53.129880078795466 ], [ 6.618976872977991, 53.131580855236471 ], [ 6.617081084915844, 53.132163015435374 ], [ 6.616651701992588, 53.132938347317491 ], [ 6.613641275230729, 53.132694287265565 ], [ 6.614400443105885, 53.135556957403139 ], [ 6.610623452092698, 53.137943706542508 ], [ 6.60918154793157, 53.138403618134589 ], [ 6.608180322006928, 53.138894582982644 ], [ 6.606521015806628, 53.139313859050446 ], [ 6.600130263669375, 53.144601883176975 ], [ 6.596082055239687, 53.144229318948611 ], [ 6.595823589920234, 53.14544935593473 ], [ 6.588052166903863, 53.145385005385727 ], [ 6.587386438006845, 53.148683236179629 ], [ 6.584642549825113, 53.15430518672305 ], [ 6.587089330693162, 53.156225957933366 ], [ 6.583452664837643, 53.158635414730774 ], [ 6.58097216290981, 53.162174516638672 ], [ 6.581496957638259, 53.163530689757692 ], [ 6.564742338727855, 53.157989663525115 ], [ 6.563687461755379, 53.157638374513873 ], [ 6.560587356322461, 53.166126992770849 ], [ 6.559319433348278, 53.169340977865573 ], [ 6.548572154281021, 53.180669921090967 ], [ 6.548377594229454, 53.180885727398042 ], [ 6.54818830399557, 53.181097637027818 ], [ 6.546253711341903, 53.180278599662692 ], [ 6.543488559229519, 53.179015985609766 ], [ 6.541495947273383, 53.179068155110784 ], [ 6.54064781974544, 53.180158346423056 ], [ 6.538032526505459, 53.182311633413413 ], [ 6.534281859599879, 53.184085135273541 ], [ 6.530398830369987, 53.192856512457972 ], [ 6.529528927343624, 53.195194920261201 ], [ 6.530491980940599, 53.195559273289348 ], [ 6.515715198228856, 53.198308149669629 ], [ 6.513385989039717, 53.196937017803997 ], [ 6.513336054888932, 53.196973543575893 ], [ 6.506844706842157, 53.200145038537755 ], [ 6.49642774892768, 53.198137433306741 ], [ 6.493504905877004, 53.198497018680527 ], [ 6.49269520123333, 53.200576851392086 ], [ 6.48571682935421, 53.203821257815676 ], [ 6.481511831532542, 53.203553437168608 ], [ 6.463461420829451, 53.200058230954397 ], [ 6.449947913307895, 53.196696706443497 ], [ 6.447712074699071, 53.196440585061325 ], [ 6.445661941956306, 53.191015487182668 ], [ 6.442866783736723, 53.187740423089181 ], [ 6.438017906438784, 53.185651536069159 ], [ 6.424487530526685, 53.181678021923823 ], [ 6.407970277615127, 53.17814843033424 ], [ 6.405593276087354, 53.176474865757896 ], [ 6.405469531334325, 53.176282999785826 ], [ 6.404120699733266, 53.172955005814444 ], [ 6.404137894491499, 53.168572379931149 ], [ 6.402687250940926, 53.167005663107595 ], [ 6.398594459547915, 53.164862105937608 ], [ 6.397614301639024, 53.164512720955088 ], [ 6.395093718111999, 53.163528721334728 ], [ 6.391128129136729, 53.159418754322303 ], [ 6.388728550866063, 53.158014771848592 ], [ 6.38147095938595, 53.153436020838853 ], [ 6.381564016423236, 53.153185861044051 ], [ 6.381546329972608, 53.149592673777278 ], [ 6.382612271281861, 53.149570489733819 ], [ 6.381472577413085, 53.147737856735517 ], [ 6.366051891437271, 53.122558348791934 ], [ 6.365626896316197, 53.12128980155935 ], [ 6.365354000034606, 53.119527280419234 ], [ 6.363559885381331, 53.107560247350143 ], [ 6.356620477282122, 53.107084517866731 ], [ 6.344442859550672, 53.087150569019684 ], [ 6.340999242976237, 53.087944586162671 ], [ 6.337795882194794, 53.088688845633612 ], [ 6.31515744850534, 53.09405278464002 ], [ 6.296426933594896, 53.098443338482497 ], [ 6.293172622208457, 53.099210015512291 ], [ 6.290565601165267, 53.099829050814776 ], [ 6.283050305351933, 53.106863137990679 ], [ 6.274138824602123, 53.111161165463891 ], [ 6.261684591161832, 53.114292694744968 ], [ 6.255594842824107, 53.11419971583625 ], [ 6.254381445397009, 53.114131494120848 ], [ 6.251264702986161, 53.113936959514028 ], [ 6.239363959059856, 53.113388825749134 ], [ 6.225961810546482, 53.114300140074398 ], [ 6.222606765128028, 53.114914146198998 ], [ 6.212860536767342, 53.115232538573835 ], [ 6.206271316716216, 53.115444484553024 ], [ 6.206205389699969, 53.115447763316261 ], [ 6.205609813682211, 53.11546645468492 ], [ 6.202381526670751, 53.117220591237256 ], [ 6.192941185449468, 53.123356594096933 ], [ 6.185716695339529, 53.129213440409536 ], [ 6.179069281845303, 53.133992024650205 ], [ 6.175677576274714, 53.135076376686833 ], [ 6.176303876147254, 53.15278529385354 ], [ 6.17675035960531, 53.159504513363032 ], [ 6.177337001500711, 53.166982764664027 ], [ 6.181223876468422, 53.170348264829812 ], [ 6.183016801074696, 53.173984361169403 ], [ 6.18579109766844, 53.178832361425137 ], [ 6.18803420529086, 53.182486716518639 ], [ 6.193097426731803, 53.189277732384205 ], [ 6.195276796562847, 53.191498501997643 ], [ 6.197037147762689, 53.192015868896654 ], [ 6.199830600385461, 53.195322698328802 ], [ 6.199621421570672, 53.198355319732336 ], [ 6.204114562489353, 53.19975847489949 ], [ 6.209578174623756, 53.199960977454467 ], [ 6.219242358907386, 53.206129811353833 ], [ 6.22483962026343, 53.212003823994309 ], [ 6.224750136963305, 53.214578573340958 ], [ 6.228934101001986, 53.2168054779209 ], [ 6.229988418687427, 53.217818449798294 ], [ 6.230173320378412, 53.222440431547085 ], [ 6.225339457465566, 53.225455381547533 ], [ 6.224632096752965, 53.230073794901486 ], [ 6.221680492060702, 53.231667697143166 ], [ 6.214583935996605, 53.233710697402486 ], [ 6.214805951171299, 53.235648528077135 ], [ 6.21554252297969, 53.236985154815649 ], [ 6.220239054202337, 53.237347760674616 ], [ 6.224972056678058, 53.238592839103106 ], [ 6.22461591919349, 53.239700941216967 ], [ 6.222823443907456, 53.239497672818864 ], [ 6.21844951535541, 53.241691303291695 ], [ 6.217978238112253, 53.241932130491428 ], [ 6.21945349010247, 53.242866750526133 ], [ 6.225111529999022, 53.244590420525498 ], [ 6.227743333038975, 53.245239672885937 ], [ 6.229707212970533, 53.244751899703317 ], [ 6.231094865674947, 53.245105362359617 ], [ 6.232075255667237, 53.247124663756146 ], [ 6.229601568468722, 53.248913197210847 ], [ 6.230318479261675, 53.25042641878553 ], [ 6.233665183512857, 53.250398998324407 ], [ 6.235100679369491, 53.253354843677279 ], [ 6.232625266128744, 53.254563916707582 ], [ 6.231749084922092, 53.255946627939615 ], [ 6.232173048892785, 53.256747412369478 ], [ 6.234944825295346, 53.256703899413012 ], [ 6.237584186728123, 53.257547158904451 ], [ 6.23876302765852, 53.259681033480099 ], [ 6.237973446654104, 53.261582736068576 ], [ 6.239415661036724, 53.263143235721927 ], [ 6.241623516935737, 53.263951683190783 ], [ 6.243484499403227, 53.265459824726889 ], [ 6.243625014747721, 53.266459527736522 ], [ 6.246863172423747, 53.268295830926753 ], [ 6.249977289708137, 53.267219997278076 ], [ 6.253474138436323, 53.267724628615568 ], [ 6.254943464165557, 53.26852454772267 ], [ 6.255763293835002, 53.270836489669236 ], [ 6.252964937210827, 53.273467863068191 ], [ 6.251408724147529, 53.277254968970738 ], [ 6.252941136409826, 53.284459247384738 ], [ 6.254266057383521, 53.28864283828208 ], [ 6.259903656385465, 53.291075709876921 ], [ 6.267456569136936, 53.290854853328824 ], [ 6.26926786236765, 53.290278463828386 ], [ 6.270754922561479, 53.292060139806388 ], [ 6.270286679905859, 53.293159730748449 ], [ 6.274374946432766, 53.29648870729568 ], [ 6.274488005110427, 53.299147386112281 ], [ 6.27830717544525, 53.302730935686363 ], [ 6.279478633872877, 53.303324380651553 ], [ 6.29025017149119, 53.305377683856264 ], [ 6.294016443954919, 53.308368577244288 ], [ 6.293579227229854, 53.30861522566255 ], [ 6.29277933349301, 53.309892156277648 ], [ 6.286763298904992, 53.312010364674762 ], [ 6.284027779511329, 53.311792166201855 ], [ 6.280503416685089, 53.312581484699457 ], [ 6.286901048804506, 53.34102626580524 ], [ 6.288469802685005, 53.340557213089866 ], [ 6.289077237116163, 53.340308199647367 ], [ 6.290521643845998, 53.339420315620387 ], [ 6.292241590949095, 53.338472354368598 ], [ 6.295030273131338, 53.338141974759715 ], [ 6.296714053771411, 53.337239921690887 ], [ 6.297114004853222, 53.337531240411323 ], [ 6.294848413189804, 53.339749173684325 ], [ 6.297209629888235, 53.340238440305178 ], [ 6.296703560617516, 53.341160570307565 ], [ 6.2917657167302, 53.34012082047412 ], [ 6.287135436956709, 53.341949390479016 ], [ 6.279615434352841, 53.343323002679035 ], [ 6.27366330881175, 53.345787986555052 ], [ 6.259939080612089, 53.347991929125904 ], [ 6.260032128608577, 53.348873021508673 ], [ 6.257156555307997, 53.348559233383284 ], [ 6.253088387569255, 53.349388513647931 ], [ 6.248887979967952, 53.349033733767534 ], [ 6.240280942842683, 53.344422897941016 ], [ 6.234845240683148, 53.343763338494917 ], [ 6.233016862723352, 53.344153069678029 ], [ 6.23208558582753, 53.345288674482667 ], [ 6.233570148684943, 53.347072755005001 ], [ 6.231940604131644, 53.351387109971455 ], [ 6.232384730795002, 53.352281673835677 ], [ 6.236122176839506, 53.352457174515067 ], [ 6.24608418419286, 53.354330657470321 ], [ 6.252201041113887, 53.358278614292061 ], [ 6.253636920023943, 53.358356247451496 ], [ 6.256908798198972, 53.357240336481979 ], [ 6.256332316291209, 53.358688014110754 ], [ 6.254074051792798, 53.360307287135697 ], [ 6.251526542912901, 53.361268512999615 ], [ 6.248461979522342, 53.361494756039747 ], [ 6.244339718084504, 53.359378064751063 ], [ 6.240222804874963, 53.358510208975289 ], [ 6.237994225588398, 53.358690349310763 ], [ 6.233118972738672, 53.360447208572232 ], [ 6.237625570983516, 53.363397277215533 ], [ 6.241210235550607, 53.364805566003071 ], [ 6.239914077468572, 53.365749661692 ], [ 6.238256003768711, 53.369088738679856 ], [ 6.237277576698838, 53.369325521842967 ], [ 6.232401993393745, 53.366894754455693 ], [ 6.226218883503789, 53.365553245230956 ], [ 6.220504211706306, 53.36568349081994 ], [ 6.217272699295187, 53.364076459970491 ], [ 6.209547189229446, 53.367356940547253 ], [ 6.209848225713713, 53.368986221215096 ], [ 6.212354288440817, 53.369712960363763 ], [ 6.213538152147848, 53.371913839330695 ], [ 6.231980903677613, 53.372551379167049 ], [ 6.233707682882567, 53.373218652748328 ], [ 6.225957994222109, 53.374392751687431 ], [ 6.22172459140826, 53.373909211154235 ], [ 6.211312411934689, 53.375687457418238 ], [ 6.200696691876955, 53.375659547554498 ], [ 6.191906877994692, 53.37782146003525 ], [ 6.185759704176431, 53.378005417102585 ], [ 6.184454453128138, 53.378534921741611 ], [ 6.183454887702955, 53.381240991380061 ], [ 6.18515769690007, 53.382923067602107 ], [ 6.191321873591574, 53.382363379203298 ], [ 6.200617828180274, 53.382627095711051 ], [ 6.201599056724451, 53.383049223563219 ], [ 6.201839557767263, 53.384459844765232 ], [ 6.201652836328285, 53.385513761310285 ], [ 6.196725245599856, 53.390699837084497 ], [ 6.193687698094919, 53.390787947031512 ], [ 6.192499931303977, 53.390302000709404 ], [ 6.191484343741315, 53.390548218021657 ], [ 6.19158579042067, 53.391116172292598 ], [ 6.193381273137501, 53.391852749062188 ], [ 6.18785412728606, 53.393639025682333 ], [ 6.180974106605871, 53.393944559196683 ], [ 6.179391369520054, 53.39458002961716 ], [ 6.179886492156013, 53.395805124584889 ], [ 6.178935132004763, 53.396109845429486 ], [ 6.182306984009077, 53.397876199463099 ], [ 6.182467578686611, 53.399116674069603 ], [ 6.181576467051872, 53.399986123821115 ], [ 6.182349188951667, 53.401897555100717 ], [ 6.184746824897511, 53.403141528607385 ], [ 6.197518806426261, 53.403007528286345 ], [ 6.200881893593277, 53.401073038643652 ], [ 6.2025813008668, 53.399153553836257 ], [ 6.211125529832529, 53.395599322413446 ], [ 6.215989909618568, 53.390509510339982 ], [ 6.221221094894277, 53.38828741707389 ], [ 6.224296284985567, 53.38786519575892 ], [ 6.22569091818444, 53.388562820139143 ], [ 6.23368710463931, 53.389055072470605 ], [ 6.23669574587806, 53.391105001220126 ], [ 6.234896575253253, 53.39246895593859 ], [ 6.233500447378352, 53.39265625029671 ], [ 6.234594511055785, 53.393300960809178 ], [ 6.234084873872972, 53.393906400285346 ], [ 6.233212788980786, 53.39374725788435 ], [ 6.232726870729581, 53.395519590488242 ], [ 6.230672464233955, 53.396110080593992 ], [ 6.228695159162418, 53.395744617220885 ], [ 6.223905073758883, 53.396500078481751 ], [ 6.222926003957009, 53.397281107138504 ], [ 6.221113233797836, 53.396739713755515 ], [ 6.221624720477813, 53.395953028258184 ], [ 6.21894097355759, 53.397210383793144 ], [ 6.218058936218789, 53.398928426684066 ], [ 6.21685935692197, 53.398571180258934 ], [ 6.213970267248727, 53.399532114552031 ], [ 6.212420162937304, 53.400998667416822 ], [ 6.211524379550738, 53.400539506379403 ], [ 6.210756176998976, 53.401953324220074 ], [ 6.209625279092658, 53.402145095781613 ], [ 6.209250229936758, 53.401318989554412 ], [ 6.209591843386008, 53.403066297473281 ], [ 6.210662026092675, 53.404319658429237 ], [ 6.209691708071661, 53.405146840358398 ], [ 6.203872939103099, 53.404016401088747 ], [ 6.202431302305086, 53.404505744090777 ], [ 6.20237560374006, 53.405198252749884 ], [ 6.206987418359913, 53.405277657586154 ], [ 6.206942915415265, 53.40657640980826 ], [ 6.201927357588944, 53.406375455023792 ], [ 6.200730672892003, 53.405120884937318 ], [ 6.196420677288149, 53.406866843229679 ], [ 6.196117928608127, 53.407539882171626 ], [ 6.196277160425934, 53.407877838431176 ], [ 6.19477032452169, 53.407654814297871 ], [ 6.19256806565744, 53.40856919599041 ], [ 6.192169778329096, 53.410168169746335 ], [ 6.191013178861419, 53.410692168430231 ], [ 6.191470880736481, 53.411087445770633 ], [ 6.193974056028206, 53.410369501639082 ], [ 6.197036309185212, 53.41161323110078 ], [ 6.199862846462182, 53.411510951319535 ], [ 6.197541150309386, 53.411075628043143 ], [ 6.19670580730392, 53.408879774223209 ], [ 6.199072133735839, 53.4087768690814 ], [ 6.199082385204346, 53.40787737476554 ], [ 6.208106932719474, 53.408725283159406 ], [ 6.212312254858724, 53.40962248702354 ], [ 6.211591719615182, 53.411062709655262 ], [ 6.207028854271453, 53.410322215352416 ], [ 6.20240962262313, 53.409404358237609 ], [ 6.199712558455575, 53.409422566435374 ], [ 6.20158652710284, 53.409736993902555 ], [ 6.201309770492325, 53.411114467603234 ], [ 6.202488987713044, 53.4098884027404 ], [ 6.206736341173594, 53.410600891484179 ], [ 6.212874314629697, 53.411650518284731 ], [ 6.214725608422762, 53.409215586987706 ], [ 6.24430487361075, 53.415108014944295 ], [ 6.249335290413192, 53.415513906500919 ], [ 6.255062162196506, 53.415163229234729 ], [ 6.26065863333699, 53.413916203698683 ], [ 6.292202524024366, 53.403116772848335 ], [ 6.29668009120897, 53.401034506688561 ], [ 6.300378879462739, 53.398207172468801 ], [ 6.304581509103464, 53.395990500893888 ], [ 6.307768012990659, 53.396634713216386 ], [ 6.312367559381781, 53.396515517950625 ], [ 6.3131945119298, 53.397605867030002 ], [ 6.327640271667848, 53.402634315050854 ], [ 6.329169335394286, 53.404046289588265 ], [ 6.339139759227681, 53.406428454231055 ], [ 6.338401140161488, 53.410590882972734 ], [ 6.339304141645545, 53.410820849146674 ], [ 6.345269579425658, 53.410241091598635 ], [ 6.348383888799515, 53.410503760749307 ], [ 6.349769811099692, 53.412158784584285 ], [ 6.354590457252311, 53.412247331904126 ], [ 6.357252641143417, 53.413048497030275 ], [ 6.357455729782531, 53.414149390952673 ], [ 6.367585435443471, 53.416386307180552 ], [ 6.386054799188996, 53.419500516525027 ], [ 6.395519062241626, 53.420608178858437 ], [ 6.410671320254711, 53.421236708521107 ], [ 6.414303383786742, 53.422767693247827 ], [ 6.425951705670236, 53.422175224043976 ], [ 6.476610310888865, 53.426632591805898 ], [ 6.478209823276255, 53.427595475899743 ], [ 6.499187792988756, 53.430286664221434 ], [ 6.502428015048251, 53.429699993214015 ], [ 6.529978474949548, 53.432179873334668 ], [ 6.536357444774733, 53.431635433363667 ], [ 6.545359671333072, 53.432965839000985 ], [ 6.546234289091592, 53.430765629771827 ], [ 6.545583149813452, 53.433003963401127 ], [ 6.563300431410754, 53.435870276744829 ], [ 6.565162804164113, 53.435469069037403 ], [ 6.567023559607533, 53.435164910952885 ], [ 6.588726312230722, 53.439621508283693 ], [ 6.592947366349441, 53.439833727508152 ], [ 6.592772887320361, 53.441751548880511 ], [ 6.621541910052946, 53.448837190046 ], [ 6.623815023615192, 53.448862788258978 ], [ 6.62470804829821, 53.449683327232158 ], [ 6.63690193332268, 53.453219029372008 ], [ 6.638809337197548, 53.452347688032411 ], [ 6.638605980614532, 53.45356633053369 ], [ 6.646276745359733, 53.455369325786378 ], [ 6.667414061740554, 53.458529312479151 ], [ 6.668678061998665, 53.457856486808112 ], [ 6.674055682850042, 53.458224394578608 ], [ 6.674105333965121, 53.459639580116921 ], [ 6.679961110046323, 53.461335089162858 ], [ 6.690421083199394, 53.461563990541883 ], [ 6.727772336922158, 53.464729657933795 ], [ 6.744086638015343, 53.465985355705349 ], [ 6.755440764065693, 53.465391379285748 ], [ 6.778756785299008, 53.460749516321961 ] ], [ [ 6.239342819629598, 53.369470294776768 ], [ 6.242992424029951, 53.366402397761824 ], [ 6.244890585542404, 53.368060789544984 ], [ 6.254163689043839, 53.367635197156403 ], [ 6.252472106577512, 53.368567020016606 ], [ 6.242462998429395, 53.368976981830876 ], [ 6.240739048240106, 53.373152841391125 ], [ 6.240127275496641, 53.372500928052858 ], [ 6.239065965129574, 53.371030039066959 ], [ 6.239342819629598, 53.369470294776768 ] ] ], [ [ [ 6.598775465154622, 53.520548001273134 ], [ 6.596487618720805, 53.519700233985461 ], [ 6.592232852761522, 53.519783526915113 ], [ 6.584245692545744, 53.523309879281378 ], [ 6.586597319762754, 53.525768448373967 ], [ 6.590190920749174, 53.52610677766603 ], [ 6.592916114300498, 53.525818978454232 ], [ 6.596450367152065, 53.524414462061536 ], [ 6.599321321534347, 53.520982337984549 ], [ 6.598775465154622, 53.520548001273134 ] ] ], [ [ [ 6.611129226414062, 53.5399158734051 ], [ 6.616438006223667, 53.53712690512836 ], [ 6.61839447673673, 53.533738588963502 ], [ 6.617056874025691, 53.533435549834586 ], [ 6.61560109476539, 53.534875748208812 ], [ 6.607858643680712, 53.536272034499028 ], [ 6.604315799720373, 53.537489926613944 ], [ 6.600528993174463, 53.536120677671448 ], [ 6.58517815909328, 53.536624896175681 ], [ 6.582823850200408, 53.534960226320564 ], [ 6.573861845483938, 53.539419997388634 ], [ 6.564768840253674, 53.539900948885524 ], [ 6.563820421416811, 53.539302998069182 ], [ 6.561407306370759, 53.532022642603351 ], [ 6.558975398250519, 53.531473786876056 ], [ 6.55802593026074, 53.532957652625981 ], [ 6.561974245665983, 53.541433279066503 ], [ 6.565026569391427, 53.542289956349641 ], [ 6.574049926110456, 53.542702213786519 ], [ 6.595706624515396, 53.543270456420103 ], [ 6.603245332959786, 53.542255568929527 ], [ 6.611129226414062, 53.5399158734051 ] ] ], [ [ [ 6.498805185818648, 53.549852884378204 ], [ 6.506872973883687, 53.541786152147196 ], [ 6.510183427410699, 53.539751717201042 ], [ 6.523531852574839, 53.537172789963748 ], [ 6.527829456718485, 53.535353693390398 ], [ 6.529254865960988, 53.533539149567737 ], [ 6.52527734732846, 53.533325367472401 ], [ 6.508876308110984, 53.537475295119513 ], [ 6.497547233562492, 53.542748332767822 ], [ 6.487648855083378, 53.548864654042703 ], [ 6.480195550551188, 53.548852889441399 ], [ 6.476962023517334, 53.549529611702866 ], [ 6.475737351971998, 53.547856701533661 ], [ 6.476599568276534, 53.547275285210638 ], [ 6.488114503387735, 53.54577362610754 ], [ 6.506145647166248, 53.536290765252687 ], [ 6.509092321774325, 53.535576695225146 ], [ 6.509780680357366, 53.533886749522139 ], [ 6.508603757655147, 53.532730656585038 ], [ 6.50525741886737, 53.533107977243887 ], [ 6.503428160111548, 53.53539105692991 ], [ 6.501392867139309, 53.534288882753245 ], [ 6.495611872804685, 53.53294046255877 ], [ 6.487995485122371, 53.533235153598717 ], [ 6.484703291617834, 53.532244522250679 ], [ 6.483838658564149, 53.531394794279038 ], [ 6.484236560207194, 53.529640131626316 ], [ 6.485224634431588, 53.527352370404195 ], [ 6.486728775872779, 53.526355199330517 ], [ 6.485638580078905, 53.524376126491731 ], [ 6.481190963622986, 53.521827540789168 ], [ 6.47898926130067, 53.51844800455013 ], [ 6.47602346049925, 53.517686850120839 ], [ 6.474860154457717, 53.517990017487463 ], [ 6.472741360371344, 53.523817498684586 ], [ 6.46979283710338, 53.528234059140686 ], [ 6.462849531223141, 53.536108193834686 ], [ 6.459103976065834, 53.538955645670598 ], [ 6.459090402514147, 53.541432193007743 ], [ 6.460780158026597, 53.544006151094337 ], [ 6.462639833596538, 53.545813137895927 ], [ 6.472715756549288, 53.551126003394309 ], [ 6.478449896054131, 53.553618237471071 ], [ 6.484577967536248, 53.555228620987684 ], [ 6.489640673358809, 53.555092425717163 ], [ 6.498805185818648, 53.549852884378204 ] ] ] ] } },
{ "type": "Feature", "properties": { "statcode": "ET0301", "id": 3, "jrstatcode": "2021ET0301", "statnaam": "Drenthe", "rubriek": "subres_regio", "gid": "ET0301", "label": "Drenthe" }, "geometry": { "type": "MultiPolygon", "coordinates": [ [ [ [ 6.493504905877004, 53.198497018680527 ], [ 6.49642774892768, 53.198137433306741 ], [ 6.506844706842157, 53.200145038537755 ], [ 6.513336054888932, 53.196973543575893 ], [ 6.513385989039717, 53.196937017803997 ], [ 6.515715198228856, 53.198308149669629 ], [ 6.53049197944455, 53.195559273303623 ], [ 6.529528927343624, 53.195194920261201 ], [ 6.530398830369987, 53.192856512457972 ], [ 6.534281859599879, 53.184085135273541 ], [ 6.538032526505459, 53.182311633413413 ], [ 6.54064781974544, 53.180158346423056 ], [ 6.541495947273383, 53.179068155110784 ], [ 6.543488559229519, 53.179015985609766 ], [ 6.546253709870506, 53.180278600575555 ], [ 6.54818830399557, 53.181097637027818 ], [ 6.548377594229454, 53.180885727398042 ], [ 6.548572154281021, 53.180669921090967 ], [ 6.559319433348278, 53.169340977865573 ], [ 6.560587356322461, 53.166126992770849 ], [ 6.563687461755379, 53.157638374513873 ], [ 6.564742338727855, 53.157989663525115 ], [ 6.581496957638259, 53.163530689757692 ], [ 6.58097216290981, 53.162174516638672 ], [ 6.583452664837643, 53.158635414730774 ], [ 6.587089330693162, 53.156225957933366 ], [ 6.584642549825113, 53.15430518672305 ], [ 6.587386438006845, 53.148683236179629 ], [ 6.588052166903863, 53.145385005385727 ], [ 6.595823589920234, 53.14544935593473 ], [ 6.596082055239687, 53.144229318948611 ], [ 6.600130263669375, 53.144601883176975 ], [ 6.606521015806628, 53.139313859050446 ], [ 6.608180322006928, 53.138894582982644 ], [ 6.60918154793157, 53.138403618134589 ], [ 6.610623452092698, 53.137943706542508 ], [ 6.614400443105885, 53.135556957403139 ], [ 6.613641275230729, 53.132694287265565 ], [ 6.616651701992588, 53.132938347317491 ], [ 6.617081084915844, 53.132163015435374 ], [ 6.618976872977991, 53.131580855236471 ], [ 6.618978350384085, 53.129880078795466 ], [ 6.62132024826518, 53.128309099424428 ], [ 6.621763333467514, 53.12635071043676 ], [ 6.622834219460987, 53.125372975616372 ], [ 6.627335591206533, 53.122833222584376 ], [ 6.628648448049582, 53.119493050467845 ], [ 6.630575689852066, 53.119385297180756 ], [ 6.627937744421937, 53.117179113170259 ], [ 6.62817952148276, 53.115991414757332 ], [ 6.629660619853915, 53.114738680299055 ], [ 6.633527768988999, 53.114381378985286 ], [ 6.636597243802688, 53.112842872847978 ], [ 6.637086358845339, 53.108300889052089 ], [ 6.63567097713919, 53.107848076713971 ], [ 6.634836257816771, 53.106202076530856 ], [ 6.643502118602474, 53.108662339983567 ], [ 6.651909362116504, 53.111159544111857 ], [ 6.653648242149388, 53.11162476149017 ], [ 6.670602480811909, 53.116516307928784 ], [ 6.678771877835265, 53.118108187341328 ], [ 6.694617351812933, 53.121057830393028 ], [ 6.69536692827611, 53.121176015112837 ], [ 6.718724701008477, 53.120247895761082 ], [ 6.719831760661762, 53.120218536161246 ], [ 6.721380803465835, 53.120130339211606 ], [ 6.723256501725685, 53.120052411761137 ], [ 6.737450956338634, 53.119461728969185 ], [ 6.742396571928891, 53.116370689803986 ], [ 6.743253770102585, 53.116568299741751 ], [ 6.744729944415677, 53.115247994086801 ], [ 6.776509375691281, 53.094760663499123 ], [ 6.789826851441259, 53.086307726329366 ], [ 6.813944746074357, 53.070971583127353 ], [ 6.814535534153284, 53.070598058184459 ], [ 6.837170404695812, 53.056228436504711 ], [ 6.843273029457793, 53.052344216842215 ], [ 6.861287446519793, 53.04087401750008 ], [ 6.8970879987378, 53.018051193039703 ], [ 6.904620002668368, 53.013234534060274 ], [ 6.907130511865872, 53.011628765572112 ], [ 6.907184455330643, 53.011594247198154 ], [ 6.922171262907539, 53.002004665028252 ], [ 6.934679925593372, 52.993996103857917 ], [ 6.935684803872583, 52.993352545517837 ], [ 6.936610606468505, 52.992759575556981 ], [ 6.938411816747348, 52.991211977007872 ], [ 6.942927258234717, 52.987331785570142 ], [ 6.948411448291894, 52.982617897931355 ], [ 6.956650442159329, 52.975533871614971 ], [ 6.956720874759744, 52.975473295072121 ], [ 6.963292300815628, 52.969820942595504 ], [ 6.969586281565959, 52.964427214883983 ], [ 6.970362361996887, 52.963760672494196 ], [ 6.978563518636568, 52.95671684965253 ], [ 6.979860926479461, 52.955604231011378 ], [ 6.986022412739283, 52.95031893425049 ], [ 6.987880570255676, 52.948723216422046 ], [ 6.995023711801554, 52.942587822183704 ], [ 7.002899220414839, 52.935814837144299 ], [ 7.009558647096978, 52.930093146101626 ], [ 7.015697681079108, 52.924815655693102 ], [ 7.02467071043704, 52.919869996207112 ], [ 7.026854375416079, 52.919037011418801 ], [ 7.04553112117777, 52.915915495722999 ], [ 7.039580572539965, 52.907560428300677 ], [ 7.039539901545531, 52.907503731101187 ], [ 7.039539874788632, 52.907503691924127 ], [ 7.016562059012825, 52.875446163771599 ], [ 7.014799274866757, 52.872986578728131 ], [ 7.018576914506942, 52.872974994720472 ], [ 7.040286193964239, 52.872818215182264 ], [ 7.043486223700511, 52.865218578090904 ], [ 7.046433017999846, 52.865855601788475 ], [ 7.047884922136467, 52.864506271004515 ], [ 7.051461353512399, 52.86118207053493 ], [ 7.052300941266023, 52.861495635325049 ], [ 7.062726515981982, 52.851468443916659 ], [ 7.063749671672166, 52.851789532304622 ], [ 7.0642701454103, 52.851043245578566 ], [ 7.065917304685255, 52.85164196687829 ], [ 7.069138155292483, 52.847863670734959 ], [ 7.070068098401483, 52.847793385205563 ], [ 7.076236882578873, 52.850030123911658 ], [ 7.076317061943696, 52.848746765189226 ], [ 7.072192957146666, 52.845210934661722 ], [ 7.07164094331952, 52.839278179277315 ], [ 7.072378654932537, 52.838513899724589 ], [ 7.092739665529198, 52.838196135693074 ], [ 7.07951259910084, 52.821616890120239 ], [ 7.0715511855057, 52.810421153902738 ], [ 7.069074765659257, 52.780323477235008 ], [ 7.06415088780462, 52.723202628508496 ], [ 7.05858738613639, 52.676695952867824 ], [ 7.056048023462361, 52.655394901068021 ], [ 7.055063322544586, 52.647083627455388 ], [ 7.054755244770931, 52.644422721381325 ], [ 7.055640554879536, 52.644359600486979 ], [ 7.055721112898832, 52.643499535466525 ], [ 7.041732810282874, 52.632710083742964 ], [ 7.038605806860729, 52.632870883894938 ], [ 7.03546701052583, 52.634854489834026 ], [ 7.028762285140393, 52.634640783627873 ], [ 7.012491632419326, 52.636776581964114 ], [ 7.006597479085365, 52.638521918416551 ], [ 7.004490662586285, 52.640876949735372 ], [ 7.00187732368027, 52.641918937302691 ], [ 6.999232760384002, 52.642152765710684 ], [ 6.992459051167802, 52.641332377908761 ], [ 6.984270793167003, 52.643636801380431 ], [ 6.981924583325055, 52.645012723268209 ], [ 6.975984696361596, 52.646254670525629 ], [ 6.974929570014992, 52.646107875062675 ], [ 6.968319155173478, 52.641830356645656 ], [ 6.9592328150757, 52.641730671373594 ], [ 6.953558168903783, 52.638990394404544 ], [ 6.945427157220316, 52.639342308891727 ], [ 6.938603103939056, 52.637885297268227 ], [ 6.934645074356292, 52.638323495138636 ], [ 6.928521878620965, 52.640184850053409 ], [ 6.919257325873424, 52.639845331148216 ], [ 6.916339744394052, 52.641333100713553 ], [ 6.914463774802337, 52.646481614910201 ], [ 6.902938061153965, 52.648593837975469 ], [ 6.897179737726323, 52.651371337012563 ], [ 6.891497847559216, 52.651522969674062 ], [ 6.87995027830029, 52.650548316810003 ], [ 6.872810702545418, 52.653270552739002 ], [ 6.864744662892531, 52.649858933719763 ], [ 6.861875214572827, 52.649690855867838 ], [ 6.853493236754091, 52.649524611719713 ], [ 6.850838565339161, 52.648615175495017 ], [ 6.837460139207172, 52.651943336201818 ], [ 6.831704772774616, 52.651497982067525 ], [ 6.827944131369106, 52.649181741082572 ], [ 6.821640041639341, 52.647693404676765 ], [ 6.818269911349397, 52.647727667560837 ], [ 6.816152107266165, 52.648615711986324 ], [ 6.80847288210999, 52.649022215960748 ], [ 6.807290379382425, 52.649419984633248 ], [ 6.805408792593989, 52.651373154381844 ], [ 6.80321049636087, 52.651870154903058 ], [ 6.79428995122429, 52.650656965712543 ], [ 6.789897459935784, 52.652791614158311 ], [ 6.786997679967712, 52.652377286543988 ], [ 6.783817092442659, 52.652532495514407 ], [ 6.777430906111105, 52.651660828077581 ], [ 6.774175323015275, 52.65019927288072 ], [ 6.772089227267948, 52.650051130551233 ], [ 6.767879219689401, 52.646851074059484 ], [ 6.75884835539793, 52.648825444602672 ], [ 6.75550494479868, 52.647259995561711 ], [ 6.75345155811435, 52.645806266427556 ], [ 6.751908011993181, 52.647030485582391 ], [ 6.7533297367171, 52.647579552567457 ], [ 6.753535263940829, 52.64800989714157 ], [ 6.752598241588136, 52.648110770471035 ], [ 6.750490168465308, 52.646886668255078 ], [ 6.741984042736103, 52.645332887387873 ], [ 6.735726237645578, 52.640375296465351 ], [ 6.730692406547002, 52.637524918938574 ], [ 6.727031346116359, 52.633934323410983 ], [ 6.726398097357318, 52.633220350361121 ], [ 6.720786344524453, 52.631432175497594 ], [ 6.718200839842638, 52.631306872802845 ], [ 6.715015666272593, 52.630265514504366 ], [ 6.710053111744895, 52.627820281038389 ], [ 6.70802152011234, 52.628007120365389 ], [ 6.707156194270163, 52.626765123989308 ], [ 6.704965671300803, 52.627304365608232 ], [ 6.702004531148243, 52.627267051404864 ], [ 6.700860413614461, 52.628320239411842 ], [ 6.70091086143047, 52.62940079650992 ], [ 6.702865115035186, 52.630675141600427 ], [ 6.704522781240946, 52.633139431879634 ], [ 6.703266452042978, 52.634351391874425 ], [ 6.703502453069875, 52.635144753873305 ], [ 6.703499190762292, 52.635224771369685 ], [ 6.70349769377431, 52.635232557250099 ], [ 6.703474020391182, 52.636119044411728 ], [ 6.706525507477098, 52.639542141108038 ], [ 6.70569791038866, 52.640890288005757 ], [ 6.702170324789996, 52.641083649670058 ], [ 6.70116870336049, 52.641668372709709 ], [ 6.702065961567727, 52.642466315179924 ], [ 6.705383141851236, 52.643320828573181 ], [ 6.705528562262308, 52.645652050496103 ], [ 6.708024982936118, 52.647720721084774 ], [ 6.708334040325407, 52.648758865457012 ], [ 6.701414907027465, 52.650221834393285 ], [ 6.686078996700155, 52.653430947842679 ], [ 6.655650817346135, 52.662033669628173 ], [ 6.646739218663822, 52.66463949893938 ], [ 6.629453215700452, 52.669688235180011 ], [ 6.614526801508529, 52.674049271295019 ], [ 6.612980139712229, 52.673838285224257 ], [ 6.603800826961591, 52.672585345039835 ], [ 6.581049585936306, 52.669472936925644 ], [ 6.552821389712455, 52.665594962035094 ], [ 6.547745896806874, 52.663971361415008 ], [ 6.52938067357998, 52.654507311662918 ], [ 6.529283780702445, 52.654452758278374 ], [ 6.513861463898781, 52.64629376771876 ], [ 6.514013777540985, 52.645272014794784 ], [ 6.517865759899093, 52.618917923488432 ], [ 6.518021880965973, 52.617988584612029 ], [ 6.518246983973325, 52.616468197433711 ], [ 6.518604190693368, 52.614087840754515 ], [ 6.512026842164047, 52.613649665850154 ], [ 6.50465358825712, 52.617015293768702 ], [ 6.500009912891226, 52.617969705578545 ], [ 6.49153488469897, 52.619170282391792 ], [ 6.48389550660296, 52.619076566970342 ], [ 6.480581221693939, 52.618154766732331 ], [ 6.478016185958721, 52.618631302333931 ], [ 6.474200364375848, 52.620744987385372 ], [ 6.472368731049734, 52.624579261021765 ], [ 6.469965169490716, 52.62498568091199 ], [ 6.464035318725264, 52.623875782786946 ], [ 6.460707527145392, 52.616991427603772 ], [ 6.453476975385101, 52.61395567145393 ], [ 6.443032863584334, 52.616195496389508 ], [ 6.442345351937081, 52.61580356832004 ], [ 6.438410263827006, 52.61707450501806 ], [ 6.434934370169245, 52.619285543995552 ], [ 6.434471419511146, 52.620452638201208 ], [ 6.435601399497361, 52.62085314249439 ], [ 6.435639303764576, 52.621570118858756 ], [ 6.433803064378496, 52.626409209750264 ], [ 6.432992225603014, 52.627765045330307 ], [ 6.431326151571549, 52.628369560054928 ], [ 6.428176485008926, 52.628188499183295 ], [ 6.426036660433751, 52.62651255391242 ], [ 6.426886440704144, 52.624638413643282 ], [ 6.421609580579085, 52.623044661384768 ], [ 6.418808495764567, 52.619023196069925 ], [ 6.416150181103323, 52.618667685391415 ], [ 6.412049107736523, 52.619868522530346 ], [ 6.411164158202961, 52.620823961530725 ], [ 6.409502226821514, 52.621733256920997 ], [ 6.406288873263938, 52.620564140766589 ], [ 6.405893772310601, 52.618708819186423 ], [ 6.406858313615219, 52.617780995466426 ], [ 6.403720254803646, 52.616254218100906 ], [ 6.40112350045989, 52.616259600923136 ], [ 6.396035213390098, 52.617787962008485 ], [ 6.39384557965928, 52.617233470619539 ], [ 6.391522214618107, 52.614519411388137 ], [ 6.386778182706293, 52.613619992426514 ], [ 6.384084204030553, 52.612250148694528 ], [ 6.38204825941548, 52.615645496110346 ], [ 6.380252686628686, 52.615021413709542 ], [ 6.376551951970085, 52.616893341954643 ], [ 6.376057763719629, 52.617809722318249 ], [ 6.377239350738519, 52.620013453821045 ], [ 6.373618325118223, 52.623326411227922 ], [ 6.375550335038574, 52.626155745578608 ], [ 6.375205894712018, 52.627408128161534 ], [ 6.374137225875314, 52.62900978963367 ], [ 6.372276194031979, 52.629498970024791 ], [ 6.370981664561336, 52.63166020083883 ], [ 6.369204207769536, 52.632191529010832 ], [ 6.368602558199529, 52.633525822732999 ], [ 6.369777887808873, 52.635001962470938 ], [ 6.366407941294693, 52.637453368237537 ], [ 6.363907090116774, 52.638376033242679 ], [ 6.364102333411775, 52.643141677145927 ], [ 6.359440778852816, 52.645518667708629 ], [ 6.353476645108288, 52.646280646135246 ], [ 6.351726150441187, 52.648304556716653 ], [ 6.343596313948654, 52.651157800614463 ], [ 6.341719616459216, 52.653685593520741 ], [ 6.334002897046376, 52.65469886288426 ], [ 6.331200772252643, 52.657161135681818 ], [ 6.327797712082432, 52.658692745940009 ], [ 6.326340171654624, 52.658958165972216 ], [ 6.32588363516166, 52.659708768908381 ], [ 6.327224595200471, 52.660446807063785 ], [ 6.325871335468251, 52.661154530180696 ], [ 6.325857254160353, 52.662809812832926 ], [ 6.327620350646542, 52.663717666444185 ], [ 6.328516813302949, 52.665378105782885 ], [ 6.329290121716742, 52.665398458295165 ], [ 6.328004446000201, 52.666131656029435 ], [ 6.328711465218054, 52.666738531138684 ], [ 6.326938166791154, 52.669206946563691 ], [ 6.32252931668311, 52.670437817420932 ], [ 6.319587166594433, 52.670397975190461 ], [ 6.318960577669068, 52.669721239855448 ], [ 6.316740213285884, 52.669895287559932 ], [ 6.316816293861136, 52.669493482532779 ], [ 6.314957066778227, 52.669424572505129 ], [ 6.314821762135714, 52.668750793977367 ], [ 6.31387525525934, 52.668688422294565 ], [ 6.314103204466315, 52.668058168843629 ], [ 6.312080466000435, 52.668055459193347 ], [ 6.311659698958236, 52.66733871442144 ], [ 6.309670373821541, 52.666752931597841 ], [ 6.305825840189184, 52.666239250165859 ], [ 6.302621769081127, 52.667346233027814 ], [ 6.301889387898437, 52.666996864078918 ], [ 6.30228807662636, 52.666426722742578 ], [ 6.299676185312037, 52.66649693663593 ], [ 6.299688873554443, 52.665830723752478 ], [ 6.297562993626467, 52.666369434185995 ], [ 6.295195624925863, 52.663577513741672 ], [ 6.295547777955921, 52.662322212525872 ], [ 6.291946865009482, 52.662437314664515 ], [ 6.28905617588351, 52.663249161900382 ], [ 6.288269668275239, 52.663887389773514 ], [ 6.287486929725603, 52.663452600924948 ], [ 6.287226183041432, 52.664180645275486 ], [ 6.285052513019399, 52.665394352940908 ], [ 6.285490726718195, 52.66699179000144 ], [ 6.284530862503196, 52.667153023358168 ], [ 6.282704902858257, 52.668219297085699 ], [ 6.279056394253375, 52.669051256916859 ], [ 6.277905351934542, 52.668539358943484 ], [ 6.277350399376807, 52.6689305049876 ], [ 6.276253934660228, 52.667313113492042 ], [ 6.274513303199958, 52.666897962810488 ], [ 6.273338909296204, 52.664910160152452 ], [ 6.270067118640723, 52.664794115489258 ], [ 6.265895500735187, 52.666780288866001 ], [ 6.265501196200828, 52.667987742818426 ], [ 6.265488593579009, 52.669139098750207 ], [ 6.260535137853612, 52.670477824985689 ], [ 6.258176249145111, 52.66981836486876 ], [ 6.257419645720104, 52.670407574304562 ], [ 6.255911664609813, 52.66960163547072 ], [ 6.255079121221753, 52.670072004836946 ], [ 6.25473558614395, 52.669578783803956 ], [ 6.254256084485587, 52.670197874230801 ], [ 6.252001453259641, 52.669881372345905 ], [ 6.250269866157701, 52.671095749729162 ], [ 6.250612398168625, 52.671867177789018 ], [ 6.249200655354276, 52.67139681840893 ], [ 6.247337724691818, 52.67277560279669 ], [ 6.24896575680243, 52.673901117476021 ], [ 6.248365116115928, 52.675616795185832 ], [ 6.2434989787382, 52.678785503776822 ], [ 6.240503845977083, 52.677728662828287 ], [ 6.237074549476974, 52.67754764204566 ], [ 6.236807713437353, 52.678028818668444 ], [ 6.23284313212624, 52.679109353717202 ], [ 6.232925214914879, 52.679870503725837 ], [ 6.234060829111597, 52.680237735302768 ], [ 6.232650879322269, 52.681486432978687 ], [ 6.230663080562548, 52.681185548995906 ], [ 6.228691677935881, 52.681648828269381 ], [ 6.228231321524478, 52.681286352872533 ], [ 6.227698472179235, 52.681725566479066 ], [ 6.227182079201267, 52.681252623959402 ], [ 6.224905432004001, 52.682431151605826 ], [ 6.222720663661625, 52.682682680766838 ], [ 6.220993952363883, 52.682827613725621 ], [ 6.221170383083431, 52.683475919590109 ], [ 6.2187146943423, 52.684377279853713 ], [ 6.219806801429319, 52.685704467255078 ], [ 6.218402153883292, 52.686004547150304 ], [ 6.217425732233944, 52.685516424899802 ], [ 6.216584426166579, 52.686392844297544 ], [ 6.214095681496453, 52.686315589871114 ], [ 6.213743566252629, 52.685652839504073 ], [ 6.212113741420614, 52.685308399766669 ], [ 6.21249957568071, 52.684632930914127 ], [ 6.210181145336232, 52.685224203424134 ], [ 6.206463368140239, 52.684858525812039 ], [ 6.204984856643936, 52.684161047349221 ], [ 6.203936625216651, 52.684666966263585 ], [ 6.201681519824245, 52.684620280616315 ], [ 6.196477516221693, 52.680865756048888 ], [ 6.194474830628677, 52.678825046860986 ], [ 6.194229772859433, 52.676629584739651 ], [ 6.192054771478228, 52.676426471952858 ], [ 6.191444463570348, 52.679319849155164 ], [ 6.18786218502019, 52.679613748261012 ], [ 6.18587068916535, 52.682503513492669 ], [ 6.180548202771474, 52.681587873604734 ], [ 6.184208083337609, 52.677207832519422 ], [ 6.181932923846942, 52.676868203159209 ], [ 6.183146848169665, 52.675063274466623 ], [ 6.170132267268467, 52.677936059580091 ], [ 6.162996113548568, 52.680061819242596 ], [ 6.168972509145628, 52.685533311993133 ], [ 6.169650899088706, 52.686120770486554 ], [ 6.168195568880411, 52.688135876627548 ], [ 6.166352122354099, 52.688945174946269 ], [ 6.164924734811394, 52.68888951156147 ], [ 6.162579865414327, 52.691061151131976 ], [ 6.158976041701886, 52.692154178243577 ], [ 6.158802689982939, 52.692480210676429 ], [ 6.156494931564193, 52.692130391839825 ], [ 6.153820607020068, 52.697336960385464 ], [ 6.151435882741209, 52.701376520061622 ], [ 6.151985051448839, 52.701596989063233 ], [ 6.151422778458543, 52.702882722176454 ], [ 6.14391846973262, 52.714264958208517 ], [ 6.142647085262952, 52.716326359268045 ], [ 6.139934973710029, 52.720362512538443 ], [ 6.132976388754846, 52.731396320068448 ], [ 6.129147870073887, 52.738028284859119 ], [ 6.127093624404966, 52.740263863537891 ], [ 6.120376223473515, 52.750242462786325 ], [ 6.121597328516485, 52.754210156892015 ], [ 6.126330462254879, 52.756834372980869 ], [ 6.132468094210344, 52.75866799431914 ], [ 6.140858806850885, 52.759602399516233 ], [ 6.156496419307965, 52.762650138322762 ], [ 6.160153703574037, 52.764658577178494 ], [ 6.163939986186745, 52.766449346108693 ], [ 6.168525388810377, 52.767093492618336 ], [ 6.172905974006889, 52.773054255543229 ], [ 6.176583985143909, 52.775199754642045 ], [ 6.184810149049468, 52.78030455941115 ], [ 6.193807864719061, 52.78640280634567 ], [ 6.201730742250688, 52.793696094817079 ], [ 6.199103524028965, 52.795828296162412 ], [ 6.185121238065105, 52.807224112495028 ], [ 6.180458078998799, 52.81103425793949 ], [ 6.177229782604304, 52.813851091568431 ], [ 6.172418931200511, 52.815639083785271 ], [ 6.171408177771927, 52.815255504945277 ], [ 6.157643904295626, 52.825035548879612 ], [ 6.151714833102758, 52.827399158478634 ], [ 6.149895735808826, 52.828123878831406 ], [ 6.149198956909105, 52.828402418387867 ], [ 6.149564678416673, 52.828458969850281 ], [ 6.151962155268811, 52.828829686180249 ], [ 6.150288736260284, 52.829940318500924 ], [ 6.136820738774003, 52.838825432627104 ], [ 6.130451673129389, 52.843872550585857 ], [ 6.128694393238034, 52.847807370316893 ], [ 6.119819889813939, 52.854214943213968 ], [ 6.120994744399524, 52.854649755133138 ], [ 6.140512521204493, 52.863478116252836 ], [ 6.141219093222964, 52.863799652605834 ], [ 6.160459547956042, 52.872520776122251 ], [ 6.190679751566051, 52.884478855529558 ], [ 6.200811950567222, 52.88837858263976 ], [ 6.206900007036154, 52.890743861189961 ], [ 6.228785292603344, 52.910302296164346 ], [ 6.232291053300591, 52.913438179885944 ], [ 6.24234301581247, 52.91834521753664 ], [ 6.244829592805605, 52.91958699934942 ], [ 6.247258689549847, 52.923347445666529 ], [ 6.247552946602442, 52.923691686162641 ], [ 6.256593063409256, 52.927641232936004 ], [ 6.283155242574852, 52.926147737146152 ], [ 6.302985255135563, 52.924972366748136 ], [ 6.333280544507836, 52.906356065205784 ], [ 6.369026187023093, 52.921975626178636 ], [ 6.393435770296861, 52.932843447366771 ], [ 6.402671156057106, 52.94338181005714 ], [ 6.427614708971872, 52.971815400073467 ], [ 6.422622955087762, 52.976593131988935 ], [ 6.413279837634505, 52.985522927333342 ], [ 6.40268646302724, 52.995653341261203 ], [ 6.374071937903996, 53.022956340851771 ], [ 6.362521372211423, 53.033969029095019 ], [ 6.36321882835212, 53.039262454019173 ], [ 6.364923966736113, 53.051977886894697 ], [ 6.367810520184601, 53.067359995389872 ], [ 6.351724581935016, 53.070931511938333 ], [ 6.332381542652382, 53.075207186889187 ], [ 6.332055348601995, 53.0752793786572 ], [ 6.305273761233356, 53.081189548535797 ], [ 6.31515744850534, 53.09405278464002 ], [ 6.337795882194794, 53.088688845633612 ], [ 6.340999242976237, 53.087944586162671 ], [ 6.344442859550672, 53.087150569019684 ], [ 6.356620477282122, 53.107084517866731 ], [ 6.363559885381331, 53.107560247350143 ], [ 6.365354000034606, 53.119527280419234 ], [ 6.365626896316197, 53.12128980155935 ], [ 6.366051891437271, 53.122558348791934 ], [ 6.381472577413085, 53.147737856735517 ], [ 6.382612271281861, 53.149570489733819 ], [ 6.381546329972608, 53.149592673777278 ], [ 6.381564016423236, 53.153185861044051 ], [ 6.38147095938595, 53.153436020838853 ], [ 6.388728550866063, 53.158014771848592 ], [ 6.391128129136729, 53.159418754322303 ], [ 6.395093718111999, 53.163528721334728 ], [ 6.397614301639024, 53.164512720955088 ], [ 6.398594459547915, 53.164862105937608 ], [ 6.402687250940926, 53.167005663107595 ], [ 6.404137894491499, 53.168572379931149 ], [ 6.404120699733266, 53.172955005814444 ], [ 6.405469531334325, 53.176282999785826 ], [ 6.405593276087354, 53.176474865757896 ], [ 6.407970277615127, 53.17814843033424 ], [ 6.424487530526685, 53.181678021923823 ], [ 6.438017906438784, 53.185651536069159 ], [ 6.442866783736723, 53.187740423089181 ], [ 6.445661941956306, 53.191015487182668 ], [ 6.447712074699071, 53.196440585061325 ], [ 6.449947913307895, 53.196696706443497 ], [ 6.463461420829451, 53.200058230954397 ], [ 6.481511831532542, 53.203553437168608 ], [ 6.48571682935421, 53.203821257815676 ], [ 6.49269520123333, 53.200576851392086 ], [ 6.493504905877004, 53.198497018680527 ] ] ] ] } },
{ "type": "Feature", "properties": { "statcode": "ET0501", "id": 5, "jrstatcode": "2021ET0501", "statnaam": "West-Overijssel", "rubriek": "subres_regio", "gid": "ET0501", "label": "West-Overijssel" }, "geometry": { "type": "MultiPolygon", "coordinates": [ [ [ [ 5.796299949641434, 52.592285370355079 ], [ 5.797763300088231, 52.590747103944985 ], [ 5.792390090252708, 52.591164994697813 ], [ 5.788995895232446, 52.592257211627711 ], [ 5.787683902927829, 52.592003324136762 ], [ 5.788362261232122, 52.590497219188315 ], [ 5.790772513960774, 52.589428744858246 ], [ 5.791503506858661, 52.588028573874084 ], [ 5.790331046891735, 52.587389919176282 ], [ 5.785195349022183, 52.591905965829994 ], [ 5.786838690019265, 52.593184233551874 ], [ 5.793692034487129, 52.593473178916064 ], [ 5.796299949641434, 52.592285370355079 ] ] ], [ [ [ 5.806702059770319, 52.590599052338909 ], [ 5.808490489781688, 52.590201896667537 ], [ 5.809970142785384, 52.590762793237189 ], [ 5.811820380219712, 52.593571632205965 ], [ 5.817598068152772, 52.591697095799375 ], [ 5.807966956606641, 52.589085851612801 ], [ 5.8023202115353, 52.59213751858001 ], [ 5.800416373722606, 52.595739599955749 ], [ 5.800664614767055, 52.596833091275911 ], [ 5.801725376471885, 52.597307027187611 ], [ 5.806147373295037, 52.596083968932611 ], [ 5.80727407843148, 52.594705993935548 ], [ 5.806702059770319, 52.590599052338909 ] ] ], [ [ [ 5.833901485383119, 52.607343359619051 ], [ 5.834100268660707, 52.605514449527732 ], [ 5.827656258489055, 52.601398521146677 ], [ 5.829358783705383, 52.593325916935171 ], [ 5.823792294012924, 52.593540557469929 ], [ 5.815499759728126, 52.597575872983164 ], [ 5.80987680038145, 52.597905265194086 ], [ 5.802084152379185, 52.60312539417837 ], [ 5.801936585252576, 52.604834054384867 ], [ 5.803562903970398, 52.606038696198517 ], [ 5.808117727354837, 52.607289969078202 ], [ 5.810751720394312, 52.606850248176983 ], [ 5.833901485383119, 52.607343359619051 ] ] ], [ [ [ 6.136820738774003, 52.838825432627104 ], [ 6.150288736260284, 52.829940318500924 ], [ 6.151962155268811, 52.828829686180249 ], [ 6.149564678416673, 52.828458969850281 ], [ 6.149198956909105, 52.828402418387867 ], [ 6.149895735808826, 52.828123878831406 ], [ 6.151714833102758, 52.827399158478634 ], [ 6.157643904295626, 52.825035548879612 ], [ 6.171408177771927, 52.815255504945277 ], [ 6.172418931200511, 52.815639083785271 ], [ 6.177229782604304, 52.813851091568431 ], [ 6.180458078998799, 52.81103425793949 ], [ 6.185121238065105, 52.807224112495028 ], [ 6.199103524028965, 52.795828296162412 ], [ 6.201730742250688, 52.793696094817079 ], [ 6.193807864719061, 52.78640280634567 ], [ 6.184810149049468, 52.78030455941115 ], [ 6.176583985143909, 52.775199754642045 ], [ 6.172905974006889, 52.773054255543229 ], [ 6.168525388810377, 52.767093492618336 ], [ 6.163939986186745, 52.766449346108693 ], [ 6.160153703574037, 52.764658577178494 ], [ 6.156496419307965, 52.762650138322762 ], [ 6.140858806850885, 52.759602399516233 ], [ 6.132468094210344, 52.75866799431914 ], [ 6.126330462254879, 52.756834372980869 ], [ 6.121597328516485, 52.754210156892015 ], [ 6.120376223473515, 52.750242462786325 ], [ 6.127093624404966, 52.740263863537891 ], [ 6.129147870073887, 52.738028284859119 ], [ 6.132976388754846, 52.731396320068448 ], [ 6.139934973710029, 52.720362512538443 ], [ 6.142647085262952, 52.716326359268045 ], [ 6.14391846973262, 52.714264958208517 ], [ 6.151422778458543, 52.702882722176454 ], [ 6.151985051448839, 52.701596989063233 ], [ 6.151435882741209, 52.701376520061622 ], [ 6.153820607020068, 52.697336960385464 ], [ 6.156494931564193, 52.692130391839825 ], [ 6.158802689982939, 52.692480210676429 ], [ 6.158976041701886, 52.692154178243577 ], [ 6.162579865414327, 52.691061151131976 ], [ 6.164924734811394, 52.68888951156147 ], [ 6.166352122354099, 52.688945174946269 ], [ 6.168195568880411, 52.688135876627548 ], [ 6.169650899088706, 52.686120770486554 ], [ 6.168972509145628, 52.685533311993133 ], [ 6.162996113548568, 52.680061819242596 ], [ 6.170132267268467, 52.677936059580091 ], [ 6.183146848169665, 52.675063274466623 ], [ 6.181932923846942, 52.676868203159209 ], [ 6.184208083337609, 52.677207832519422 ], [ 6.180548202771474, 52.681587873604734 ], [ 6.18587068916535, 52.682503513492669 ], [ 6.18786218502019, 52.679613748261012 ], [ 6.191444463570348, 52.679319849155164 ], [ 6.192054771478228, 52.676426471952858 ], [ 6.194229772859433, 52.676629584739651 ], [ 6.194474830628677, 52.678825046860986 ], [ 6.196477516221693, 52.680865756048888 ], [ 6.201681519824245, 52.684620280616315 ], [ 6.203936625216651, 52.684666966263585 ], [ 6.204984856643936, 52.684161047349221 ], [ 6.206463368140239, 52.684858525812039 ], [ 6.210181145336232, 52.685224203424134 ], [ 6.21249957568071, 52.684632930914127 ], [ 6.212113741420614, 52.685308399766669 ], [ 6.213743566252629, 52.685652839504073 ], [ 6.214095681496453, 52.686315589871114 ], [ 6.216584426166579, 52.686392844297544 ], [ 6.217425732233944, 52.685516424899802 ], [ 6.218402153883292, 52.686004547150304 ], [ 6.219806801429319, 52.685704467255078 ], [ 6.2187146943423, 52.684377279853713 ], [ 6.221170383083431, 52.683475919590109 ], [ 6.220993952363883, 52.682827613725621 ], [ 6.222720663661625, 52.682682680766838 ], [ 6.224905432004001, 52.682431151605826 ], [ 6.227182079201267, 52.681252623959402 ], [ 6.227698472179235, 52.681725566479066 ], [ 6.228231321524478, 52.681286352872533 ], [ 6.228691677935881, 52.681648828269381 ], [ 6.230663080562548, 52.681185548995906 ], [ 6.232650879322269, 52.681486432978687 ], [ 6.234060829111597, 52.680237735302768 ], [ 6.232925214914879, 52.679870503725837 ], [ 6.23284313212624, 52.679109353717202 ], [ 6.236807713437353, 52.678028818668444 ], [ 6.237074549476974, 52.67754764204566 ], [ 6.240503845977083, 52.677728662828287 ], [ 6.2434989787382, 52.678785503776822 ], [ 6.248365116115928, 52.675616795185832 ], [ 6.24896575680243, 52.673901117476021 ], [ 6.247337724691818, 52.67277560279669 ], [ 6.249200655354276, 52.67139681840893 ], [ 6.250612398168625, 52.671867177789018 ], [ 6.250269866157701, 52.671095749729162 ], [ 6.252001453259641, 52.669881372345905 ], [ 6.254256084485587, 52.670197874230801 ], [ 6.25473558614395, 52.669578783803956 ], [ 6.255079121221753, 52.670072004836946 ], [ 6.255911664609813, 52.66960163547072 ], [ 6.257419645720104, 52.670407574304562 ], [ 6.258176249145111, 52.66981836486876 ], [ 6.260535137853612, 52.670477824985689 ], [ 6.265488593579009, 52.669139098750207 ], [ 6.265501196200828, 52.667987742818426 ], [ 6.265895500735187, 52.666780288866001 ], [ 6.270067118640723, 52.664794115489258 ], [ 6.273338909296204, 52.664910160152452 ], [ 6.274513303199958, 52.666897962810488 ], [ 6.276253934660228, 52.667313113492042 ], [ 6.277350399376807, 52.6689305049876 ], [ 6.277905351934542, 52.668539358943484 ], [ 6.279056394253375, 52.669051256916859 ], [ 6.282704902858257, 52.668219297085699 ], [ 6.284530862503196, 52.667153023358168 ], [ 6.285490726718195, 52.66699179000144 ], [ 6.285052513019399, 52.665394352940908 ], [ 6.287226183041432, 52.664180645275486 ], [ 6.287486929725603, 52.663452600924948 ], [ 6.288269668275239, 52.663887389773514 ], [ 6.28905617588351, 52.663249161900382 ], [ 6.291946865009482, 52.662437314664515 ], [ 6.295547777955921, 52.662322212525872 ], [ 6.295195624925863, 52.663577513741672 ], [ 6.297562993626467, 52.666369434185995 ], [ 6.299688873554443, 52.665830723752478 ], [ 6.299676185312037, 52.66649693663593 ], [ 6.30228807662636, 52.666426722742578 ], [ 6.301889387898437, 52.666996864078918 ], [ 6.302621769081127, 52.667346233027814 ], [ 6.305825840189184, 52.666239250165859 ], [ 6.309670373821541, 52.666752931597841 ], [ 6.311659698958236, 52.66733871442144 ], [ 6.312080466000435, 52.668055459193347 ], [ 6.314103204466315, 52.668058168843629 ], [ 6.31387525525934, 52.668688422294565 ], [ 6.314821762135714, 52.668750793977367 ], [ 6.314957066778227, 52.669424572505129 ], [ 6.316816293861136, 52.669493482532779 ], [ 6.316740213285884, 52.669895287559932 ], [ 6.318960577669068, 52.669721239855448 ], [ 6.319587166594433, 52.670397975190461 ], [ 6.32252931668311, 52.670437817420932 ], [ 6.326938166791154, 52.669206946563691 ], [ 6.328711465218054, 52.666738531138684 ], [ 6.328004446000201, 52.666131656029435 ], [ 6.329290121716742, 52.665398458295165 ], [ 6.328516813302949, 52.665378105782885 ], [ 6.327620350646542, 52.663717666444185 ], [ 6.325857254160353, 52.662809812832926 ], [ 6.325871335468251, 52.661154530180696 ], [ 6.327224595200471, 52.660446807063785 ], [ 6.32588363516166, 52.659708768908381 ], [ 6.326340171654624, 52.658958165972216 ], [ 6.327797712082432, 52.658692745940009 ], [ 6.331200772252643, 52.657161135681818 ], [ 6.334002897046376, 52.65469886288426 ], [ 6.341719616459216, 52.653685593520741 ], [ 6.343596313948654, 52.651157800614463 ], [ 6.351726150441187, 52.648304556716653 ], [ 6.353476645108288, 52.646280646135246 ], [ 6.359440778852816, 52.645518667708629 ], [ 6.364102333411775, 52.643141677145927 ], [ 6.363907090116774, 52.638376033242679 ], [ 6.366407941294693, 52.637453368237537 ], [ 6.369777887808873, 52.635001962470938 ], [ 6.368602558199529, 52.633525822732999 ], [ 6.369204207769536, 52.632191529010832 ], [ 6.370981664561336, 52.63166020083883 ], [ 6.372276194031979, 52.629498970024791 ], [ 6.374137225875314, 52.62900978963367 ], [ 6.375205894712018, 52.627408128161534 ], [ 6.375550335038574, 52.626155745578608 ], [ 6.373618325118223, 52.623326411227922 ], [ 6.377239350738519, 52.620013453821045 ], [ 6.376057763719629, 52.617809722318249 ], [ 6.376551951970085, 52.616893341954643 ], [ 6.380252686628686, 52.615021413709542 ], [ 6.38204825941548, 52.615645496110346 ], [ 6.384084204030553, 52.612250148694528 ], [ 6.386778182706293, 52.613619992426514 ], [ 6.391522214618107, 52.614519411388137 ], [ 6.39384557965928, 52.617233470619539 ], [ 6.396035213390098, 52.617787962008485 ], [ 6.40112350045989, 52.616259600923136 ], [ 6.403720254803646, 52.616254218100906 ], [ 6.406858313615219, 52.617780995466426 ], [ 6.405893772310601, 52.618708819186423 ], [ 6.406288873263938, 52.620564140766589 ], [ 6.409502226821514, 52.621733256920997 ], [ 6.411164158202961, 52.620823961530725 ], [ 6.412049107736523, 52.619868522530346 ], [ 6.416150181103323, 52.618667685391415 ], [ 6.418808495764567, 52.619023196069925 ], [ 6.421609580579085, 52.623044661384768 ], [ 6.426886440704144, 52.624638413643282 ], [ 6.426036660433751, 52.62651255391242 ], [ 6.428176485008926, 52.628188499183295 ], [ 6.431326151571549, 52.628369560054928 ], [ 6.432992225603014, 52.627765045330307 ], [ 6.433803064378496, 52.626409209750264 ], [ 6.435639303764576, 52.621570118858756 ], [ 6.435601399497361, 52.62085314249439 ], [ 6.434471419511146, 52.620452638201208 ], [ 6.434934370169245, 52.619285543995552 ], [ 6.438410263827006, 52.61707450501806 ], [ 6.442345351937081, 52.61580356832004 ], [ 6.443032863584334, 52.616195496389508 ], [ 6.453476975385101, 52.61395567145393 ], [ 6.460707527145392, 52.616991427603772 ], [ 6.464035318725264, 52.623875782786946 ], [ 6.469965169490716, 52.62498568091199 ], [ 6.472368731049734, 52.624579261021765 ], [ 6.474200364375848, 52.620744987385372 ], [ 6.478016185958721, 52.618631302333931 ], [ 6.480581221693939, 52.618154766732331 ], [ 6.48389550660296, 52.619076566970342 ], [ 6.49153488469897, 52.619170282391792 ], [ 6.500009912891226, 52.617969705578545 ], [ 6.50465358825712, 52.617015293768702 ], [ 6.512026842164047, 52.613649665850154 ], [ 6.518604190693368, 52.614087840754515 ], [ 6.518246983973325, 52.616468197433711 ], [ 6.518021880965973, 52.617988584612029 ], [ 6.517865759899093, 52.618917923488432 ], [ 6.514013777540985, 52.645272014794784 ], [ 6.513861463898781, 52.64629376771876 ], [ 6.529283780702445, 52.654452758278374 ], [ 6.52938067357998, 52.654507311662918 ], [ 6.547745896806874, 52.663971361415008 ], [ 6.552821389712455, 52.665594962035094 ], [ 6.581049585936306, 52.669472936925644 ], [ 6.603800826961591, 52.672585345039835 ], [ 6.612980139712229, 52.673838285224257 ], [ 6.614526801508529, 52.674049271295019 ], [ 6.629453215700452, 52.669688235180011 ], [ 6.646739218663822, 52.66463949893938 ], [ 6.655650817346135, 52.662033669628173 ], [ 6.686078996700155, 52.653430947842679 ], [ 6.701414907027465, 52.650221834393285 ], [ 6.708334040325407, 52.648758865457012 ], [ 6.708024982936118, 52.647720721084774 ], [ 6.705528562262308, 52.645652050496103 ], [ 6.705383141851236, 52.643320828573181 ], [ 6.702065961567727, 52.642466315179924 ], [ 6.70116870336049, 52.641668372709709 ], [ 6.702170324789996, 52.641083649670058 ], [ 6.70569791038866, 52.640890288005757 ], [ 6.706525507477098, 52.639542141108038 ], [ 6.703474020391182, 52.636119044411728 ], [ 6.70349769377431, 52.635232557250099 ], [ 6.703499190762292, 52.635224771369685 ], [ 6.703502453069875, 52.635144753873305 ], [ 6.703266452042978, 52.634351391874425 ], [ 6.704522781240946, 52.633139431879634 ], [ 6.702865115035186, 52.630675141600427 ], [ 6.70091086143047, 52.62940079650992 ], [ 6.700860413614461, 52.628320239411842 ], [ 6.702004531148243, 52.627267051404864 ], [ 6.704965671300803, 52.627304365608232 ], [ 6.707156194270163, 52.626765123989308 ], [ 6.70802152011234, 52.628007120365389 ], [ 6.710053111744895, 52.627820281038389 ], [ 6.710145316298439, 52.627314922639876 ], [ 6.712004672561547, 52.626831867248185 ], [ 6.714241987781945, 52.626767273130135 ], [ 6.718250601634788, 52.623381818902295 ], [ 6.718657023257101, 52.621946533979731 ], [ 6.722909600830033, 52.620372184388692 ], [ 6.727288774745401, 52.614927882040377 ], [ 6.724353457156621, 52.608329648289995 ], [ 6.723754662504273, 52.60312877111474 ], [ 6.720973400515876, 52.598351607392907 ], [ 6.720705922769436, 52.596452763451808 ], [ 6.721573865187763, 52.594874251117709 ], [ 6.719949092837918, 52.593261946464253 ], [ 6.718772635504042, 52.588640243776688 ], [ 6.766659903901161, 52.563532729659649 ], [ 6.766692023326305, 52.561636895475011 ], [ 6.764045566477053, 52.561584291755572 ], [ 6.752533512986072, 52.559040842677561 ], [ 6.740103234711993, 52.562053473618143 ], [ 6.734371319932806, 52.561762451078096 ], [ 6.725917532381692, 52.563161008908068 ], [ 6.720981634485891, 52.553013579711539 ], [ 6.719996096164958, 52.551669757475807 ], [ 6.7162409843715, 52.550202259967257 ], [ 6.716264184179021, 52.548524813402274 ], [ 6.697557678687741, 52.551057264147133 ], [ 6.683975654543354, 52.552899273131764 ], [ 6.680879905650527, 52.553317438494808 ], [ 6.694922485734548, 52.534771895776601 ], [ 6.705332478360745, 52.52100755762001 ], [ 6.697584620905226, 52.486298238587104 ], [ 6.693485356756647, 52.486327108808766 ], [ 6.673086988009048, 52.493627326168912 ], [ 6.669301277978281, 52.494980733280094 ], [ 6.663283126772645, 52.492486503564358 ], [ 6.653659030798507, 52.487832163353403 ], [ 6.654578210321505, 52.482715243467723 ], [ 6.647459617032291, 52.478614039207137 ], [ 6.651100231411975, 52.475156775430598 ], [ 6.649555602188943, 52.473089884524732 ], [ 6.641541226493295, 52.471243853269876 ], [ 6.640584449524852, 52.473105145973086 ], [ 6.635620649250807, 52.471647225033607 ], [ 6.631216804852325, 52.47197258753183 ], [ 6.626820825612096, 52.473831259871304 ], [ 6.62260703990185, 52.471475266138548 ], [ 6.616059813910055, 52.46882955263542 ], [ 6.613001383776306, 52.46560324783502 ], [ 6.611421202507752, 52.466864917936974 ], [ 6.601035022487896, 52.479470231660919 ], [ 6.595188119720464, 52.480303296289563 ], [ 6.572990616939872, 52.484271540403093 ], [ 6.565289076124336, 52.485654092924534 ], [ 6.554463460120806, 52.487593288491439 ], [ 6.534360843034507, 52.488978240822597 ], [ 6.509787499017485, 52.490666459772946 ], [ 6.505468751316482, 52.49096261412965 ], [ 6.503773163427531, 52.481721681768917 ], [ 6.497427579879408, 52.481292464313235 ], [ 6.494808907665208, 52.481002086339181 ], [ 6.49578967353491, 52.479256193548146 ], [ 6.492504007544747, 52.479258634176446 ], [ 6.488575953585879, 52.47686220772826 ], [ 6.47840512492063, 52.477604500518289 ], [ 6.472442446026532, 52.475688325263071 ], [ 6.465451517169998, 52.475115462591937 ], [ 6.461504407409619, 52.473340664923718 ], [ 6.461621429409667, 52.47225893296693 ], [ 6.460713572846958, 52.471954257199499 ], [ 6.461449387950007, 52.471362701072401 ], [ 6.458682428709185, 52.469974651327689 ], [ 6.454260130238473, 52.469319059332683 ], [ 6.452912438930019, 52.470047811924758 ], [ 6.453645101972204, 52.471316207239298 ], [ 6.45247911846046, 52.471002221585124 ], [ 6.452644249950014, 52.469490140940039 ], [ 6.450679284702248, 52.46880029834437 ], [ 6.450733935267566, 52.467936211613171 ], [ 6.453273315275438, 52.466489283430441 ], [ 6.45235536839072, 52.464516656121575 ], [ 6.451545327202552, 52.464741813391456 ], [ 6.450405708888006, 52.466891274086848 ], [ 6.448375183023087, 52.466468661387523 ], [ 6.447528779982874, 52.464945361094841 ], [ 6.449942916524285, 52.461935067934 ], [ 6.451377015095997, 52.461525046481711 ], [ 6.450098300749774, 52.461256417645565 ], [ 6.447423634286914, 52.461698150816986 ], [ 6.445628045635755, 52.460918954673261 ], [ 6.444597415769334, 52.45903833233001 ], [ 6.446017643712596, 52.457509111424493 ], [ 6.442959848393643, 52.456929779337507 ], [ 6.442183155688453, 52.456311423255066 ], [ 6.441781763160535, 52.455249981152598 ], [ 6.444381940010968, 52.454615478890517 ], [ 6.442515760796065, 52.450070679789221 ], [ 6.438209503540834, 52.447887011261784 ], [ 6.438686691940599, 52.445887682566919 ], [ 6.437563378697964, 52.44482827052471 ], [ 6.438408355518782, 52.444025024642869 ], [ 6.429899835904802, 52.439304798919224 ], [ 6.390315132103749, 52.428144518025022 ], [ 6.405169501316328, 52.415541601676402 ], [ 6.401364350000167, 52.406327526859648 ], [ 6.394470405217801, 52.392206881497465 ], [ 6.388649109389382, 52.380312599162259 ], [ 6.382474658364679, 52.380649318822528 ], [ 6.357262196417719, 52.377030583049091 ], [ 6.343082139489049, 52.370031990503968 ], [ 6.335939378395434, 52.356208723614607 ], [ 6.333501865496546, 52.35139833687704 ], [ 6.336206238850824, 52.346516100181439 ], [ 6.342387949062181, 52.333169266962905 ], [ 6.345390934447161, 52.329195908962753 ], [ 6.350177263797337, 52.324062655521708 ], [ 6.354836626726702, 52.319399369876884 ], [ 6.356015671871734, 52.318218784544172 ], [ 6.341193785958088, 52.309078486349918 ], [ 6.326529854159441, 52.301631538748147 ], [ 6.327820225818444, 52.290165259866228 ], [ 6.327823668872743, 52.29014268097481 ], [ 6.328842016114937, 52.281102975649098 ], [ 6.350537705824776, 52.271448780125141 ], [ 6.348856789769507, 52.269891831969822 ], [ 6.350831523319944, 52.269253913695664 ], [ 6.352126664844828, 52.270826937601171 ], [ 6.353489010073726, 52.270018490864864 ], [ 6.354883856505827, 52.269201242703943 ], [ 6.352842966155375, 52.268350480092586 ], [ 6.355376253978833, 52.267265675607739 ], [ 6.356718040344522, 52.26812823677362 ], [ 6.363062084355025, 52.264010292526116 ], [ 6.370775291365182, 52.260006451309103 ], [ 6.37294478155215, 52.260911200388165 ], [ 6.377162479294068, 52.258681335864402 ], [ 6.377222494131542, 52.256648603092351 ], [ 6.374809754495722, 52.256297905186941 ], [ 6.374880243525781, 52.255135949130334 ], [ 6.37728670191326, 52.254396473562032 ], [ 6.376342977284229, 52.252192939223697 ], [ 6.37711930369897, 52.250926725807219 ], [ 6.376720989178073, 52.250210266612001 ], [ 6.381171603034965, 52.247444827115984 ], [ 6.381133405316424, 52.24660356287913 ], [ 6.381851467515696, 52.246112806137582 ], [ 6.377348460162294, 52.244749947975535 ], [ 6.366851309466937, 52.241532139083041 ], [ 6.350891833189154, 52.241680081050539 ], [ 6.349651546646991, 52.2412412279511 ], [ 6.348640960335853, 52.238701003372597 ], [ 6.346622854158428, 52.23902943828967 ], [ 6.342019476026659, 52.237593425177707 ], [ 6.341476040136421, 52.236255948488292 ], [ 6.338056879224601, 52.23622294892035 ], [ 6.338708310456893, 52.227152863712853 ], [ 6.325434033916564, 52.226996635966586 ], [ 6.320429190856856, 52.22566908593469 ], [ 6.297942287326825, 52.225529829734612 ], [ 6.296951804475768, 52.229001220199194 ], [ 6.293035060811958, 52.2295124583503 ], [ 6.292829212313474, 52.230827227853233 ], [ 6.291812014163866, 52.230885359876105 ], [ 6.286333194131257, 52.230362024531956 ], [ 6.277803484616763, 52.228365207941714 ], [ 6.271007063089838, 52.227909923600137 ], [ 6.271290920265654, 52.226413631623835 ], [ 6.269400446443918, 52.226457389032568 ], [ 6.264718443763694, 52.227247808122371 ], [ 6.260835363413882, 52.229070970507458 ], [ 6.257294748831709, 52.227276217187139 ], [ 6.250871066601029, 52.226931314008546 ], [ 6.238053567412757, 52.227717463860813 ], [ 6.235203490578087, 52.228158402573335 ], [ 6.233920018898336, 52.229035419443093 ], [ 6.220539696567471, 52.229518170584583 ], [ 6.216480266498975, 52.231474716177061 ], [ 6.214501211604921, 52.231427282555394 ], [ 6.216948515734998, 52.226473646191089 ], [ 6.203110110559305, 52.229269222786179 ], [ 6.189135621400806, 52.229166511254469 ], [ 6.182530939976306, 52.23382502778346 ], [ 6.174214226076031, 52.232781328886951 ], [ 6.166268837707009, 52.231013772237098 ], [ 6.163028009938141, 52.228522100335759 ], [ 6.167597861608497, 52.227687379680219 ], [ 6.16843565822971, 52.227279006866503 ], [ 6.167865150178179, 52.226338599362087 ], [ 6.162499591052327, 52.227916910453786 ], [ 6.165722771071903, 52.223503322229909 ], [ 6.165276309001753, 52.222842290571066 ], [ 6.168671378148044, 52.220699148139531 ], [ 6.167525058681081, 52.220104477260179 ], [ 6.167647813548822, 52.218875375714958 ], [ 6.166684792561057, 52.218801968303325 ], [ 6.165962920301136, 52.217755671652071 ], [ 6.164068756580406, 52.217440649635826 ], [ 6.162627497586147, 52.218394721390268 ], [ 6.163985719039315, 52.221645977509567 ], [ 6.162172987886008, 52.224166159394386 ], [ 6.160153083160004, 52.225223153048198 ], [ 6.156509083670829, 52.225694583952624 ], [ 6.147509867584284, 52.227778200107146 ], [ 6.143079310210207, 52.231618325459806 ], [ 6.141707138254351, 52.234172112904716 ], [ 6.142236671996249, 52.238455863773112 ], [ 6.15116650162359, 52.242532554128459 ], [ 6.15384513692076, 52.244306195950067 ], [ 6.154199295358594, 52.245868595974613 ], [ 6.153337028011953, 52.247054730123303 ], [ 6.150020312675961, 52.248315931755641 ], [ 6.144509833673174, 52.24712230477035 ], [ 6.143502009670436, 52.246411691383543 ], [ 6.136722186140521, 52.249040832478087 ], [ 6.123865474099703, 52.251481106554081 ], [ 6.123637680650211, 52.253687891294391 ], [ 6.125144955739525, 52.256825359020198 ], [ 6.130069092332211, 52.260691389095435 ], [ 6.127446640198992, 52.261704981007043 ], [ 6.123907198761561, 52.264506876785774 ], [ 6.122981954336629, 52.269255441860629 ], [ 6.121109314789511, 52.272025580282659 ], [ 6.11236468658062, 52.278305040105472 ], [ 6.111267092650174, 52.280720619808136 ], [ 6.111321614889548, 52.28821082162073 ], [ 6.105864460742283, 52.292407967313885 ], [ 6.104770629452873, 52.29476203032938 ], [ 6.104994354024457, 52.296250164449717 ], [ 6.101320378574241, 52.301224771010816 ], [ 6.098741584505151, 52.301159907043129 ], [ 6.099194132176899, 52.30012834430449 ], [ 6.090902179517345, 52.299989468844693 ], [ 6.088129032360935, 52.300376296102719 ], [ 6.086234038960454, 52.30189784970257 ], [ 6.084071402267834, 52.301685920750479 ], [ 6.082927738390492, 52.307120152604561 ], [ 6.084398033558566, 52.311452102860109 ], [ 6.080990104414897, 52.311902477111609 ], [ 6.079693984190287, 52.317641541185708 ], [ 6.073775841492481, 52.317740939695931 ], [ 6.071842938412504, 52.317185071967266 ], [ 6.06652511104341, 52.317809111802127 ], [ 6.066086975300347, 52.320253074935188 ], [ 6.067387605722312, 52.321412889688801 ], [ 6.070705678723691, 52.321881899257015 ], [ 6.07368063105663, 52.330569239498494 ], [ 6.074355607432586, 52.332555801943307 ], [ 6.075632414187174, 52.333300161589577 ], [ 6.074053475342871, 52.334523645648162 ], [ 6.075579567098647, 52.334741762430895 ], [ 6.076764144533402, 52.33865076005204 ], [ 6.075329971359418, 52.344555536456213 ], [ 6.076131209263119, 52.34566932632805 ], [ 6.076070119108163, 52.350570293943335 ], [ 6.078098925430134, 52.35175579261977 ], [ 6.078009883891522, 52.352426431416376 ], [ 6.087240503660913, 52.353889999047155 ], [ 6.094778511487268, 52.356931059677841 ], [ 6.093522059905471, 52.358671708483932 ], [ 6.090712860047002, 52.360444157238469 ], [ 6.088487343946803, 52.361145661298778 ], [ 6.08088202347077, 52.362036110467706 ], [ 6.077844927652806, 52.364297060272413 ], [ 6.078203163966864, 52.369046167114298 ], [ 6.079701213856353, 52.370664849550771 ], [ 6.082463304485398, 52.372069291549678 ], [ 6.095133368065179, 52.373841133416477 ], [ 6.113371072549623, 52.377208825733859 ], [ 6.120853832327386, 52.379541971568422 ], [ 6.123650405581344, 52.38131818503421 ], [ 6.125829977270933, 52.384058534268021 ], [ 6.126196644568187, 52.386065931775228 ], [ 6.12520844874622, 52.392627168392409 ], [ 6.12997056433021, 52.39860332111666 ], [ 6.130552716496672, 52.399977689045215 ], [ 6.127579239459068, 52.399617304414107 ], [ 6.125372282358525, 52.400177330564127 ], [ 6.123683203429971, 52.401916156943358 ], [ 6.119064762234602, 52.402641874563493 ], [ 6.116246638484041, 52.404875138480755 ], [ 6.114857081912373, 52.406985379295534 ], [ 6.110806828784857, 52.407812562152969 ], [ 6.114741104917125, 52.414255603627836 ], [ 6.113572497705246, 52.416905667184849 ], [ 6.113871943593512, 52.419853255861725 ], [ 6.118244866540685, 52.426643841892677 ], [ 6.118169119449726, 52.428436841511576 ], [ 6.116385032308631, 52.43019943026929 ], [ 6.119489293919116, 52.432925717223355 ], [ 6.114106681759369, 52.438006465096798 ], [ 6.109580016796527, 52.440530727870694 ], [ 6.105023646038435, 52.442586571067778 ], [ 6.102294635813016, 52.445771899025083 ], [ 6.101985938318848, 52.447799946877502 ], [ 6.103545928864001, 52.453963716689124 ], [ 6.101701232463003, 52.466347274919379 ], [ 6.099146867953485, 52.470310500107708 ], [ 6.094246417841711, 52.474110997749996 ], [ 6.089267535301642, 52.476811259316683 ], [ 6.07642127709086, 52.480223350033661 ], [ 6.071425339381989, 52.482107475450064 ], [ 6.066371184210722, 52.485170772318675 ], [ 6.063430334918033, 52.488053192485964 ], [ 6.061774198530737, 52.490398177646128 ], [ 6.058397550624727, 52.496003131338924 ], [ 6.054220198457415, 52.49978708317915 ], [ 6.046187366442828, 52.503860638993743 ], [ 6.04050911410419, 52.506257708034958 ], [ 6.027857495881694, 52.509606198075417 ], [ 6.025346483902348, 52.506573325633745 ], [ 6.022851398769132, 52.505331874914653 ], [ 6.019337544367755, 52.504827483524679 ], [ 6.01508037331039, 52.505962785573871 ], [ 6.012367444056241, 52.505939766242463 ], [ 6.007609954942156, 52.504260030300301 ], [ 6.000788399528783, 52.500148824093358 ], [ 5.991722415288448, 52.493898797179781 ], [ 5.983161653783394, 52.488975709126123 ], [ 5.971808618484512, 52.481252119054453 ], [ 5.965309017770499, 52.476444388987957 ], [ 5.958300972587902, 52.484063008325549 ], [ 5.952881505466445, 52.484438474019832 ], [ 5.949889672895583, 52.483808557885851 ], [ 5.946122016072928, 52.482039602145392 ], [ 5.936879886261966, 52.47649905057046 ], [ 5.935409705107127, 52.477392031479383 ], [ 5.925559444609619, 52.474057585981782 ], [ 5.920851872256148, 52.482554797284863 ], [ 5.909559854081159, 52.497954578137623 ], [ 5.90158112268962, 52.505679143346512 ], [ 5.887276661879802, 52.516906191691895 ], [ 5.883318680644765, 52.519230750512939 ], [ 5.882604397107428, 52.518961219305787 ], [ 5.879022573809696, 52.521661640343318 ], [ 5.877762684932989, 52.521148499276883 ], [ 5.876205398831458, 52.522025019978109 ], [ 5.865801302973852, 52.518658060938485 ], [ 5.862855957451654, 52.521764426728765 ], [ 5.86281820715725, 52.526117303597367 ], [ 5.861887320568062, 52.528095375634898 ], [ 5.862302839074633, 52.531586283139717 ], [ 5.860005863896368, 52.536036711692951 ], [ 5.860584714274476, 52.537389614953504 ], [ 5.862558209376668, 52.538134035168241 ], [ 5.860745541312056, 52.538533316174735 ], [ 5.860406212933324, 52.537900107328433 ], [ 5.859347788724442, 52.542275545886362 ], [ 5.856950304552938, 52.544027182833318 ], [ 5.857721220994054, 52.545181403045412 ], [ 5.85650821388667, 52.545850090678478 ], [ 5.858578377530639, 52.54708250785658 ], [ 5.858237468206225, 52.547520649909103 ], [ 5.857350359924109, 52.547390420074954 ], [ 5.856063124341608, 52.551899847965046 ], [ 5.855411767294283, 52.55123126264408 ], [ 5.854397080023667, 52.551572907504053 ], [ 5.854558860631054, 52.552402341686367 ], [ 5.852741113772253, 52.552847470502165 ], [ 5.852829729940804, 52.55441949410762 ], [ 5.851008023109, 52.557425410527493 ], [ 5.847748661264843, 52.558267679254669 ], [ 5.848499495047577, 52.559210723503881 ], [ 5.842022628749795, 52.56250966760512 ], [ 5.840752242600867, 52.56464014654923 ], [ 5.839917833859657, 52.56971198393223 ], [ 5.832161357650894, 52.576735015071414 ], [ 5.823981568532514, 52.579837081403525 ], [ 5.819325915802959, 52.580114552005256 ], [ 5.814075715974067, 52.582566667854202 ], [ 5.828214374837892, 52.582462479776119 ], [ 5.838425050136458, 52.581705774468162 ], [ 5.839720787451994, 52.582258685602064 ], [ 5.838513899964014, 52.583082655491609 ], [ 5.829841719285929, 52.583758523172897 ], [ 5.806800860927426, 52.584096756864241 ], [ 5.815114235799142, 52.588359042374378 ], [ 5.820161753620089, 52.588985759827544 ], [ 5.819838928468994, 52.587920814968157 ], [ 5.814143928601796, 52.586864424717902 ], [ 5.814375118772363, 52.584938047220007 ], [ 5.817431009153997, 52.584794346660253 ], [ 5.820550566227555, 52.586605211715174 ], [ 5.827850450721233, 52.587325033133069 ], [ 5.832158275148624, 52.586358174667858 ], [ 5.839866529825398, 52.582756964149127 ], [ 5.841625567197761, 52.5838118534583 ], [ 5.836035238767703, 52.586886700368545 ], [ 5.831257015235837, 52.591272374114595 ], [ 5.835687251425936, 52.596082468979859 ], [ 5.835284925258803, 52.597175955578457 ], [ 5.832147875696999, 52.597847773815239 ], [ 5.831891518609017, 52.600314804216247 ], [ 5.840646320865954, 52.610429739310348 ], [ 5.843008727211804, 52.610750612460841 ], [ 5.888084402481143, 52.616862924073949 ], [ 5.896298374361238, 52.617974691409685 ], [ 5.905911339706551, 52.618287464544217 ], [ 5.907801165704046, 52.61584610038534 ], [ 5.917696387602637, 52.612641039567812 ], [ 5.926608228502292, 52.613306471573182 ], [ 5.931419169009057, 52.613875018533825 ], [ 5.941626116497916, 52.617588150942979 ], [ 5.950921091311463, 52.619987191977174 ], [ 5.955100550762839, 52.62138429097547 ], [ 5.955745339779936, 52.622894970997137 ], [ 5.958420455951023, 52.624786571202229 ], [ 5.968643852717174, 52.623090181752772 ], [ 5.975216072400118, 52.622973913382978 ], [ 5.986401565097824, 52.625017686400113 ], [ 5.987174906987368, 52.626930108049784 ], [ 5.99040052275403, 52.625834371491074 ], [ 6.010786503834627, 52.637144284699751 ], [ 6.011983929040729, 52.636831466651266 ], [ 6.012861632073047, 52.639744051146366 ], [ 6.017841573772677, 52.63906714147533 ], [ 6.020339052585899, 52.637893672095096 ], [ 6.020353286202121, 52.638661893941183 ], [ 6.022226768090551, 52.639512185722204 ], [ 6.01864777704982, 52.643240033636943 ], [ 6.017504775319403, 52.643399497131263 ], [ 6.015973163311134, 52.643981450696451 ], [ 6.014503442436822, 52.645885390849912 ], [ 6.005665902935225, 52.651853090973589 ], [ 6.002016587599455, 52.653508209861926 ], [ 5.996819803213749, 52.655073996592485 ], [ 5.984108270165343, 52.657176922563686 ], [ 5.979546420979964, 52.660495570114854 ], [ 5.970814000439276, 52.665188817393989 ], [ 5.966851667729429, 52.666580183331888 ], [ 5.963054292289044, 52.666398312168603 ], [ 5.961794957408784, 52.66729648647636 ], [ 5.958172509199565, 52.667809474599501 ], [ 5.954017326446539, 52.667674058123062 ], [ 5.941593519481772, 52.670516676289765 ], [ 5.940101132670559, 52.670426564229942 ], [ 5.939725865726151, 52.668835247164431 ], [ 5.935147852609884, 52.669233803554256 ], [ 5.934593466912041, 52.669781616115642 ], [ 5.93308401620595, 52.671263516168011 ], [ 5.932750590019315, 52.673188922592558 ], [ 5.933870298665179, 52.675510458509194 ], [ 5.940160538974165, 52.679223209114269 ], [ 5.945376969690003, 52.682301419808326 ], [ 5.944707565303116, 52.682712575088189 ], [ 5.946847878797455, 52.684002772528039 ], [ 5.949519112966519, 52.685713458564685 ], [ 5.951508805288473, 52.684951902447587 ], [ 5.952740279675786, 52.685240021558386 ], [ 5.959400149806233, 52.689950309309801 ], [ 5.962104800177959, 52.690350674222522 ], [ 5.965155429263163, 52.69356972280216 ], [ 5.964825026891277, 52.698104423271253 ], [ 5.959011668664417, 52.703863423520495 ], [ 5.954839010279306, 52.703767625656972 ], [ 5.955315511003246, 52.707261773050256 ], [ 5.952091738539221, 52.710876222179522 ], [ 5.951161371143035, 52.711919221711526 ], [ 5.942555031301335, 52.715001999593056 ], [ 5.941169754132894, 52.717550648616346 ], [ 5.935559418644981, 52.730251722705596 ], [ 5.930150529520861, 52.739586126801356 ], [ 5.921829484094165, 52.751169701389429 ], [ 5.906009446363249, 52.761325557395594 ], [ 5.900054127240127, 52.761195253141096 ], [ 5.897761868482398, 52.762134868772293 ], [ 5.896085417085646, 52.762822015055271 ], [ 5.894382821713619, 52.765133700301327 ], [ 5.892550334345012, 52.765959693989508 ], [ 5.885136550783225, 52.769300849389431 ], [ 5.879938535151886, 52.773091565583591 ], [ 5.862083295200251, 52.781022553402572 ], [ 5.850296490711259, 52.784530799425788 ], [ 5.843389942568436, 52.784463617986816 ], [ 5.841618422995423, 52.785138379833896 ], [ 5.837310574979447, 52.785023887886162 ], [ 5.836054309703256, 52.785635095644267 ], [ 5.828146520578368, 52.785545339297443 ], [ 5.818791763500077, 52.78469664770391 ], [ 5.818656493205891, 52.787635733404656 ], [ 5.812725480421597, 52.791186413553973 ], [ 5.803474410190059, 52.796858701980611 ], [ 5.795177033982417, 52.806521837382419 ], [ 5.810015541433563, 52.813883551092104 ], [ 5.81974419827096, 52.817278388588818 ], [ 5.819896856797564, 52.816903304274874 ], [ 5.820306033018416, 52.815950193824897 ], [ 5.822354325060527, 52.815109428109764 ], [ 5.824154493653732, 52.813297054465565 ], [ 5.828720575659601, 52.813426933445712 ], [ 5.833411154900569, 52.811760618825929 ], [ 5.837365345852888, 52.808261814500206 ], [ 5.836101862643067, 52.805954609838039 ], [ 5.838444419259773, 52.805947028796822 ], [ 5.842201968061011, 52.807584265380676 ], [ 5.843593643370088, 52.805032542601253 ], [ 5.849951822689008, 52.806161687265252 ], [ 5.854802503426849, 52.805518196796889 ], [ 5.857026771679714, 52.807228860857784 ], [ 5.859639957763688, 52.804536244399877 ], [ 5.865636138636162, 52.804650455320264 ], [ 5.868679640983712, 52.802726229349432 ], [ 5.876292243042149, 52.80085487188024 ], [ 5.879580817917839, 52.801202677854214 ], [ 5.882577946902519, 52.803919600683429 ], [ 5.892781929799605, 52.806050892432651 ], [ 5.897881478136421, 52.807803312165468 ], [ 5.900657173528275, 52.811824865473355 ], [ 5.908583603373417, 52.813712079145539 ], [ 5.911965720349007, 52.816115948827765 ], [ 5.91385994440868, 52.818622114198853 ], [ 5.916321230362877, 52.820280337124657 ], [ 5.924202018826967, 52.823589843310849 ], [ 5.922946169257385, 52.827525835092793 ], [ 5.926409573961534, 52.828183444963173 ], [ 5.922747258220824, 52.829872580895618 ], [ 5.923097636703166, 52.831034503323963 ], [ 5.926983265579941, 52.831576785117242 ], [ 5.930115122195552, 52.831356541784373 ], [ 5.930653798564274, 52.832247560232062 ], [ 5.926732157708866, 52.833291768494306 ], [ 5.930157747360847, 52.835012906904595 ], [ 5.938019494307728, 52.835381769702941 ], [ 5.941975756954634, 52.836019907509197 ], [ 5.946247287987606, 52.837424715443582 ], [ 5.95578367377808, 52.833234569102586 ], [ 5.956853360228322, 52.834442704249895 ], [ 5.955792338084168, 52.837441846163642 ], [ 5.958731318940835, 52.839765961312168 ], [ 5.969976268217108, 52.84237532308866 ], [ 5.973127795318994, 52.842469714403109 ], [ 5.972438087974245, 52.841916695024146 ], [ 5.972870727900841, 52.840713570091594 ], [ 5.976174984669167, 52.834748172011921 ], [ 5.981776609245582, 52.829283265465392 ], [ 5.986394300541116, 52.821853984019398 ], [ 5.986473074449422, 52.821703121587596 ], [ 5.988904137828438, 52.822063953540564 ], [ 5.990574655407381, 52.821596560818115 ], [ 5.994209508160877, 52.819116243366238 ], [ 5.99650785655816, 52.816561509679616 ], [ 5.999078385382298, 52.816910007598544 ], [ 6.007483397850737, 52.820046468905083 ], [ 6.01789959442993, 52.821900336898551 ], [ 6.024558962546593, 52.82254466263565 ], [ 6.026616498966662, 52.821077601966692 ], [ 6.031168379643614, 52.814990708691667 ], [ 6.038209014769423, 52.817714109237919 ], [ 6.046957442935557, 52.820526384718164 ], [ 6.052935858526172, 52.824123365356975 ], [ 6.057816399737717, 52.82545265777393 ], [ 6.059951033724858, 52.826118536690963 ], [ 6.059300071150941, 52.82680556123848 ], [ 6.054979225445256, 52.831347286772193 ], [ 6.052607348006824, 52.837339119689084 ], [ 6.054546995456656, 52.837631313406789 ], [ 6.061512949381646, 52.839296291183956 ], [ 6.081000267767655, 52.838732323302587 ], [ 6.083297784399598, 52.839486976242299 ], [ 6.087480419982726, 52.843113862688689 ], [ 6.093193098063399, 52.844579417944786 ], [ 6.119819889813939, 52.854214943213968 ], [ 6.128694393238034, 52.847807370316893 ], [ 6.130451673129389, 52.843872550585857 ], [ 6.136820738774003, 52.838825432627104 ] ] ] ] } }
]
}
